action,supabase_id,business_name,city,state,phone,current_email,new_email,email_change,current_website,new_website,website_change,new_facebook,new_instagram,new_linkedin,new_twitter
UPDATE,0023453c-ddf5-444c-a294-f05787d6dec0,Apple West 14th Street,New York,New York,(212) 444-3400,,,NONE,,https://www.apple.com/retail/west14thstreet%3Fcid%3Daos-us-seo-maps,ADD,http://www.facebook.com/sap,https://www.instagram.com/amazon,http://www.linkedin.com/company/sap,http://www.x.com/sap
UPDATE,00a0d8cf-979f-4783-b2b9-5cff211c6633,Professional Plus Services Inc,Norristown,Pennsylvania,(610) 584-7867,,proplusservices@verizon.net,ADD,,http://www.professionalplusservices.com/,ADD,,,,
SKIP,00cac3c5-1cf6-4bff-8a0a-8f315be4c3ab,A-1 Rooter LLC.,Craig,Colorado,(970) 629-0329,a1rooterllc@yahoo.com,,KEEP,http://a1rooterllc.com/,,KEEP,https://facebook.com/a1rooterllc,,,
UPDATE,017dee58-bbe3-411a-8c27-c59320336555,B's Portable Toilets,Idaho Falls,Idaho,(208) 339-7867,,contact@bsportables.com,ADD,,http://www.bsportables.com/,ADD,,,,
SKIP,01c09e94-22cd-4588-8182-d64db92936ee,Proper Site Services,Phoenix,Arizona,(602) 612-8821,info@propersiteservices.com,,KEEP,https://propersiteservices.com/,,KEEP,https://www.facebook.com/propersiteservices,https://www.instagram.com/propersiteservices,https://www.linkedin.com/company/proper-site-services,
UPDATE,0220a3fc-0219-4d21-a9d2-41090beaf4f8,English Sewage Disposal Inc,Bridgeton,New Jersey,(856) 358-4771,,paul.behrens@englishsewage.com,ADD,,http://englishsewage.net/,ADD,https://www.facebook.com/englishsewage,,,https://twitter.com/englishseptic
UPDATE,02541a30-163e-464d-abda-59acc1288b51,Royal Restrooms Savannah/Hilton Head Island,Garden City,Georgia,(912) 234-6800,,sales@royalrestrooms.com,ADD,https://georgiaportablerestrooms.com,,KEEP,https://www.facebook.com/royalrestroomssavannah,https://www.instagram.com/royalrestroomssav,,
UPDATE,0286f5cb-69ae-4f7d-888d-b1bdcd17e036,Portable Toilet Rentals Springfield,Springfield,Missouri,(417) 815-3084,,,NONE,,https://portabletoiletrentalsspringfield.business/,ADD,,,,
UPDATE,029a7856-122d-4850-9a75-dc10f44f7317,"Homepro Medical Supplies, LLC",Brooklyn,New York,(800) 437-3677,,dsschwartz@homepromedical.com,ADD,,http://homepromedical.com/,ADD,https://www.facebook.com/homepromedical/,,,
UPDATE,02a2f28c-e8f7-4820-837d-1944161da3ec,Luxe Flush,Sanford,Florida,(888) 201-6485,,info@theluxeflush.com,ADD,http://theluxeflush.com/,,KEEP,https://www.facebook.com/luxeflush/,https://www.instagram.com/luxeflush,https://www.linkedin.com/company/luxe-flush-restroom-trailers,
SKIP,0367e666-5368-43d6-8d69-579f3549905a,PCS -Power Cooling Sanitation Rentals,Tampa,Florida,(813) 516-0604,info@rentalpcs.com,,KEEP,https://rentalpcs.com/,,KEEP,,,,
UPDATE,044b9e8b-037e-4d7e-a019-06ca6621a9a1,Elvis Service Company,Myrtle Beach,South Carolina,(843) 448-5016,,info@elvisservicecompany.com,ADD,,https://elvisservicecompany.com/,ADD,https://www.facebook.com/elvisserviceco,https://www.instagram.com/elvisserviceco,,https://twitter.com/ElvisService
UPDATE,04739321-83b5-4cbd-b977-0a4223af4e7d,Blue Bear Waste Services,Denver,Colorado,(720) 818-7646,,yvonne.cook@bluebearwaste.com,ADD,https://bluebearwaste.com/location/colorado/%3Futm_source%3Dlocalfx%26utm_medium%3Dorganic%26utm_campaign%3Dlocalfx,,KEEP,https://www.facebook.com/BlueBearWaste/,https://www.instagram.com/blue_bear_waste,https://www.linkedin.com/company/blue-bear-waste-services,
SKIP,04847951-149d-4890-9a24-0d5a14c93321,Cen Cal Portables,Turlock,California,(209) 656-8305,,,NONE,https://www.cencalportables.com/contact-us/,,KEEP,,http://www.instagram.com/cencal.portables,,
UPDATE,04ae729a-2ffc-4264-bcdf-b6e02bf8bb90,C&W Portables,Mcbain,Michigan,(231) 723-9002,,service@jonstogo.com,ADD,,https://cwportables.com/,ADD,,,,
UPDATE,05063a5c-7659-47f5-9cfb-e1cb1f345d5a,Tiger Sanitation Services LLC,Baton Rouge,Louisiana,(225) 634-9988,,info@tigertoilets.com,ADD,,https://www.tigertoilets.com/,ADD,https://www.facebook.com/tigersanitation,,http://linkedin.com/company/tiger-sanitation-services-llc,
UPDATE,0510c871-ff09-460b-adcc-d20a4154fb72,"West Toi | Portable Toilet Rentals | Toilet Rentals | Tampa, FL",Tampa,Florida,(813) 900-6558,,lopezyosbany110@gmail.com,ADD,https://westtoi.com/,,KEEP,https://www.facebook.com/3-Brothers-Tree-Service-101035035633671/,https://www.instagram.com/devcodela,,https://twitter.com/DevCodela
UPDATE,05dbd05e-d5f3-4bda-860b-34aaa27c60ae,Sheldon Portable Toilets,Ashby,Massachusetts,(978) 386-9987,,,NONE,,http://www.sheldonportables.com/,ADD,https://www.facebook.com/243125362562776,,,
UPDATE,0603134d-4995-4d11-8224-749d3495a2dc,Got-A-Go Rentals & Septic Services,Independence,Kentucky,(859) 282-7700,,accounting@got-a-go.com,ADD,,http://www.got-a-go.com/,ADD,https://www.facebook.com/Got-A-Go-Rentals-Septic-Service-166405963385609/,https://www.instagram.com/gotago14,,https://twitter.com/GotaGo14
UPDATE,06134b65-5605-4398-abbb-803318f6a193,"JayBird Portable Restrooms, LLC",Lawrenceburg,Tennessee,(931) 762-9989,,office@jaybirdportables.com,ADD,http://www.jaybirdportables.com/,,KEEP,,,,
SKIP,06934ec5-391c-4749-9d7c-8a36b78ae520,The Lavatory,Fresno,California,(209)-699-8443,michael@thelavatory.com,,KEEP,https://thelavatoryfresno.com/,,KEEP,https://www.facebook.com/lavatoryfresno/,https://www.instagram.com/thelavatoryfresno,,
SKIP,07274a88-e47e-44bd-be0a-307d1d22262e,Tallahassee Porta Potty Rental | PortaPlus,Tallahassee,Florida,(850) 202-7433,contact@tallahasseeportapotties.com,,KEEP,https://tallahasseeportapotties.com/,,KEEP,https://www.facebook.com/tallahasseeportapottyrentalportaplus/,https://www.instagram.com/tallahasseeportapottyrental,https://www.linkedin.com/company/tallahassee-porta-potty-rental-portaplus,https://twitter.com/tallahasseepot
UPDATE,094cfdce-3133-4c7a-b606-b73cbd6bcb5c,New England Restrooms,Middleton,Massachusetts,(978) 988-8869,,office@newenglandrestrooms.com,ADD,,http://newenglandrestrooms.com/,ADD,,,,
UPDATE,0bd67e63-e0b9-4ff3-a1c6-246fdcc851f7,Island Restrooms,Belle Glade,Florida,(561) 680-2772,,service@islandrestrooms.com,ADD,,https://islandrestrooms.com/%3Futm_source%3Dorganic%26utm_medium%3Dgmb%26utm_campaign%3Dbelle_glade_fl%26utm_id%3Dlocal,ADD,https://www.facebook.com/islandrestrooms/,https://www.instagram.com/islandrestroomsuites,,https://twitter.com/intent/
UPDATE,0c707bda-5868-47ac-a775-9c7a6ddcbaaf,Arcade Portables LLC,Ettrick,Wisconsin,(608) 525-4225,,john@septicpumpingwi.com,ADD,,https://septicpumpingwi.com/,ADD,https://www.facebook.com/165222646955310,,,
UPDATE,0c827b1c-f2c3-4c15-9334-85324fca7571,"Texas Johns, LLC",Houston,Texas,(940) 343-9229,,info@texasjohns.com,ADD,https://texasjohns.com/porta-potty-rentals-houston-tx,,KEEP,https://www.facebook.com/texasjohns,,,https://twitter.com/texasjohnstx
SKIP,0cfe4cd4-742f-4e48-b5d4-13a7f06ced6a,Swift Portable Toilet Rental Oxnard,Oxnard,California,(805) 229-2435,,,NONE,https://swiftportabletoiletoxnardworks.com/,,KEEP,,,,
UPDATE,0e04b994-8399-4543-8437-fe93b962b8f8,A Royal Flush Portables,Rapid City,South Dakota,(605) 787-2871,,royalflushportables16@gmail.com,ADD,,https://www.aroyalflushportables.com/,ADD,,,,
UPDATE,0eabbf85-cf54-429b-afe4-4bdebfa449a7,J&J Elite LLC Restroom Trailers,Millville,Minnesota,,,sales@jjelitetrailers.com,ADD,,https://www.jjelitetrailers.com/%3Futm_source%3Dgoogle%26utm_medium%3Dwix_google_business_profile%26utm_campaign%3D2358064085434373496,ADD,,,,
UPDATE,0efe0775-db91-4e55-9624-df81aa55355d,Ace Portable Services,Watsonville,California,(831) 465-0406,,aceportables@yahoo.com,ADD,https://aceportableservices.com/,,KEEP,https://www.facebook.com/aceportableservices,,,
UPDATE,0f3fa7e5-9db0-49f4-89ec-f49057f04b66,Charlie's Septic Service,Annville,Pennsylvania,(717) 838-7228,,customerservice@charliesseptic.com,ADD,,http://charliesseptic.com/,ADD,https://www.facebook.com/charliessepticservice,,,
UPDATE,0f50e673-0e51-40c8-a8fc-d37a7df8124d,Pippin & Son Inc,East Windsor,Connecticut,(860) 623-2313,,petepippin@gmail.com,ADD,http://www.pippinandson.com/,,KEEP,,,,
UPDATE,103810ba-a0d3-4e77-ba0e-1d7365fd9030,Strickland Portable Toilets,Cullman,Alabama,(256) 734-5773,,info@stricklandportabletoilets.com,ADD,,http://www.stricklandportabletoilets.com/,ADD,,,,
UPDATE,105aafb3-423e-408c-b5ba-14442b8f3f61,Porta Potty Rentals of Oakland,Oakland,California,(405) 353-9386,,info@proportapottyrental.com,ADD,,https://proportapottyrental.com/locations/oakland-ca,ADD,,,,
UPDATE,106dfc6d-e212-4c3e-89bd-2d0ead2955b1,Toombs Septic Services LLC,Clear Lake,Wisconsin,(715) 263-4333,,ntoombs@cltcomm.net,ADD,,https://toombssepticservices.com/,ADD,https://www.facebook.com/ToombsSeptic/,,,
SKIP,110ab12d-787b-46c9-8bf2-ab6e8e5fcb3b,Coleman Services,Louisville,Kentucky,(502) 968-7534,,,NONE,https://colemanserviceky.com/,,KEEP,,,,
UPDATE,11843e50-6969-4865-8541-b84fc287e2ab,Bill's Plumbing & Sanikan,Sequim,Washington,(360) 683-7996,,jason@backusmarketing.com,ADD,,http://www.billsplumbinginc.com/,ADD,https://www.facebook.com/Bills-Plumbing-Sanikan-Portable-Toilets-117931238270858,,,
SKIP,1277c879-d0fc-4fd5-a4ed-2fe448b799d9,Orlando Porta Potties | PotPro,Orlando,Florida,(689) 268-1167,contact@orlandoportapotties.com,,KEEP,https://orlandoportapotties.com/,,KEEP,https://www.facebook.com/orlandoportapottiespotpro/,https://www.instagram.com/orlandoportapottiespotpro,https://www.linkedin.com/company/orlando-porta-potties-potpro/,https://twitter.com/orlandopotties
UPDATE,1343b742-be5a-427e-9dbf-b8e7d3e234ed,Ur-Ine Luck Portables and Septic,Big Pine,California,(760) 874-8105,,urineluckpotties@gmail.com,ADD,https://www.urineluck.org/,,KEEP,,,,
UPDATE,13fd5d75-b86a-4bfa-9f3b-e4038d5cc926,C and A Portable Potties,Watsonville,California,(831) 728-2269,,caportablepotties@yahoo.com,ADD,http://www.candaportablepotties.com/,,KEEP,http://www.facebook.com/c-a-portable-potties-556106244723730,,http://www.linkedin.com/company/c&a-portable-potties-service,
UPDATE,1568ef6b-290c-486d-bb52-fe1722cc6718,Porta Potty Rentals of Boston,Boston,Massachusetts,(857) 370-5615,,info@proportapottyrental.com,ADD,,https://proportapottyrental.com/locations/boston-ma,ADD,,,,
UPDATE,160200af-6898-420f-a3df-825f9a15b9f2,"J W Craft Portable Restrooms, Inc.",Naples,Florida,(239) 445-5514,,jennifer@jwcraft.com,ADD,,https://jwcraft.com/%3Futm_source%3Dgoogle%26utm_medium%3Dorganic%26utm_campaign%3Dgbp,ADD,,,http://www.linkedin.com/company/1278645,
UPDATE,1605a134-c972-47d3-bba2-85e5853a1449,310 Dust Control LLC,New River,Arizona,(602) 228-8753,,james@310dustcontrol.com,ADD,,https://www.310dustcontrol.com/,ADD,https://www.facebook.com/310DustControl/,,,https://twitter.com/310dustcontrol
UPDATE,16396766-f005-4340-b868-1f55ac246f3d,"Satellite Shelters, Inc. - Main Office",Plymouth,Minnesota,(763) 553-1900,,tallyho2u@mchsi.com,ADD,,https://www.satelliteco.com/locations/plymouth-mn/,ADD,https://www.facebook.com/satelliteshelters,,https://www.linkedin.com/company/satellite-shelters-inc,https://www.twitter.com/satshelters
UPDATE,165648b3-18fe-48e6-8612-9b8d809eeaa7,Walters Services Inc.,Owings,Maryland,(866) 375-1227,,jspangler@waltersservicesinc.com,ADD,,https://waltersservicesinc.com/locations/owings-md/%3Futm_source%3Dgoogle%26utm_medium%3Dorganic%26utm_campaign%3Dgbp_owings,ADD,https://www.facebook.com/WaltersServicesInc/,https://www.instagram.com/walters_portable_toilets,https://www.linkedin.com/company/walters-services-inc,https://support.twitter.com/articles/
UPDATE,17822729-9ce4-42eb-9d87-51e7471a6317,Hoover Porta Potties | TidyPot,Hoover,Alabama,(256) 834-5175,,info@hooverportapotties.com,ADD,,https://hooverportapotties.com/,ADD,https://www.facebook.com/hooverportapottiestidypot/,https://www.instagram.com/hooverportapottiestidypot,https://www.linkedin.com/company/hoover-porta-potties-tidypot/,https://twitter.com/hooverpotties
UPDATE,17bbdec8-f932-4088-acb1-85f43e35a716,Zuidema Septic Services & Portable Toilets,Midland Park,New Jersey,(888) 901-7392,,info@zuidemaportabletoilets.com,ADD,https://www.davidzuidema.com/,,KEEP,https://www.facebook.com/Zuidema-Portable-Toilets-137171457096989/,https://www.instagram.com/zuidemaportabletoilets,https://www.linkedin.com/company/david-zuidema,https://twitter.com/ZuidemaSeptic
SKIP,17beeff9-d47d-4f24-9def-2b0ad69ba9eb,Valley Sanitation Services Inc,Reedley,California,(559) 770-0754,dispatch@valleysanitationservices.com,,KEEP,https://valleysanitationservices.com/,,KEEP,,,,
UPDATE,17fce3aa-95c2-4b8b-98d9-9226dca1fc1f,Portable Restroom Solutions,Johnstown,Colorado,(970) 834-1275,,,NONE,,http://theportablerestroomsolution.com/,ADD,,,,
UPDATE,1846f8be-3377-4846-951d-3abd719d278f,Tillett Toilets,Palmyra,Pennsylvania,(717) 473-5961,,,NONE,,http://www.tilletttoilets.com/,ADD,,,,
UPDATE,18dcccdc-3c92-4ebd-8d41-08779c9f490c,Global Site Services,Mansfield Center,Connecticut,(888) 324-7885,,dan@globalsiteservices.net,ADD,,http://www.globalsiteservices.net/,ADD,,,,
UPDATE,18e0444c-b8fe-4dee-903d-97c5d3cbb773,Miller Environmental Services,Addison,Alabama,(256) 522-3945,,mward@millerenvironmentalservices.com,ADD,,http://millerenvironmentalservices.com/,ADD,,,,
UPDATE,1932611b-0b76-4e4d-9d55-f8fd031b4d49,Porta Potty Rentals of Las Vegas,Las Vegas,Nevada,(702) 357-9623,,info@proportapottyrental.com,ADD,,https://proportapottyrental.com/locations/lasvegas-nv,ADD,,,,
UPDATE,196b721a-2535-4662-8bc9-ea7430b591dd,All Site Rentals | Porta Potty & Fencing,Chatsworth,California,(818) 960-1941,,info@allsiterentals.com,ADD,,https://www.allsiterentals.com/%3Futm_source%3Dgbp_listing%26utm_medium%3DOrganic,ADD,,https://instagram.com/all_site_rentals,,
UPDATE,1984b324-58fd-4ce8-805d-f57f5d0a61d0,Plumber's Portable Toilet Services,Allegan,Michigan,(800) 223-9563,,r.harrington@plumbersportabletoilets.com,ADD,,http://www.plumbersportabletoilets.com/,ADD,https://www.facebook.com/Plumbers-Portable-Toilet-Service-1406685256235600,,,
UPDATE,199b7285-9833-4e64-9970-12ba9ef53061,Go Potties,Las Vegas,Nevada,(725) 274-8375,,hello@gopotties.com,ADD,,https://gopotties.com/,ADD,,,,
SKIP,1a19c150-689e-4191-996b-0f2984e86771,Purefy Porta Potty Rental Boston,Boston,Massachusetts,(617) 634-5583,info@purefyportapottyrentalboston.com,,KEEP,https://purefyportapottyrentalboston.com/,,KEEP,https://www.facebook.com/PurefyPortaPottyRentalBoston/,https://www.instagram.com/purefyportapottyrentalboston,https://www.linkedin.com/company/purefy-porta-potty-rental-boston/,
UPDATE,1a320654-4f55-455c-8e63-9d6b72a89a65,Lone Star Restroom Rentals,La Marque,Texas,(832) 263-4901,,,NONE,,https://portabletoiletsupplierlamarque.com/,ADD,,,,
SKIP,1ab81d52-84fd-4292-9850-f0afe4962fe5,Fresno Portable Toilet Rentals,Fresno,California,(559) 245-9960,,,NONE,https://professionalfresnotoilets.us/,,KEEP,,,,
UPDATE,1ac557d1-1c71-49a8-85d3-d701803240c2,Master Grab Bar Inc,Lewes,Delaware,(302) 644-4404,,s.bell@mastergrabbar.com,ADD,,http://mastergrabbar.com/,ADD,https://www.facebook.com/MasterGrabBar,,,https://twitter.com/mastergrabbar
UPDATE,1ae7d79e-70f7-4a5f-8002-47e5925c67bf,GN Sanitation Porta Potty,Houston,Texas,(832) 402-7234,,help@gnsanitationportapotty.com,ADD,https://gnsanitationportapotty.com/,,KEEP,,,,
SKIP,1b269d69-be22-4ec3-9ce6-9b0f502ab54b,Haul-a-Stall,New York,New York,(844) 417-8255,impallari@gmail.com,,KEEP,https://haulastall.com/,,KEEP,,https://www.instagram.com/haulastall,https://www.linkedin.com/company/haul-a-stall,
UPDATE,1b37e19b-4e2e-4798-b076-4e2e8f57d189,Outhouse Solutions,Cleveland,Texas,(281) 622-7163,,outhousesolutionsap@gmail.com,ADD,https://outhousesolutionsa.wixsite.com/mysite,,KEEP,https://www.facebook.com/100063915586148/videos/d30a2f42/172258711211586/,,,
UPDATE,1b7da6a3-69dc-4d71-98e4-d94cfb96b1f7,Diamond State Restrooms,Wilmington,Delaware,(302) 428-9522,,,NONE,,https://www.diamondstaterestrooms.com/,ADD,,,,
SKIP,1b8cad3f-af12-46fa-8ea9-746713f828b8,Rapid Portable Toilet Rental Reseda,Reseda,California,(818) 306-9863,admin@rapidportabletoiletresedamasters.com,,KEEP,https://rapidportabletoiletresedamasters.com/,,KEEP,,,,
UPDATE,1bc8ac6d-4109-4872-a736-902e3898ccdf,Magnolia Restroom Co.,Nashville,Tennessee,(615) 998-6403,,events@magnoliarestrooms.com,ADD,https://www.magnoliarestrooms.com/,,KEEP,https://www.facebook.com/MagnoliaRestrooms,https://www.instagram.com/magnoliarestrooms,,
UPDATE,1c01bf19-b570-4dce-9851-6b361a2d0941,Walters Services Inc,Hatfield,Pennsylvania,(800) 690-5756,,jspangler@waltersservicesinc.com,ADD,,https://waltersservicesinc.com/locations/hatfield-pa/,ADD,https://www.facebook.com/WaltersServicesInc/,https://www.instagram.com/walters_portable_toilets,https://www.linkedin.com/company/walters-services-inc,https://support.twitter.com/articles/
UPDATE,1d5b6278-c02b-4df5-a4ff-d158870076c6,"Portable Services, Inc.",Augusta,Georgia,(706) 609-3658,,jbentley@portableservices.net,ADD,,https://portableservices.net/%3Futm_source%3Dgoogle%26utm_medium%3Dorganic%26utm_campaign%3Dgbp,ADD,https://www.facebook.com/PortableServicesInc1,https://www.instagram.com/portable_services_inc,https://www.linkedin.com/company/portable-services-inc.,
UPDATE,1e022e7d-2a28-4d2e-af1e-d1947abababa,Weaver Septic Service & Portable Toilets,Rainbow City,Alabama,(256) 546-7161,,weaverseptic@gmail.com,ADD,,http://www.weaversepticservicellc.com/,ADD,https://www.facebook.com/weaverseptic/,,,
UPDATE,1ec70073-bdb7-4b35-b041-9647188782eb,Posh Potties Restroom Trailer Rentals,Fenton,Michigan,(810) 620-6765,,poshpottiesrtr@gmail.com,ADD,,https://poshpottiesrestroomtrailers.com/contact,ADD,,,,
SKIP,1ec70a6d-5288-4ef5-9b31-5255b81e7c2c,Classy Stalls,Buckeye,Arizona,(623) 824-8369,luxuryrestrooms@classystalls.com,,KEEP,https://classystalls.com/,,KEEP,https://www.facebook.com/classystalls,https://www.instagram.com/classystalls,,
SKIP,1ee6deb5-bdfe-4ebd-811d-54c2a024c721,Pleasant View Waste,Clinton,Massachusetts,(978) 365-3244,office@pleasantviewwaste.com,,KEEP,https://www.pleasantviewwaste.com/,,KEEP,https://www.facebook.com/pleasantview.wasteremoval/,https://www.instagram.com/pleasantviewwaste,,
SKIP,1f430f06-1703-473a-87a3-88834f39e502,Sani-Can,North Pole,Alaska,(907) 456-2267,sanican@northpole-ak.com,,KEEP,https://sani-can.biz/,,KEEP,https://www.facebook.com/sanicanalaska/,,,
UPDATE,1fa186c0-9b4f-4517-99bc-1d5ce1352c8a,Spanky's Portable Toilets,Tuscaloosa,Alabama,(205) 556-0081,,,NONE,,https://spankyspt.com/,ADD,,,,
UPDATE,1fc5159a-4eec-4c20-8837-4ff30c56b147,SHEP BOYS WASTE MGMT,Cypress,Texas,(281) 758-5990,,info@shepboyswaste.com,ADD,http://www.shepboyswaste.com/,,KEEP,,https://www.instagram.com/shepboyswaste,,https://twitter.com/SHEPBOYSWASTE
UPDATE,1fea6571-df38-4e79-a376-b84dd890b67b,Horses Sanitation Service,Harrod,Ohio,(419) 648-9135,,horsessanitation@gmail.com,ADD,,https://www.horsessanitationservice.com/,ADD,https://www.facebook.com/HorsesSanitationService/,,,https://twitter.com/HorsesSanitati
UPDATE,20019830-1802-456a-9506-bad1e7455436,T.J. Maxx,New York,New York,(212) 245-6201,,june_ackley@tjx.com,ADD,https://tjmaxx.tjx.com/store/index.jsp,,KEEP,http://www.facebook.com/tjmaxx-216786218747382,https://instagram.com/tjmaxx,https://www.linkedin.com/company/t-j-maxx,https://twitter.com/tjmaxx
UPDATE,2005f9c1-03d2-4db5-8769-b44e721fc1d6,Slims & Berthiaume Sewer Service Inc,Charlton,Massachusetts,(508) 248-2085,,erin@sbsewer.com,ADD,,http://www.sbsewer.com/,ADD,https://www.facebook.com/pages/,,,
UPDATE,2107ab6c-7769-4bb4-8103-31ad68351d70,Quick Porta Potty Rental Los Angeles,Los Angeles,California,(323) 652-4922,,miami@quickportapottyrental.com,ADD,,https://quickportapottyrental.com/los-angeles/,ADD,,,,
UPDATE,2112a696-4a4c-4b98-8dd7-e2bb5d654249,Liberty Plumbing And Septic Service,Bakersfield,California,(661) 703-7022,,libertysepticservice@gmail.com,ADD,,http://www.libertyseptic-service.com/,ADD,,,,
UPDATE,220292fb-921e-4b52-962e-3d351ce11973,White Cap Portable Restrooms,Eatonton,Georgia,(706) 816-7825,,casey@whitecaprestrooms.com,ADD,,http://www.whitecaprestrooms.com/,ADD,,,,
UPDATE,2205d9c6-61f1-4bab-9b19-51b1fef37915,Superior Sanitation,Pine Plains,New York,(518) 398-7361,,douglas_weaver@superiorsanitation.net,ADD,http://www.superiorsanitation.net/,,KEEP,https://www.facebook.com/superiorsanitationpineplains,,,
UPDATE,220e4b84-9b0f-4d78-81ce-168f668eeb8f,Premier Porta Potty,Crown Point,Indiana,(833) 476-7827,,candice@premierportapotty.com,ADD,https://www.premierportapotty.com/,,KEEP,https://www.facebook.com/premierportapotty/,,https://www.linkedin.com/company/premier-porta-potty,
UPDATE,236ade17-8d52-41e4-b84c-75902a9081b1,Target Mobile,New York,New York,(917) 438-2214,,,NONE,,http://www.target.com/mobile,ADD,https://www.facebook.com/target,https://www.instagram.com/target,https://www.linkedin.com/company/target-com,https://x.com/target
UPDATE,23e49617-1116-4bb9-9720-a7c81e22dc41,WillScot,Moody,Alabama,(205) 640-5170,,,NONE,,https://www.willscot.com/en/locations/alabama/birmingham-al-modular%3Futm_source%3Dgoogle%26utm_medium%3Dorganic%26utm_campaign%3Dgbp-listing,ADD,https://www.facebook.com/willscot/about/,,https://www.linkedin.com/company/william-scottsman,http://twitter.com/willscot
UPDATE,240e213c-bc45-495f-b2f2-9cdc52d2dd87,"Redi Services, LLC",Rifle,Colorado,(970) 625-0233,,jranderson@rediservicesllc.com,ADD,https://rediusa.com/,,KEEP,https://www.facebook.com/rediservicesllc,,http://www.linkedin.com/company/816316,
SKIP,24359a25-40b8-4763-b24e-46c2b9c398a7,"Meriden Party Rentals, LLC",Meriden,Connecticut,(203) 907-9846,,,NONE,https://www.meridenpartyrentals.com/,,KEEP,,,,
UPDATE,2479833e-4baa-4b82-a3ff-d8792b00fb9c,Drainworks Plumbing & Septic,Plymouth,Connecticut,(860) 248-6262,,officealerts@westctplumbing.com,ADD,https://westctplumbing.com/,,KEEP,https://www.facebook.com/calldrainworks,,,https://twitter.com/drainworksct
UPDATE,24869f98-7992-48ce-a4f2-bea2a616c8b4,VannGo Luxury Mobile Restrooms & Portable Solutions,Nashville,Tennessee,(615) 237-5699,,lisa@govanngo.com,ADD,https://www.govanngo.com/,,KEEP,,,,
UPDATE,24a2d52d-0d94-47b4-ac14-34f202f37dbc,"Cap City Rentals, LLC",Hutto,Texas,(512) 643-7286,,events@capcityrentals.com,ADD,http://www.capcityrentals.com/,,KEEP,,,,
UPDATE,24da8272-8a1e-4d53-bcd4-38493b0bd929,Luxury Loo Rental,Spokane Valley,Washington,(253) 229-0032,,,NONE,,https://luxuryloorental.com/,ADD,,,,
UPDATE,25408f15-1d62-4468-b8a7-face6764c2eb,Apple Valley Porta Potties,Apple Valley,California,(760) 273-0478,,contact@applevalleyportapotties.com,ADD,,https://applevalleyportapotties.com/,ADD,https://www.facebook.com/applevalleyportapotties/,https://www.instagram.com/applevalleyportapotties,https://www.linkedin.com/company/apple-valley-porta-potties/,https://twitter.com/appvalleyporta
UPDATE,25cd9693-8f72-4860-a177-490117322368,Clean Cans LLC,Venice,Florida,(941) 429-9333,,cleancansllc@gmail.com,ADD,http://cleancansllc.com/,,KEEP,,,,
UPDATE,262f3c8d-45f3-404b-a11c-6f4c6510a427,Porta Potty Rentals of Phoenix,Phoenix,Arizona,(412) 903-9937,,info@proportapottyrental.com,ADD,https://proportapottyrental.com/locations/phoenix-az,,KEEP,,,,
UPDATE,264121d8-b9d3-4126-9700-20454ca2dcc6,Orange County Pottys,Ocoee,Florida,(407) 509-3565,,ocpottys@gmail.com,ADD,https://www.orangecountypottys.com/,,KEEP,http://www.facebook.com/OCPottys/,,https://www.linkedin.com/company/orange-county-pottys,
UPDATE,264d185f-a48f-480b-9714-e8d2c3948c5c,REI,San Francisco,California,(415) 934-1938,,Tfagerness@rei.Com,ADD,,https://www.rei.com/stores/san-francisco%3Fy_source%3D1_MTQ1MzQ4NS03MTUtbG9jYXRpb24ud2Vic2l0ZQ%253D%253D,ADD,http://www.facebook.com/rei,https://www.instagram.com/rei,http://www.linkedin.com/company/rei,http://www.twitter.com/rei
UPDATE,2675645d-7151-4748-9a0b-25080c340210,LooPrestige Restroom Trailer Rentals,Evansville,Indiana,(404) 532-8209,,info@looprestige.com,ADD,,https://www.looprestige.com/,ADD,,,,
UPDATE,26b2e66f-45d0-4eb6-8a24-5123de8c219b,North Texas Porta Potties LLC,Dallas,Texas,(214) 699-9356,,astigma@astigmatic.com,ADD,https://ntxportapotties.com/,,KEEP,,,,
UPDATE,2710e66f-5465-4f36-a651-a6e695404aa5,Arnold Brothers Equipment Corp.,Mountain Lake Park,Maryland,(301) 334-9605,,frontdesk@arnold-bros.com,ADD,,http://arnold-bros.com/,ADD,,,,
UPDATE,27140a09-1817-468d-bb49-e0d76df3fac2,R&R Sanitation,O'Fallon,Missouri,(636) 240-4306,,sales@r-rstl.com,ADD,,https://r-rstl.com/%3Futm_source%3Dgbp,ADD,https://www.facebook.com/randrsanitationandregency/,,https://www.linkedin.com/company/r-r-sanitation/,
UPDATE,2753cd65-d11a-4da4-8f0c-808b4f7844d6,Ace Diversified Services,Holland,Ohio,(419) 865-4830,,carroll@ace1965.com,ADD,,https://ace1965.com/,ADD,https://www.facebook.com/acesanitation1/,,,
SKIP,27895fdd-f818-4ccf-ab2e-bcee2567b899,Gulf Coast Portable Restrooms,Port Charlotte,Florida,(941) 699-6326,info@gcportablerestrooms.com,,KEEP,https://www.gulfcoastportablerestrooms.com/,,KEEP,,https://www.instagram.com/gcportablerestrooms,,
UPDATE,28cc5bc1-96c1-4132-a2f6-cd136d80fc1c,Portable Pro,Madrid,Iowa,(515) 231-1056,,victoria@portableproiowa.com,ADD,,https://www.portableproiowa.com/,ADD,https://facebook.com/Portable-Pro-Inc-101704794760178,,,
SKIP,2914424a-a9d8-48a6-91ef-642e27922f6f,Clean Green Portables,Parker,Colorado,(720) 990-0777,605a7baede844d278b89dc95ae0a9123@sentry-next.wixpress.com,,KEEP,https://www.cgportables.com/,,KEEP,,,,
UPDATE,29299d8f-3693-4ff4-b410-6a83112e929c,Burnley's Portable Toilets,Thomson,Georgia,(706) 840-7345,,burnleysportable@gmail.com,ADD,,http://www.burnleysportabletoilets.com/,ADD,https://www.facebook.com/burnleysportable/,,,
SKIP,299da0e0-7e05-4e66-912c-0f7f3a5a9c4c,United Rentals - Reliable Onsite Services,Greensboro,North Carolina,(336) 334-6088,Stylor@unitedrentals.Com,,KEEP,https://www.unitedrentals.com/locations/nc/greensboro/sanitation-rentals/718%3Futm_source%3Dgoogle%26utm_medium%3Ddistrib%26utm_campaign%3Dyext,,KEEP,http://www.facebook.com/united-rentals-200631115132,,https://www.linkedin.com/company/trench-safety,http://www.x.com/unitedrentals
SKIP,29a1c063-1fea-4af8-8850-77ea4a300748,"Portable Trailer Products, Inc.",Riverside,California,(909) 533-4082,info@portabletrailerproducts.com,,KEEP,https://portabletrailerproducts.com/,,KEEP,https://www.facebook.com/portabletrailerproducts,https://www.instagram.com/portabletrailerproducts,,
UPDATE,2a43ba16-f6db-4ec3-b541-fb2fa7f89498,Sons Bathroom Trailers,Westminster,Maryland,(443) 401-9641,,sonsseptic@aol.com,ADD,,https://www.sonsbathroomtrailers.com/,ADD,,,,
UPDATE,2a7ec3a2-bf7f-4930-b581-246a0e29d53d,Sanitation One,Surprise,Arizona,(623) 810-7801,,info@sanitationone.com,ADD,https://sanitationone.com/,,KEEP,,,,
UPDATE,2a8d8ee3-34c2-4a70-aa0a-17fcbcafc886,Lang Specialty Trailers,Latrobe,Pennsylvania,(724) 972-6590,,info@langtrailers.com,ADD,,http://langrestroomtrailers.com/,ADD,https://www.facebook.com/langspecialtytrailers/,,,
UPDATE,2a98a035-e376-46bc-b4ce-c327f4ea0ccb,Rent A Can Toilet Co Inc,Eagle River,Alaska,(907) 258-2267,,khuzaimahussain@rentacan.net,ADD,https://rentacan.net/,,KEEP,https://www.facebook.com/rentacanalaska/,https://www.instagram.com/rent_a_can_toilet_co,,
UPDATE,2aa09b29-dc47-4ecd-99d4-d8ae7e286ba0,Affordable Portables/AP-X,Heath,Ohio,(740) 366-1811,,contact@rentportables.com,ADD,,http://www.rentportables.com/,ADD,https://www.facebook.com/affordableportablesapx,https://www.instagram.com/affordableportables_,,
UPDATE,2c29571d-fec2-4edf-8e76-d286d5bdf90a,Pot-O-Gold Rentals,Fort Worth,Texas,(888) 768-6465,,darrell@potogoldwaste.com,ADD,https://www.potogoldwaste.com/,,KEEP,https://www.facebook.com/potogoldwaste/,https://www.instagram.com/potogoldrentals,http://www.linkedin.com/company/4270542,https://twitter.com/PotOGold_LLC
UPDATE,2ca8c06a-604c-4632-a04e-2df0803527cd,Thrifty Thrones,Colorado Springs,Colorado,(719) 600-1613,,thriftythrones@gmail.com,ADD,https://thriftythrones.com/,,KEEP,,,,
UPDATE,2cf908bd-b47c-4be7-8cb9-9dfaf17c9d1e,Scotty's Potties Inc,New Ipswich,New Hampshire,(978) 939-5922,,admin@scottyspottiesinc.com,ADD,,https://scottyspottiesinc.com/,ADD,https://www.facebook.com/114123690369696,,,
UPDATE,2d28e701-9c2f-4ea0-b6e0-d66ac82281dc,"Gray Brothers Septic Services and portable restrooms - Montgomery, Chester, Delaware and Philadelphia Counties",Spring City,Pennsylvania,(610) 644-2800,,graybrothersinc@gmail.com,ADD,,https://www.graybrothersseptic.com/,ADD,https://www.facebook.com/graybrotherssepticservices,https://www.instagram.com/graybrothersseptic,https://www.linkedin.com/company/gray-brothers-septic/,http://twitter.com/intent/
UPDATE,2e5b12ad-ede0-423d-a6bf-83d2bfc84f8f,Staples,New York,New York,(646) 654-6660,,gm1078@staples.com,ADD,https://stores.staples.com/ny/new-york/767-broadway%3Fcmpid%3Dst_ll_goo%26cid%3DLS:RETAIL:G%26utm_source%3Dgoogle%26utm_medium%3Dorganic%26utm_campaign%3DGoogle_Business_Listing,,KEEP,https://www.facebook.com/232065493523853,,,
UPDATE,2eb787c4-c019-4977-97a7-67679d30af32,"Bullitt Septic Service, Inc",Shepherdsville,Kentucky,(502) 955-5035,,info@bullittsepticservice.com,ADD,https://www.bullittsepticservice.com/,,KEEP,https://www.facebook.com/pages/,,,
UPDATE,2f8022a5-d767-44a6-9880-76ec8c8446f6,Southern Utah Event Rentals,St. George,Utah,(435) 288-9909,,team@countrywidedisposal.com,ADD,,http://www.lavatorysouthernutah.com/,ADD,https://www.facebook.com/countrywidedisposal/,,,
UPDATE,2f96dd21-80c2-401f-a841-0464dfd39664,Columbus Portable Toilets,Fortson,Georgia,(706) 905-2519,,columbustoilets@yahoo.com,ADD,,https://www.columbusportabletoilets.com/,ADD,https://facebook.com/people/,,,
UPDATE,2fcf6a74-204b-4cf2-b545-eec48435bfed,Komfort Zone - Luxury Portable Restrooms,Plantation,Florida,(954) 923-7270,,info@komfortzoneservices.com,ADD,,https://komfortzoneservices.com/,ADD,,https://www.instagram.com/komfortzoneservices,,
UPDATE,30c2ec25-8607-41b7-a09d-9b66cdcdb468,Clayton's Septic Pumping and Porta Potty Rentals,Dunlap,Tennessee,(423) 762-3343,,claytonsseptic@gmail.com,ADD,http://www.claytonssepticpumping.com/,,KEEP,http://facebook.com/clayton.septic,,,
UPDATE,310d1a6d-f55c-44d4-9f11-3189a3ec3536,Portable Water Closet,St. Louis,Missouri,(314) 293-1800,,info@portablewatercloset.com,ADD,,https://www.portablewatercloset.com/,ADD,https://www.facebook.com/portablewatercloset/,,,https://twitter.com/iPage\
SKIP,319376b2-6ab9-424b-bb34-7ae63dab890c,Bass Pro Shops,Prattville,Alabama,(334) 290-6400,manager_prattville_al@basspro.com,,KEEP,https://stores.basspro.com/us/al/prattville/2553-rocky-mount-rd.html%3Fy_source%3D1_MzAxMTU0My03MTUtbG9jYXRpb24ud2Vic2l0ZQ%253D%253D,,KEEP,https://www.facebook.com/237314659637113,https://www.instagram.com/bassproshops,,https://twitter.com/bassproshops
UPDATE,31f373d7-1425-4291-9ffd-b1a15d606be4,J and J Services LLC,Liberal,Kansas,(620) 624-4637,,john@portabletoiletskansas.com,ADD,https://portabletoiletskansas.com/,,KEEP,,,,
UPDATE,31fdfe30-e4c9-4276-a4e3-51b5152fb794,Force Site Services,Brooklyn,New York,(718) 504-0050,,info@forcesiteservices.com,ADD,https://forcesiteservices.com/,,KEEP,,,,
UPDATE,32287cac-ac18-4308-9f85-b52dac55e224,Able Portable Toilets & Septic,Gadsden,Alabama,(256) 492-8886,,mwsoffice@mwswaste.com,ADD,,https://mwswaste.com/,ADD,,,,
SKIP,32797ffe-6d13-4119-bf75-4f23c07ffa92,Costco Wholesale,New York,New York,(212) 896-5875,,,NONE,https://www.costco.com/w/-/NY/new-york/1062,,KEEP,http://www.facebook.com/costco,,https://www.linkedin.com/company/cosco-air-conditioning,http://www.twitter.com/costco
UPDATE,339a0536-bf12-4f2c-9697-f1c00d4858b7,"Portable Restroom Trailers, LLC",Lake Wylie,South Carolina,(803) 810-2924,,info@portablerestroomtrailers.com,ADD,,https://www.portablerestroomtrailers.com/,ADD,http://www.facebook.com/portablerestroomtrailers,http://instagram.com/portablerestrooms,https://www.linkedin.com/company/portable-restroom-trailers-llc,https://twitter.com/mobilerestroom
UPDATE,33c280a7-f5f5-4bc4-a32c-a978559a8e1e,Premier Portable Potties,East Bridgewater,Massachusetts,(774) 444-6997,,contact@premier.boston,ADD,,https://www.premier.boston/%3Futm_source%3Dgmb%26utm_medium%3Dreferral,ADD,https://www.facebook.com/premierpotties,https://www.instagram.com/premierpottiesinc,,
UPDATE,33cc9b81-c31a-4647-a3e2-6631ad57c7e8,Portable Toilets Champ,Reno,Nevada,(775) 307-5143,,info@portabletoiletschamp.com,ADD,,https://portabletoiletschamp.com/location/top-quality-portable-toilet-services-in-reno,ADD,,,,
UPDATE,346a64f3-6eda-4970-9ad8-a9ac6f80f1c7,Potty Girl,Broussard,Louisiana,(337) 269-2006,,john@pottygirlrestroom.com,ADD,,http://www.pottygirlrestroom.com/,ADD,https://www.facebook.com/pottygirlla,http://instagram.com/pottygirl,https://www.linkedin.com/company/potty-girl,https://twitter.com/pottygirlla
UPDATE,3501db8a-f12f-4462-9ec5-7017c712c540,Mekanil Services,Atlanta,Georgia,(470) 888-4121,,info@mekanilservices.com,ADD,,https://mekanilservices.com/servicearea/atlanta/,ADD,,,,
UPDATE,351b680e-5dd1-4aa0-af05-ced937c6f34e,Porta Potty Rentals of Washington,Washington,District Of Columbia,(561) 486-9831,,info@proportapottyrental.com,ADD,,https://proportapottyrental.com/locations/washington-dc,ADD,,,,
UPDATE,355f683c-d622-4178-a867-4e43113699cd,Google Store Williamsburg,Brooklyn,New York,,,nestsupport@handy.com,ADD,,http://store.google.com/,ADD,https://www.facebook.com/105191011454439,https://www.instagram.com/madebygoogle,,https://twitter.com/madebygoogle
UPDATE,35ebccee-e183-41bc-a62c-d29d859e8619,TrueBlue Portable Restrooms,Meridian,Idaho,(208) 248-3688,,,NONE,,https://www.trueblueportables.com/,ADD,,,,
SKIP,35eca771-2b7b-4e9f-b4cf-423c1a8422e2,Scarbrough Enterprises LLC,Howe,Oklahoma,(918) 658-3974,,,NONE,https://www.scarbroughservice.com/,,KEEP,,,,
UPDATE,3638c484-57f5-49a5-ab17-4f85c9586c06,Right A Way Sewer Portable Toilets,Joplin,Missouri,(417) 850-1838,,rightawaytoilets@gmail.com,ADD,,https://www.rightawaysewer.com/,ADD,https://www.facebook.com/p/,,,
SKIP,3653b111-c46d-4715-bd97-94f625c8b0d0,"Mountain Aire Portable Toilet Rentals - Hot Springs, AR",Hot Springs,Arkansas,(501) 547-0436,mountainaire@yahoo.com,,KEEP,https://www.mountainairesanitation.com/,,KEEP,,,,
SKIP,3695557e-4813-450d-bc30-abdd6a3b3dd2,Satellite Industries,Dahlonega,Georgia,(800) 883-1123,information@satelliteindustries.com,,KEEP,https://www.satelliteindustries.com/,,KEEP,http://www.facebook.com/SatelliteIndustries,https://www.instagram.com/satelliteindustries,https://www.linkedin.com/company/satellite-industries,http://twitter.com/satindustries
UPDATE,36fa9555-a971-4b81-8f16-2b15bac6c2b7,Rosano Davis Sanitary Pumping Inc,Cohasset,Massachusetts,(781) 383-8888,,ross@rwrosano.com,ADD,,http://www.rosanodavis-septic.com/,ADD,,,http://linkedin.com/company/rosano-davis,
SKIP,372dc5c2-f517-46e0-b430-94f0ac912c46,Western Site Services,San Jose,California,(408) 298-4545,westernsiteservices@gmail.com,,KEEP,https://westernsiteservices.com/,,KEEP,,https://www.instagram.com/western_site_services,,
UPDATE,37905ea0-3f37-489b-b061-8bd1f69e39c9,American Grease & Septic,Evansville,Indiana,(812) 588-0038,,john@americangreaseandseptic.com,ADD,,https://www.americangreaseandseptic.com/,ADD,,,https://www.linkedin.com/company/american-grease-and-septic,
SKIP,37b63485-2b12-4cd2-9f2b-b56b627e4994,Piedmont Portables,Burlington,North Carolina,(800) 918-8901,kmanda@piedmontportables.com,,KEEP,https://www.piedmontportables.com/,,KEEP,https://www.facebook.com/101639958224904,,,
UPDATE,3844bdef-04dc-48e0-b721-9f055790d04d,Farm 121 Sanitation,Brentwood,California,(925) 437-0223,,micah@micahrich.com,ADD,,http://www.farm121sanitation.com/,ADD,,,,
UPDATE,38ed5b41-0186-45bd-8bef-9888f35b91c1,The Outhouse Affordable Sanitation,Blue Grass,Iowa,(563) 381-1643,,rich.peek@outhousesanitation.com,ADD,,http://outhousesanitation.com/,ADD,https://www.facebook.com/theouthousequadcites/,,,https://twitter.com/theouthouseqca
UPDATE,3903b840-8b3e-41e9-828b-56b5107d4e70,Neal Creek Portable Sanitation,Hood River,Oregon,(541) 806-0268,,info@nealcreekps.com,ADD,,https://www.nealcreekps.com/,ADD,,,,
UPDATE,39bfd312-9154-421f-8d03-7030e5b5dada,Luxury Event Restrooms,Charlotte,Vermont,(802) 744-0066,,luxuryeventrestrooms@gmail.com,ADD,,http://luxuryeventrestrooms.com/,ADD,https://www.facebook.com/LuxuryRestrooms/,,,
UPDATE,39df5a86-072e-408d-9ec1-a68c8b41f730,Wegmans,Brooklyn,New York,(347) 694-8510,,jennifer.stickles@wegmans.com,ADD,,https://www.wegmans.com/stores/brooklyn-ny/%3Fcid%3DGMB_Wegmans_2024:aw:ow:gb:gb:ao::,ADD,https://www.facebook.com/Wegmans/,https://www.instagram.com/Wegmans,https://www.linkedin.com/company/,https://twitter.com/wegmans
SKIP,3a33202d-a7b0-45c2-b4ae-cc571ca51614,Bloom Brands Portable Toilets,Clifton,New Jersey,(862) 416-0142,,,NONE,https://bloombrandsportabletoilets.blogspot.com/,,KEEP,,,,
UPDATE,3a727e26-1784-4e09-955b-e791edbc8fc4,Flush Services,North Reading,Massachusetts,(978) 338-4128,,sales@flushservices.com,ADD,,http://flushservices.com/,ADD,https://www.facebook.com/flushservices/,,http://linkedin.com/company/flushservices,
SKIP,3b611126-ab82-4c9b-b52d-91eb7876f029,"Portable Restroom Trailers, LLC",Lake Wylie,South Carolina,(803) 810-2924,jennpiorkowski@gmail.com,,KEEP,https://www.portablerestroomtrailers.com/,,KEEP,http://www.facebook.com/portablerestroomtrailers,http://instagram.com/portablerestrooms,https://www.linkedin.com/company/portable-restroom-trailers-llc,https://twitter.com/mobilerestroom
UPDATE,3c8b058f-65e4-40e8-877e-82d4530362db,Cassie's Cans Portable Restroom Service,West Kingston,Rhode Island,(401) 932-4470,,cassiescans@gmail.com,ADD,,http://cassiescans.com/,ADD,,,,
UPDATE,3cc0e6df-3836-4514-88a8-8b32f5036a54,"Stone Industries, LLC",Saratoga Springs,New York,(518) 584-1048,,slbraen@braenstone.com,ADD,,https://stoneindustries.com/,ADD,https://www.facebook.com/StoneIndustriesNY/reviews/,,https://www.linkedin.com/company/stone-industries,
UPDATE,3f207958-4a48-4825-b7d2-f1acce985e81,Restroom Trailers CO,Cambridge,Maryland,(443) 477-6608,,info@restroomtrailers.co,ADD,,https://restroomtrailers.co/,ADD,,,,
UPDATE,3fd0ee42-e796-4302-8de4-94785e991283,Tate Services,Huntsville,Alabama,(256) 858-8389,,info@tateservices.com,ADD,,http://tateservices.com/,ADD,http://www.facebook.com/tateservices,,http://www.linkedin.com/company/tate-services-inc,
UPDATE,3fd91d70-d8bd-4871-8550-3b35850fb64f,ASAP Pumping Services,Parsonsburg,Maryland,(410) 860-0707,,ray@asapservicescorp.com,ADD,,https://www.asapservicescorp.com/,ADD,https://www.facebook.com/ASAP-Pumping-Service-620342927980548/,,,
UPDATE,405d8b37-c6aa-4902-bb9b-4ae47a29fef9,The Throne Depot,North Billerica,Massachusetts,(978) 570-7213,,info@thronedepot.com,ADD,,https://thronedepot.com/%3Futm_campaign%3Dgoogle_business%26utm_source%3Dgoogle_business%26utm_medium%3Dwebsite%26utm_content%3DBillerica%2520,ADD,https://www.facebook.com/TheThroneDepot/,https://www.instagram.com/thronedepot,https://www.linkedin.com/company/the-throne-depot/,
SKIP,4085b356-fcf1-4595-b4b6-2c6ae021f0a6,Viking Thrones,Charlotte,North Carolina,(704) 269-4747,605a7baede844d278b89dc95ae0a9123@sentry-next.wixpress.com,,KEEP,https://www.vikingdumpsters.com/viking-thrones,,KEEP,,,,
UPDATE,41323b6c-ea73-43aa-b5a4-df88909d7373,Portable Hand Washing,Broomfield,Colorado,(866) 641-5394,,sales@portablehandwashing.com,ADD,,http://www.portablehandwashing.com/,ADD,,,,
UPDATE,413ea213-cbf4-42d8-90f3-491b73edd213,"A & B Portable Toilets, Inc.",Greensboro,North Carolina,(336) 421-2076,,b.young@abportabletoilets.com,ADD,https://www.abportabletoilets.com/,,KEEP,https://www.facebook.com/A-B-Portable-Toilets-1632115560361434/,,,https://twitter.com/ABPortableToilt
SKIP,4172fe5d-9a9e-454e-9eb9-0fb1f820ccdc,Town Portables,Braintree,Massachusetts,(617) 991-3586,bobby@townportables.com,,KEEP,https://townportables.com/,,KEEP,,https://www.instagram.com/TownPortables,,
UPDATE,418f4fae-a571-4d7a-83e6-93f503e91ef8,Elvis Service Company,Myrtle Beach,South Carolina,(843) 448-5016,,info@elvisservicecompany.com,ADD,https://elvisservicecompany.com,,KEEP,https://www.facebook.com/elvisserviceco,https://www.instagram.com/elvisserviceco,,https://twitter.com/ElvisService
UPDATE,41ed4609-645b-477a-9704-28375eee3aeb,The Container Store,New York,New York,(212) 366-4200,,forrest@containerstorage.com,ADD,https://www.containerstore.com/stores/ny/new-york/629-sixth-avenue%3Fcid%3Dns:maps:google:main-store:35-6AV,,KEEP,http://www.facebook.com/59375573322,,http://www.linkedin.com/company/the-container-store,http://www.twitter.com/containerstore
UPDATE,426073eb-9d0c-4e2c-9bb3-070c62772389,Aimright Temporary Site Services,Tulsa,Oklahoma,(918) 233-3575,,,NONE,,https://www.aimright.com/,ADD,,,,
SKIP,42cb8346-e2b5-4886-997b-ce21940a2c97,Bagwell Smith Site Services,Calhoun,Georgia,(770) 608-0100,info.bagwell.smith@gmail.com,,KEEP,https://bagwellsmithsiteservices.com/,,KEEP,,,,
UPDATE,42da9cd2-3248-4766-aeb3-e2d3dc615cc0,Bobby's Pottys,White Marsh,Maryland,(410) 679-7108,,cmayes@bobbyspottys.com,ADD,,http://www.bobbyspottys.com/,ADD,https://www.facebook.com/bobbyspottys/,,http://www.linkedin.com/company/9288325,
UPDATE,42ee2e73-eba5-4a54-b046-741b79e2e9c6,Reid's Ritzy Restrooms,Pocomoke City,Maryland,(443) 614-0394,,reid.sterrett@gmail.com,ADD,,http://www.reidsterrett.com/,ADD,https://www.facebook.com/Reids-Ritzy-Restrooms-110198274968680,https://www.instagram.com/reids_ritzy_restrooms,,
UPDATE,4347a742-4f50-4eb0-b7bb-4ff4b0bf908b,Barnhill's Services Inc.,Lexington,South Carolina,(803) 618-3600,,hamp@barnhillsservices.com,ADD,,http://www.barnhillsservices.com/,ADD,https://www.facebook.com/Barnhills-Services-111263472222037/,,,
UPDATE,43a4908f-4682-42b6-9de7-abe4cd2d123b,Boggero's Portable Toilets LLC,Greenwood,South Carolina,(864) 223-7023,,b.boggero@boggeros.com,ADD,,https://boggeros.com/,ADD,,,,
UPDATE,442402a1-1c97-4af3-b734-6c5288ffc1c9,Quality Pumping Septic Services,Payson,Arizona,(928) 978-8838,,qualitypumping@yahoo.com,ADD,,http://qualitypumpingservices.com/,ADD,,,,
UPDATE,45199e4b-913b-4862-99aa-68527de39b2e,All Flush Portable Toilet Rental,Universal City,Texas,(830) 307-7247,,info@allflushportabletoilet.com,ADD,https://allflushportabletoilet.com/,,KEEP,,,,
UPDATE,45640cd1-9235-4699-8237-ab44279e2ddc,Green Bay Porta Potty Rentals,Green Bay,Wisconsin,(920) 904-9736,,info@greenbayportapottyrentals.com,ADD,,https://greenbayportapottyrentals.com/,ADD,,,,
SKIP,45baeaa3-7876-4c4b-ac42-a034d3a84d0f,Reliable Rolloff & Restroom Solutions,Blackshear,Georgia,(912) 271-5332,reliablerolloff@outlook.com,,KEEP,https://www.reliablerolloffsolutions.com/,,KEEP,,,,
UPDATE,4614890b-d900-4866-96d1-bc4dd8f9a2f2,J Beaver Construction,Pottstown,Pennsylvania,(610) 970-2606,,ajdavis2@verizon.net,ADD,,http://jbeaverconstruction.net/,ADD,https://www.facebook.com/107520498469743,,,
UPDATE,4643966b-793d-4129-88dc-1b4a485839bf,All States Site Solutions,Phoenix,Arizona,(623) 444-5155,,,NONE,,https://www.allstatesss.com/,ADD,,,,
UPDATE,464ecb38-0401-4757-8691-a51f723c25a8,Go Pro Waste Services,Belleville,New Jersey,(973) 604-8595,,p.garofalo@goprowaste.com,ADD,https://goprowaste.com/,,KEEP,https://www.facebook.com/goprodumpster,,,https://twitter.com/goprowaste
UPDATE,464ef00e-2c7f-4148-972f-e18ac15b0b21,Biffs,Shakopee,Minnesota,(952) 295-2220,,derekp@biffsinc.com,ADD,,https://biffsinc.com/,ADD,https://www.facebook.com/biffs,,http://www.linkedin.com/company/4177200,
UPDATE,475a5422-4e7f-41c1-a944-252da1702450,John's Johns,New Franken,Wisconsin,(920) 562-0491,,renierspencer@gmail.com,ADD,,http://greenbayportabletoilets.com/,ADD,,,,
UPDATE,4781cfae-5e60-4a7a-9a84-533f3155ac84,"Knight's Site Services, Inc.",Bakersfield,California,(866) 864-5380,,gvalent@knightsservices.com,ADD,,http://knightsservices.com/,ADD,https://www.facebook.com/Knights-Pumping-Portable-Services-Inc-515130305253035/,,https://www.linkedin.com/company/knights-services,
UPDATE,47bdc5b4-7bfc-42c3-9e6a-6f869e02f267,TC Environmental,Townsend,Tennessee,(865) 448-8880,,info@ordertce.com,ADD,http://www.ordertce.com/,,KEEP,,,,
UPDATE,48789d41-1015-4e15-bc68-a784ad286615,Brickman's Ace Hardware Lower East Side,New York,New York,,,info@hbrickman.com,ADD,,http://www.acehardwareles.com/,ADD,https://www.facebook.com/brickmansaceles/,https://www.instagram.com/brickmansaceles,,https://twitter.com/intent/
UPDATE,488d7508-6a85-4c01-b861-84df9af58372,Porta Potty Rentals of Omaha,Omaha,Nebraska,(321) 449-2731,,info@proportapottyrental.com,ADD,,https://proportapottyrental.com/locations/omaha-ne,ADD,,,,
SKIP,48a13560-fb2f-4e29-bb14-26008a136321,Fresno Porta Potties PotSnap,Fresno,California,(559) 220-8508,contact@fresnoportapottiespotsnap.top,,KEEP,https://fresnoportapottiespotsnap.top/,,KEEP,https://www.facebook.com/fresnoportapottiespotsnap/,https://www.instagram.com/fresnoportapottiespotsnap,https://www.linkedin.com/company/fresno-porta-potties-potsnap/,https://twitter.com/pottiespotsnap
SKIP,496e7558-128a-4608-aa6e-f36b87e1062e,Proflow Plumbing and Heating Corp.,Yonkers,New York,(914) 513-7667,team@latofonts.com,,KEEP,https://proflowny.com/,,KEEP,https://www.facebook.com/103395342732270,https://www.instagram.com/proflow_corp,,
UPDATE,49704647-c3f3-44a4-a92c-45d30f14a9ee,A1 INCORPORATED,Clarksburg,Massachusetts,(413) 663-8351,,a1septic.sewer@gmail.com,ADD,,http://www.a1incorporated.com/,ADD,https://www.facebook.com/pages/A1-Septic-Sewer-Service/158755380961225,,,
UPDATE,498a14d1-40e2-47cb-b671-35fe509c006a,ADB Construction & Septic Corp.,Manchester,Connecticut,(860) 432-5996,,info@adbseptic.com,ADD,https://www.adbseptic.com/,,KEEP,,,,
UPDATE,4a213496-620f-473d-b32f-092469a0fef5,The Rolling Throne,Riverside,California,(800) 823-8640,,info@therollingthrone.com,ADD,,https://therollingthrone.com/,ADD,https://www.facebook.com/AncoraThemes/,https://www.instagram.com/ancora_themes,,https://twitter.com/ancora_themes
UPDATE,4b1288c3-5003-4923-b60c-e12666ed5a3f,D&B Portables,Sanborn,North Dakota,(701) 952-7007,,dandbportables@hotmail.com,ADD,,http://dbportables.com/,ADD,https://www.facebook.com/1653181871616311,,,
UPDATE,4b39b47c-07ed-45ac-a5a4-747ff10a950c,Baldwin Portable Toilets,Seminole,Alabama,(251) 946-3000,,t.boyett@baldwinportables.com,ADD,,https://www.baldwinportables.com/,ADD,,,https://www.linkedin.com/company/baldwin-portable-toilets-and-septic-tanks-inc,
UPDATE,4b940e88-8ed1-42fd-ba2c-e89173fa9241,Imperial Restrooms Inc.,Hudson,Florida,(877) 845-6110,,sales@imperialrestrooms.com,ADD,https://imperialrestrooms.com/,,KEEP,,,,
UPDATE,4c0eeff5-02aa-4d00-a4b1-3cffaf982dd0,Pembroke Pumping Services,Danbury,Connecticut,(203) 746-1424,,jcoffey@lodielectric.com,ADD,http://www.pembrokepumping.com/,,KEEP,https://www.facebook.com/817410971734137,,,
UPDATE,4c1b844e-d4b1-40b6-a756-0600a8e97837,Greg's Porta Potty's & Rv Flush,Paso Robles,California,(805) 635-5612,,info@verdienergyinc.com,ADD,http://gregsportapotty.com/,,KEEP,https://www.facebook.com/p/,https://www.instagram.com/gregsportapottys,,
UPDATE,4d04d247-0785-49ab-bae3-d41d58aee49f,Dakota Portable Toilets Inc,Watertown,South Dakota,(605) 880-1699,,info@dakotaportabletoilets.com,ADD,,http://dakotaportabletoilets.com/,ADD,https://www.facebook.com/Dakota-Portable-Toilets-Inc-345682052469358,https://www.instagram.com/dakotaportabletoilets/,,https://twitter.com/DakotaToil
UPDATE,4d2e52ba-c460-4a57-a94b-f07520ebe00c,Light It Up - Rent to Go,Spring Valley,New York,(845) 751-2418,,lightituprenttogo@gmail.com,ADD,,https://www.lightituprenttogo.com/,ADD,,https://www.instagram.com/lightituprental,,
SKIP,4d49ece9-9266-4b81-b2fd-3069acab475e,Best Buy,Jersey City,New Jersey,(201) 792-8399,,,NONE,https://stores.bestbuy.com/nj/jersey-city/125-18th-st-1535.html/%3Fref%3DNS%26loc%3Dns100,,KEEP,https://www.facebook.com/702093596557398,,,
UPDATE,4d9d0c94-cbaa-4f23-bfcd-08a3ed45a6a2,Approved Toilet Rentals,McKees Rocks,Pennsylvania,(800) 804-1408,,john@approvedtoilets.com,ADD,,https://approvedtoilets.com/,ADD,,,https://www.linkedin.com/company/approved-toilet-rentals-inc-,
UPDATE,4dd324e3-aa6b-45ff-bd21-9433ff671232,G & T Services L.L.C. Portable Restroom Rental,Glenwood,Iowa,(402) 510-7411,,gandtservicesllcportables@gmail.com,ADD,,http://gandtservicesllc.com/,ADD,https://www.facebook.com/GandTPortableRentals/,,,
UPDATE,4e46c849-efd4-4b7e-88ab-7e1f6e9d0755,Mazzer Porta Potty,Saddle Brook,New Jersey,(201) 615-6672,,workorders@mazzerplumbing.com,ADD,https://www.mazzerplumbing.com/porta-john-rentals,,KEEP,,,,
UPDATE,4e89174a-b07d-4427-866f-82ac190e4094,Bathrooms On A Roll,Chester,Maryland,(410) 934-7394,,bathroomsonaroll@gmail.com,ADD,https://www.bathroomsonaroll.com/,,KEEP,,,,
UPDATE,4e98d42d-4365-495d-a904-719ce1aa5920,Prairie Pots,El Dorado,Kansas,(316) 320-0490,,contact@prairiepots.com,ADD,,https://www.prairiepots.com/,ADD,,,,
UPDATE,4ecad2f1-3ac2-4b0f-8c15-9a2e157408c3,Vip To Go,Ringwood,New Jersey,(877) 564-6977,,info@viptogo.com,ADD,,https://www.viptogo.com/,ADD,https://www.facebook.com/pages/,https://www.instagram.com/vipandjohntogo,https://www.linkedin.com/company/vip-to-go-llc,https://twitter.com/viptogo
UPDATE,4efb998f-b5eb-4b25-8cc0-b4836ca197d4,Mountain Top Portable Toilets and Septic Service,West Sand Lake,New York,(518) 712-5118,,mark2930@aol.com,ADD,,http://www.mountaintopseptic.com/,ADD,https://www.facebook.com/people/,,,https://twitter.com/MtnTopTX
UPDATE,4f1a4b6c-4339-4ab4-b0e5-f3f0be489627,"Mighty Haul - Dumpster Rental | Portable Toilets Rental in New Orleans, LA",New Orleans,Louisiana,(504) 353-6969,,kenny@mightyhaul.com,ADD,,https://mightyhaul.com/,ADD,https://www.facebook.com/mightyhauldisposal/,,http://linkedin.com/company/mighty-haul-inc,
UPDATE,4f37c526-5175-4dc0-b502-b315769131db,KPC Toilet Rentals,Williams,California,(530) 301-7119,,pedrogkpc5@gmail.com,ADD,,http://www.kpctoiletrentals.com/,ADD,https://www.facebook.com/squarespace/,https://www.instagram.com/squarespace,,
UPDATE,4f45cb43-c7e0-4bc2-a07f-c4b3940859f3,Greenhaus Portable Restrooms,Lake Stevens,Washington,(425) 743-1957,,kayeevergreen@aol.com,ADD,,https://www.greenhausportablerestrooms.net/%3Futm_source%3Dgoogle%2Bmy%2Bbusiness%26utm_medium%3Dgmb%26utm_campaign%3Dgmb,ADD,https://www.facebook.com/Greenhausportablerestrooms/,,,
UPDATE,5093f97d-fee2-44b7-a715-51222b835eab,JOTS Rentals,Longview,Texas,(903) 236-4019,,info@jotsrentals.com,ADD,http://jotsrentals.com/,,KEEP,https://www.facebook.com/JOTSRentals/,,,
UPDATE,50e8c8db-d526-4883-a21a-46b81ca0a89a,"Nolen Services, Inc.",Stonington,Illinois,(217) 792-6902,,contactnolens@gmail.com,ADD,,http://www.nolenservices.com/,ADD,,,,
SKIP,5123a991-95f5-4e88-8c3d-76abfd4a68ad,Durham Porta Potties LooBox,Durham,North Carolina,(919) 503-4438,contact@durhamportapotties.com,,KEEP,https://durhamportapotties.com/,,KEEP,https://www.facebook.com/durhamportapottiesloobox/,https://www.instagram.com/durhamportapottiesloobox,https://www.linkedin.com/company/durham-porta-potties-loobox/,https://twitter.com/pottiesloobox
UPDATE,5138bda4-c73b-48e9-81a2-7b5a164df094,C & C Portables,Vine Grove,Kentucky,(270) 828-3496,,info@candcportables.com,ADD,,https://candcportables.com/,ADD,https://www.facebook.com/people/C-C-Portables-Septic-Service/100063670264342/,,,
SKIP,515a5323-95aa-4eea-a304-6cd500387dbf,Island Waste & Recycling,Woodcliff Lake,New Jersey,(201) 690-5210,eben@eyebytes.com,,KEEP,https://wasteandrecycling.co/,,KEEP,https://www.facebook.com/895609850474659,https://www.instagram.com/g.parets,,
UPDATE,522a2d9b-4582-4e7d-9ec3-f8f0d7bf861e,Southern Colorado Services & Recycling LLC,Pueblo,Colorado,(719) 245-2554,,socoservandrecyc@hotmail.com,ADD,,https://www.southerncoloradorecycling.com/,ADD,https://www.facebook.com/profile.php?id=100063519402466,,,
UPDATE,5239cae3-99a3-40d0-b13e-7e133c318b49,Pit-Stop Portables,Fond du Lac,Wisconsin,(920) 922-7241,,p.dean@rentapotty.net,ADD,,http://www.rentapotty.net/,ADD,https://www.facebook.com/PitStopEventServices,,,
SKIP,5260cbee-5750-4a6e-a8cb-8ed490df9f01,Marking Systems Inc,Little Rock,Arkansas,(501) 666-4000,contact@markingsystemsinc.com,,KEEP,http://markingsystemsinc.com/,,KEEP,http://www.facebook.com/markingsystemsincnwa05,,,
UPDATE,52881c65-bac5-4980-b8e9-9eab12207967,Fogles Environmental Services LLC,Bishopville,Maryland,(410) 352-3000,,foglestoilets@gmail.com,ADD,,http://www.foglesoc.com/,ADD,https://www.facebook.com/FoglesOC,,https://www.linkedin.com/company/fogles-environmental-svc,
UPDATE,52c77a71-600d-47cb-b3bc-4955ac02d777,WillScot,Middletown,Connecticut,(203) 699-2469,,,NONE,,https://www.willscot.com/en/locations/connecticut/hartford-ct-modular%3Futm_source%3Dgoogle%26utm_medium%3Dorganic%26utm_campaign%3Dgbp-listing,ADD,https://www.facebook.com/willscot/about/,,https://www.linkedin.com/company/william-scottsman,http://twitter.com/willscot
UPDATE,531da35e-75f3-4928-836f-a3f4a301b96e,Simply Sanitation LLC,Preston,Connecticut,(860) 710-8585,,sales.simplysanitation@gmail.com,ADD,,http://simplysanitationllc.com/,ADD,,,,
SKIP,533ce47e-dad7-4109-bd92-b65224eeb4ec,Mid-Atlantic Portable Restrooms,Ephrata,Pennsylvania,(717) 738-1943,sales@midatlanticrestrooms.com,,KEEP,https://midatlanticrestrooms.com/?v=0b3b97fa6688,,KEEP,,,,
UPDATE,53714036-3aff-4544-829c-a628e02c250c,"Stamford Portable Restrooms, LLC.",Stamford,Connecticut,(475) 333-1263,,portabletoiletsct@gmail.com,ADD,,http://www.stamfordportablerestrooms.com/,ADD,,,,
UPDATE,539f65d1-8e43-443a-87f6-ee35a68d7246,Quick Porta Potty Rental Miami,Miami,Florida,(305) 703-5959,,miami@quickportapottyrental.com,ADD,,https://quickportapottyrental.com/miami/,ADD,,,,
UPDATE,53c44969-79c5-42a4-a920-bdba7c1d360e,D J`s Companies Inc.,Globe,Arizona,(928) 425-0602,,darlene@djscompaniesinc.com,ADD,,http://www.djscompaniesinc.com/,ADD,https://www.facebook.com/D-Js-Companies-Inc-515767188595166/,,,
UPDATE,543ca8f2-9b90-4a1e-8884-be992400f6e2,Honey Bucket Portable Restrooms,McDonough,Georgia,(470) 759-3361,,jason_perry@nwcascade.com,ADD,https://honeybucket.com/locations/georgia/portable-restrooms-atlanta/,,KEEP,https://www.facebook.com/OfficialHoneyBucket/,https://www.instagram.com/officialhoneybucket,https://www.linkedin.com/company/honeybucket,https://twitter.com/honeybucket
SKIP,54478ec9-6772-40ee-af62-1db0c44cb174,Swanky Restroom Trailers,Holly,Michigan,(810) 265-9026,swankytrailers@gmail.com,,KEEP,https://swankytrailers.com/,,KEEP,https://www.facebook.com/177761282299991,https://www.instagram.com/swankybyg,,
UPDATE,54822145-5b5f-48d2-a86a-29e613a0b704,Kelly Septic Porta Potty,Coldwater,Mississippi,(901) 603-3919,,office.kellyseptic@gmail.com,ADD,,https://www.kellyseptic.com/,ADD,https://www.facebook.com/kellysepticpotty/,,,
UPDATE,54bf5124-8aa9-4191-971a-076a8782ba05,Lester Brothers Inc,Jackson,Michigan,(517) 764-7888,,jim@lesterbros.com,ADD,,http://www.lesterbros.com/,ADD,,,https://www.linkedin.com/company/lester-brothers,
UPDATE,55062cdc-c8cd-4078-be8c-e5607bfa7f20,South Bay Porta Potty,Los Angeles,California,(310) 920-4924,,ricardo@southbayportapotty.com,ADD,,https://www.southbayportapotty.com/,ADD,,,,
UPDATE,5546fb69-fa5d-4699-8a28-b282e0d9f810,Circle S Inc.,New Hebron,Mississippi,(601) 792-4104,,lsteverson@circlesinc.net,ADD,,https://circlesinc.net/,ADD,,,https://www.linkedin.com/company/circle-s-inc,
UPDATE,555fc3df-c4cc-43f0-a91c-a97e339ba251,Boujee Bathroom Rentals,Ambler,Pennsylvania,(267) 217-2217,,,NONE,,https://boujeebathroomrentals.com/,ADD,,,,
UPDATE,556b7498-6a08-4351-bf55-74a1428fcd59,Royal Restrooms of California,Livermore,California,(877) 922-9980,,california@royalrestroomsca.com,ADD,https://royalrestroomsca.com/,,KEEP,https://www.facebook.com/pages/,https://www.instagram.com/royalrestroomsca,https://www.linkedin.com/company/royal-restrooms-of-california-inc-,https://twitter.com/royalrestroomca
UPDATE,561a8ea7-c6f8-40ca-b2ef-66138ae5ddd2,All Seasons Porta Jons,Ludington,Michigan,(231) 843-9191,,jrlund@charter.net,ADD,,https://allseasonsportajons.com/,ADD,https://www.facebook.com/All-Seasons-Porta-Jons-463874417110384/,,,
UPDATE,565a6bcd-1002-43e6-8d30-9de86c5e2bae,MVP Rentals,Rigby,Idaho,(208) 529-9916,,info@mvp-rentals.com,ADD,,https://mvprentalsidaho.com/,ADD,,https://www.instagram.com/mvprentalsidaho,,
UPDATE,568710f1-ae33-47ef-b98b-13992b74bced,Jobsite Sanitary Toilets Llc,Jefferson City,Missouri,(573) 896-8665,,j.sullivan@jobsitellc.com,ADD,,http://jobsitellc.com/,ADD,,,https://www.linkedin.com/company/jobsite-sanitary-toilets,
SKIP,56a728fd-b857-40f7-887b-e5f965e50507,Tri State Luxury Restrooms,Great Neck,New York,(516) 788-8071,info@tristateluxuryrestrooms.com,,KEEP,https://tristateluxuryrestrooms.com/,,KEEP,,https://instagram.com/tristateluxuryrestrooms,,
UPDATE,56c66de9-b2b5-400c-8c53-154b19f2ddc3,Carefree Lavs,Exton,Pennsylvania,(484) 872-8813,,info@carefreelavs.com,ADD,,https://www.carefreelavs.com/,ADD,,,,
SKIP,56d4c296-edcf-408d-b8ab-cfb7169ef8df,National Rent-A-Fence,Phoenix,Arizona,(602) 253-5006,info@rentnational.com,,KEEP,https://www.rentnational.com/phoenix,,KEEP,https://www.facebook.com/rentnational/,,https://www.linkedin.com/company/national-construction-rentals/,http://www.twitter.com/artisanprecast
SKIP,56e15dfc-359f-4690-ba5f-05276fe77099,Boulevard Hardware & Supply,Ridgefield,New Jersey,(201) 945-0341,peter@blvdhardware.com,,KEEP,https://blvdhardware.com/,,KEEP,https://www.facebook.com/BoulevardHardware,https://www.instagram.com/explore,http://www.linkedin.com/company/10166636,
SKIP,56f9dfcf-f743-4505-b816-a05cd4557238,Uncle John,Brooklyn,New York,(866) 646-5646,,,NONE,https://www.unclejohnnyc.com/,,KEEP,,,,
UPDATE,578702a0-c165-4668-887e-87b88abacb5f,Loo Haven,New Haven,Connecticut,(203) 439-5281,,mendel@loohaven.com,ADD,,https://www.loohaven.com/,ADD,,https://www.instagram.com/loo_haven,,
UPDATE,58cc4288-0321-4f7b-a3be-af8acc87cbb3,Smooth Flow On The Go,Newnan,Georgia,(678) 326-1944,,smoothflowonthego@gmail.com,ADD,http://smoothflowonthego.com/,,KEEP,https://www.facebook.com/smoothflowonthego/,,,https://platform.twitter.com/widgets
UPDATE,58cfdbfc-2682-4486-8a96-4179d02c8750,A Royal Flush,San Antonio,Texas,(210) 476-0738,,dvanste@aroyalflush.org,ADD,http://www.aroyalflush.net/,,KEEP,https://www.facebook.com/aroyalflushrestrooms/,https://www.instagram.com/aroyalflush__,,
UPDATE,5914f413-0331-45fa-a3ed-27970f0abde7,Hipple Rental Services,Chandler,Arizona,(520) 677-4440,,,NONE,,https://hipplerentalservices.com/,ADD,,,,
UPDATE,59173bcb-fbc8-4b47-95b2-a684e6a372e8,"K&M Portables, LLC",Ackerman,Mississippi,(662) 285-8408,,kandmportables@hotmail.com,ADD,,http://www.kandmportables.com/,ADD,,,,
UPDATE,59e16f5b-4c66-491f-811c-cc678e72971b,Forever Clean,Fuquay-varina,North Carolina,(919) 552-0200,,jmcgi@foreverclean.com,ADD,https://www.foreverclean.com/,,KEEP,https://www.facebook.com/forevercleanportapotty/,,http://www.linkedin.com/company/6016927,
UPDATE,59f6944b-2329-4be2-bc1d-c0524e94068c,Haas Portable Toilets,Macksburg,Ohio,(740) 585-2030,,,NONE,,http://haasportabletoiletsinc.com/,ADD,,,,
SKIP,5ab05957-c1e5-4150-bf0a-01c761342868,Lovely Loo Portable Restrooms,St. Augustine,Florida,(904) 315-7027,info@thelovelyloo.com,,KEEP,https://thelovelyloo.com/,,KEEP,https://www.facebook.com/thelovelyloo/,https://www.instagram.com/the_lovely_loo,,
UPDATE,5b0b098e-376a-4bb8-877e-d3c8714c2a6d,CS Portables,Warsaw,Indiana,(574) 377-4644,,sales@csportables.com,ADD,https://csportables.com/,,KEEP,,,,
UPDATE,5b93a5ab-4215-4f91-a053-20de729eccfe,ZTERS,Houston,Texas,(346) 330-1852,,jon@zters.com,ADD,,http://www.zters.com/,ADD,https://www.facebook.com/ZTERS/,https://www.instagram.com/zterswaste,https://www.linkedin.com/company/zters-site-services,http://twitter.com/zterswastevalue
UPDATE,5c125935-07db-4ddc-ab68-e9e2af788fa6,Charged Waste,Brighton,Colorado,(720) 795-2246,,kolton@chargedwaste.com,ADD,,https://www.chargedwaste.com/,ADD,,,,
UPDATE,5c2cfc83-f875-42ec-be7f-dff2c5e71353,"Floaters Portable Sanitation, Inc.",Jacksonville,Florida,(904) 751-2614,,toni@floatersnow.com,ADD,https://www.floatersnow.com/,,KEEP,https://www.facebook.com/Floaters-Portable-Sanitation-321113921316282/,,http://www.linkedin.com/company/1183634,
UPDATE,5cf90b2b-deb6-4ede-8471-f3c46a758fa2,The Crapper Company,Ogden,Utah,(385) 985-2727,,info@thecrappercompany.com,ADD,,https://www.thecrappercompany.com/,ADD,,,,
UPDATE,5d464d6c-d909-40d4-8016-f70214ac840c,"Timber Lakes Portables Services, LLC",Mcgregor,Minnesota,(218) 394-2053,,tlprestrooms@gmail.com,ADD,,https://tlprestrooms.com/,ADD,,,,
UPDATE,5d9426f4-23ca-4bea-9c97-c2321b0afa9a,Rent A Throne,Mineola,New York,(718) 975-3751,,support@rentathrone.com,ADD,https://www.rentathrone.com/,,KEEP,,,,
UPDATE,5e7b4ee7-2a96-4720-98eb-cb87ac41281a,T & T Sweeping and Port-O-Let Service,Clements,Maryland,(301) 475-3035,,tandtsweepport@outlook.com,ADD,,http://www.tandtsweepingportoletservice.com/,ADD,,,,
UPDATE,5f17e5fc-503a-407b-a35a-47ae0bf4caad,MWR Portable Toilet Systems,St. Louis,Missouri,(314) 690-2305,,,NONE,,https://portabletoiletsystems.com/%3Futm_source%3Dgoogle%26utm_medium%3Dorganic%26utm_campaign%3Dgbp,ADD,,,,
UPDATE,5f507cfd-bca4-4999-92af-193977e67a85,John To Go,Ringwood,New Jersey,(877) 564-6977,,rclare@johntogo.com,ADD,,https://www.johntogo.com/%3Futm_source%3DGMB%26utm_medium%3Dlocal%26utm_campaign%3DringwoodNJ,ADD,https://www.facebook.com/334023336983998,,https://www.linkedin.com/company/john-to-go-inc,http://twitter.com/johntogo1
UPDATE,5f70aaa8-1022-49e0-877f-cbf5a08af47d,Iesta Porta,Overland Park,Kansas,(913) 270-7692,,info@iestaporta.com,ADD,,https://iestaporta.com/,ADD,,,,
UPDATE,5fe8fee0-cd58-4e24-841d-451266401eb3,"Associated Products Services, Inc.",Mechanicsburg,Pennsylvania,(717) 766-5397,,janeassociated@aol.com,ADD,,https://assocproducts.com/,ADD,https://www.facebook.com/Associated-Products-Services-Inc-158593961202/,,http://www.linkedin.com/company/4377670,https://twitter.com/AssociatedProd
UPDATE,600a8251-ed40-489f-8c32-c33b01e4dddd,"Cotter's Sewer, Septic and Portable Toilet Services",Laurel,Montana,(406) 628-5989,,contact@cotterssewer.com,ADD,,http://cotterssewer.com/,ADD,https://www.facebook.com/cotterssewer,,,
UPDATE,60251dfa-5d67-40f2-8468-33898471bd3c,Get Er Dun Jon's,Lebanon,Missouri,(417) 533-3569,,geterdunjons87@gmail.com,ADD,,https://geterdunjons.net/,ADD,,,,
UPDATE,6069461e-6b8f-4a13-a4cf-5a290079f753,Serrano's Inc,Bloomfield,New Mexico,(505) 632-9494,,e.quintana@serranosinc.com,ADD,,https://www.serranosinc.com/,ADD,https://www.facebook.com/people/Serranos-Inc/100057190250276/,,https://www.linkedin.com/company/serranos-inc,
UPDATE,60e91590-1295-4983-bacc-0c7035716d5d,EasyGo Waste Management,Carrollton,Kentucky,(502) 662-0123,,crystal.easygo@gmail.com,ADD,,http://www.easygowm.com/,ADD,https://www.facebook.com/EasyGoWM,https://www.instagram.com/easygowm,,
UPDATE,6142124c-bfd9-48c9-86ee-2ae56c34cb6c,Porta Potty Rentals of Los Angeles,Los Angeles,California,(213) 418-2805,,info@proportapottyrental.com,ADD,,https://proportapottyrental.com/locations/losangeles-ca,ADD,,,,
UPDATE,623cef1f-482a-4117-a4bb-c9b708730e7e,Royal Flush Porta Potty Rental,Houston,Texas,(832) 400-9468,,info@royalflushportapotty.com,ADD,https://royalflushportapotty.com/,,KEEP,,,,
UPDATE,6294be12-527e-4e9d-9367-4607a34d2e27,Colorado Site Services,Carbondale,Colorado,(970) 963-2482,,sales@cositeservices.com,ADD,https://cositeservices.com/,,KEEP,https://www.facebook.com/COSiteServices/,,https://www.linkedin.com/company/colorado-site-services-llc,
SKIP,630fe775-01a1-4368-9576-73ea521afd24,"Redbox+ Dumpsters of Westchester County, NY & Greenwich, CT",Mt Vernon,New York,(914) 530-0272,info@redboxplus.com,,KEEP,https://www.redboxplus.com/westchester-se,,KEEP,https://www.facebook.com/redboxplusDumpsters,https://www.instagram.com/redboxplusdumpsterscorp,https://www.linkedin.com/company/redboxplus-of-lehigh-valley/,https://twitter.com/redboxplusCorp
UPDATE,6327c60c-94c2-41a8-8b92-0d3c0c2199a6,Little Stinker Septic Service LLC,Payson,Arizona,(928) 476-4437,,littlestinkerseptic@gmail.com,ADD,,http://littlestinkersepticservice.com/,ADD,https://www.facebook.com/shithappens.blt/,,,
SKIP,63397ebd-22ad-4f78-9f2f-1558050885cb,Peerless Potty,Van Buren,Arkansas,(479) 259-3650,,,NONE,https://peerlesspotty.com/,,KEEP,,,,
SKIP,63925b90-83c5-4efb-a205-0233e367fb60,Johnsons Johns,Port St. Lucie,Florida,(772) 353-2571,support@webador.com,,KEEP,https://www.johnsonsjohns.com/,,KEEP,,,,
UPDATE,63a517c1-c89d-4a82-b505-10bf94eb8bb6,Target,Brooklyn,New York,(718) 290-1109,,,NONE,,https://www.target.com/sl/brooklyn-junction/2212,ADD,https://www.facebook.com/target,https://www.instagram.com/target,https://www.linkedin.com/company/target-com,https://x.com/target
UPDATE,63fcf333-0c9a-4ce0-b941-93f64df9d06c,The Throne Depot,Rehoboth,Massachusetts,(508) 952-9334,,info@thronedepot.com,ADD,,https://thronedepot.com/%3Futm_campaign%3Dgoogle_business%26utm_source%3Dgoogle_business%26utm_content%3DRehoboth,ADD,https://www.facebook.com/TheThroneDepot/,https://www.instagram.com/thronedepot,https://www.linkedin.com/company/the-throne-depot/,
UPDATE,64080d28-00bf-4836-9b4b-e35efdab9e01,"Sean's Johns, LLC",Odessa,Texas,(432) 235-0208,,john@seansjohnsllc.com,ADD,http://www.seansjohnsllc.com/,,KEEP,,,,
UPDATE,640be25f-9f7e-4ffa-ad73-e2dd6eaa90f7,Porta Potty Rentals of Memphis,Memphis,Tennessee,(901) 660-9314,,info@proportapottyrental.com,ADD,,https://proportapottyrental.com/locations/memphis-tn,ADD,,,,
UPDATE,64a199ce-ebc0-47f2-9d97-449a62285a3e,A1 Porta Potty,New Albany,Indiana,(812) 786-4222,,info@a1portapotty.com,ADD,,https://a1portapotty.com/,ADD,https://www.facebook.com/A1PortaPotty/,,,
UPDATE,64c1a4f1-63a4-4ac2-b952-247b17149b71,Portable Services Inc,Gulfport,Mississippi,(877) 718-2288,,accounting@scenicgroup.com,ADD,,http://portableservicesinc.com/,ADD,https://www.facebook.com/portableservicesincMS/,,,
UPDATE,6564e64a-08d4-462e-b60c-ab30533837f0,C & L Sanitation Inc,Perrysburg,Ohio,(419) 664-6223,,customerservice@clswrents.com,ADD,,https://clswrents.com/%3Futm_source%3Dgoogle%26utm_medium%3Dorganic%26utm_campaign%3Dgbp,ADD,,,,
UPDATE,659c9cae-0762-4b3a-ab90-ec5a9dacdc03,United Rentals - Reliable Onsite Services,Middletown,Delaware,(302) 462-3474,,,NONE,,https://www.unitedrentals.com/locations/de/middletown/sanitation-rentals/dr1%3Futm_source%3Dgoogle%26utm_medium%3Ddistrib%26utm_campaign%3Dyext,ADD,http://www.facebook.com/united-rentals-200631115132,,https://www.linkedin.com/company/trench-safety,http://www.x.com/unitedrentals
UPDATE,65f8661b-9759-4183-ac34-f73ee22ef09d,Honey Bucket,Sacramento,California,(800) 778-4707,,jason_perry@nwcascade.com,ADD,https://www.honeybucket.com,,KEEP,https://www.facebook.com/OfficialHoneyBucket/,https://www.instagram.com/officialhoneybucket,https://www.linkedin.com/company/honeybucket,https://twitter.com/honeybucket
UPDATE,669b060b-f164-47b4-82d6-9e7076185b80,Loo Loos,Rimrock,Arizona,(928) 800-1974,,928looloos@gmail.com,ADD,,https://www.928looloos.com/,ADD,,,,
UPDATE,66f37c81-092e-438f-9562-84eb18f6d369,"Sweet Water Sanitation, llc",White City,Oregon,(541) 821-1426,,mikegregoric@gmail.com,ADD,,http://www.swsmodoc.com/,ADD,https://www.facebook.com/swsmodoc/,,,
UPDATE,6788f01a-0780-4243-a222-0e3143d00c34,The Throne King,Peabody,Massachusetts,(617) 817-7760,,thethronekingorders@gmail.com,ADD,,https://thethroneking.com/contact-us/,ADD,https://www.facebook.com/people/,https://www.instagram.com/throne_king,,
UPDATE,6813d4bb-b6cf-4849-b2ad-391ddacea74e,Nix Tank Company,Gainesville,Georgia,(770) 532-8207,,d.webb@nixtank.com,ADD,https://nixtank.com/,,KEEP,,,,
UPDATE,68f1ee30-a724-4936-8a7d-c1be2255ce02,"S.D.R. Plumbing & Heating, Inc.",Stamford,Connecticut,(203) 952-0582,,vanessa@sdrplumbing.com,ADD,https://www.sdrplumbing.com/,,KEEP,https://www.facebook.com/Sdr-Plumbing-178381292533943/posts/,,,
UPDATE,6950f1bb-120a-47b2-9ba3-6ec33bc91e15,OKC Portable Toilets,Oklahoma City,Oklahoma,(405) 504-8800,,info@okcportabletoilets.com,ADD,,https://okcportabletoilets.com/,ADD,,,,
UPDATE,69a7f7bc-e52c-4d90-b8dd-287dbfcde753,Clean Green Porta Potties LLC,Sebree,Kentucky,(270) 635-2701,,cgportapotties@aol.com,ADD,http://cleangreen-portapotties.com/,,KEEP,https://www.facebook.com/cleangreenportapotties/,,,
UPDATE,6a5001f9-75d7-40c9-a24d-835779776602,Orhram Porta,Providence,Rhode Island,(401) 267-1428,,,NONE,,https://orhramporta.com/,ADD,,,,
SKIP,6a5bb145-e67f-4a50-8e6b-ca02c679b882,Costco Wholesale,Brooklyn,New York,(718) 965-7603,dray@costco.com,,KEEP,https://www.costco.com/w/-/NY/brooklyn/318,,KEEP,http://www.facebook.com/costco,,https://www.linkedin.com/company/cosco-air-conditioning,http://www.twitter.com/costco
UPDATE,6ad22b8f-362c-4c64-881c-861bd6861b91,Cookingham Rental Services,Knoxville,Tennessee,(865) 247-8039,,info@cookinghamrentalservices.com,ADD,https://cookinghamrentalservices.com/,,KEEP,,,,
UPDATE,6b96a44c-7e6b-44d5-83fc-a7b95e2cf288,Bonavita Luxury & Portable Lavatories,East Hartford,Connecticut,(860) 509-3975,,info@eventlavs.com,ADD,,https://www.eventlavs.com/,ADD,https://www.facebook.com/EventLavs,https://www.instagram.com/EventLavs,,https://twitter.com/intent/
UPDATE,6c520bf1-5f99-4de7-9351-db4c4fc71ab9,Maggio Portable Toilets & Septic Tank Services,Winnfield,Louisiana,(318) 628-6356,,support@webador.com,ADD,,http://www.maggiosportabletoilets.com/,ADD,,,,
UPDATE,6c9bc4ab-2fe9-44e1-947a-aa453f05aa70,LUX Facilities,Hollister,Missouri,(417) 501-5597,,info@luxfacilities.com,ADD,https://luxfacilities.com/,,KEEP,,,,
UPDATE,6d0a193d-f1c0-4873-8d0d-84f2802fd358,MUJI Fifth Avenue,New York,New York,(212) 447-1690,,shunsuke@muji.com,ADD,,https://www.muji.com/us/flagship/fifth-avenue/,ADD,https://www.facebook.com/MUJIUSA,https://instagram.com/mujiusa,https://www.linkedin.com/company/muji-europe,https://twitter.com/MUJIUSA
UPDATE,6d53c97c-77fe-4ab4-8197-8fb16854e88b,Wilkinson Portables Inc,Placerville,California,(530) 558-2904,,dwessels@wilkinsonportables.com,ADD,https://wilkinsonportables.com/%3Futm_source%3DGoogle%2BPlaces%26utm_medium%3DGMB%26utm_campaign%3DGMB%2BWebsite%2BButton,,KEEP,,,,
UPDATE,6d8170dd-2608-4019-8042-b14fb5f532e9,Bloomingdale's,Hackensack,New Jersey,(201) 457-2000,,andrea.hu@macys.com,ADD,https://www.bloomingdales.com/stores/nj/hackensack/shops-at-riverside_5.html,,KEEP,http://www.facebook.com/Bloomingdales,,https://www.linkedin.com/company/law-office-of-george-w.-wolff,http://twitter.com/bloomingdales
SKIP,6e2b0cf6-2fa7-470c-94e0-89eb5d8d4a59,Porta Potty Rentals Midland,Midland,Texas,(432) 315-2898,,,NONE,https://www.portapottyrentalsmidland.business/,,KEEP,,,,
UPDATE,6e4e7635-969c-4412-95cb-70c413bec980,VIP Trailers,Cartersville,Georgia,(770) 438-1092,,info@viptrailers.com,ADD,,https://viptrailers.com/,ADD,https://www.facebook.com/viptrailers,https://www.instagram.com/viptrailers,,
UPDATE,6f939434-0afd-4b00-8238-75396b66e1ec,Middle Tennessee Luxury Restrooms,Murfreesboro,Tennessee,(615) 631-0176,,mtluxuryrestrooms@gmail.com,ADD,https://www.middletennesseeluxuryrestrooms.com/,,KEEP,,,,
UPDATE,6fa07122-5dd6-46ed-b466-14eeb0514550,Lakes Portable Toilets,Shade Gap,Pennsylvania,(814) 259-0011,,ml4206@yahoo.com,ADD,,https://www.lakesportabletoiletsllc.com/,ADD,,,,
UPDATE,6fb86a8b-51c7-4ca6-bc57-21a1376b9dfd,AAA Portable Toilets of Altus,Altus,Oklahoma,(580) 481-8671,,info@portabletoiletsofaltus.com,ADD,,https://portabletoiletsofaltus.com/,ADD,,,,
UPDATE,700555b0-d4e0-4cc7-9628-d0f94a33457a,SMICO Services,Concordia,Missouri,(816) 699-9141,,smicoservices@smico1.com,ADD,,https://www.smicoservices.com/,ADD,https://www.facebook.com/p/,,,
UPDATE,70c87184-7dc8-4108-8804-11f74262c28d,CLP Services - Portable Toilets And Restroom Trailers,Bolivar,Ohio,(330) 874-7131,,xavier@slmportapotties.com,ADD,,https://clprestroomtrailers.com/,ADD,https://www.facebook.com/clpservices.portablerentals,https://www.instagram.com/clpservices,,
UPDATE,70cdbc3f-ff23-476b-9273-b0a3cf2e02e4,JCPenney,Jersey City,New Jersey,(201) 217-1111,,MHAMPTON@JCPENNEY.COM,ADD,https://www.jcpenney.com/locations/nj/jerseycity/clothing-stores-jerseycity-nj-2297.html,,KEEP,http://www.facebook.com/jcp,,https://www.linkedin.com/company/jcpenney-co-inc,http://www.twitter.com/jcpenney
UPDATE,70eb02f6-1298-47e0-bcfa-2522f30085d9,Portable Toilets For You,Beaverton,Oregon,(971) 297-3094,,beaverton@portabletoiletsforyou.click,ADD,,https://www.portabletoiletsforyou.click/,ADD,,,,
UPDATE,710283d1-7576-489f-93c9-40c69dad23dc,Chatfield True Value Hardware,Southbury,Connecticut,(203) 264-4775,,rentals@chatfieldpower.com,ADD,https://chatfieldpower.com/,,KEEP,https://www.facebook.com/Chatfieldpowerequipment/photos/a.726252014229644/1619853931536110/,https://www.instagram.com/chatfieldtruevalue,http://www.linkedin.com/company/8736605,https://twitter.com/ChatfieldPEquip
UPDATE,710fa7b7-3f89-45fc-b6c9-a64bbce8dd3b,Suburban Portables Inc.,Red Wing,Minnesota,(651) 388-5201,,info@suburbanportables.com,ADD,,https://suburbanportables.com/,ADD,https://www.facebook.com/suburbanportables/,,,
UPDATE,71405500-22db-4db3-aea8-b65c3a675bad,Aim To Please,Tulsa,Oklahoma,(918) 606-5675,,,NONE,,http://www.aimtopleaseok.com/,ADD,,,,
UPDATE,716d87a1-653f-40c1-9fd5-a07281742adc,Phoenix Porta Potty Rental PotFleet,Phoenix,Arizona,(623) 323-7225,,contact@phoenixportapottyrentalpotfleet.top,ADD,https://phoenixportapottyrentalpotfleet.top/,,KEEP,https://www.facebook.com/phoenixportapottyrentalpotflee/,https://www.instagram.com/phoenixportapottyrentalpotflee,https://www.linkedin.com/company/phoenix-porta-potty-rental-potfleet/,
UPDATE,71c4bf70-763c-415a-aa14-d92fe2b80ea5,Pina Sajje Sanitation,Mashpee,Massachusetts,(508) 477-0399,,sajje@pinaenterprise.com,ADD,,https://www.pinasajjesanitation.com/%3Futm_source%3DGMB%26utm_medium%3Dorganic%26utm_campaign%3Dlisting,ADD,https://www.facebook.com/PinaSajjeSanitation,,,
UPDATE,71ca0f57-1b9f-4dfa-a494-507458839fc2,"A Royal Flush, Inc.",Bridgeport,Connecticut,(877) 812-4453,,felix@aroyalflush.com,ADD,,http://www.aroyalflush.com/,ADD,http://www.facebook.com/royalflushllc,https://www.instagram.com/aroyalflushinc,http://www.linkedin.com/company/a-royal-flush-flroida-llc,http://www.twitter.com/aroyalflush
SKIP,726573ae-beba-4d91-ae4e-0333952d96dc,Stellar Hardware & Bath,New York,New York,(212) 970-2777,support@starapps.studio,,KEEP,https://stellarhardwareandbath.com/,,KEEP,,,,
SKIP,728a4d5b-a17c-4e28-9cc9-2265071f8974,R & D Fridge Trailers,New Lothrop,Michigan,(810) 638-7490,,,NONE,http://www.rdpolarbox.com/,,KEEP,,,,
UPDATE,73019188-fc77-4117-8fa0-9bdfe67d2130,Rooster Toilets,Benton,Arkansas,(501) 365-8860,,chad@roostertoilets.com,ADD,,https://www.roostertoilets.com/,ADD,https://facebook.com/roostertoilets,,,
UPDATE,7322b0f2-517f-4fcb-970b-83cf886b03ac,A1 Portables,Lexington,Kentucky,(859) 413-3547,,kharkins@storeroom.us,ADD,,https://a1portables.com/,ADD,https://www.facebook.com/A1.Portables/,,https://www.linkedin.com/company/a1-portables,
SKIP,734de98a-3860-4f2f-88fe-053cf3db8c00,Port-O-Potty,Port Richey,Florida,(727) 869-8688,sales@forapotty.com,,KEEP,http://www.port-o-potty.com/,,KEEP,https://www.facebook.com/portopottyflorida/,,,
UPDATE,73a332b1-8d56-4ef8-aa2a-27bc92e0c5ef,All Pro Pumping,Blythe,California,(760) 922-6525,,c.barnett@allprotoilets.com,ADD,,http://allprotoilets.com/,ADD,https://www.facebook.com/allpropumping/,,,
UPDATE,7464426d-b0b5-470b-b273-4aa989ec8baf,Moore's Septic Inc,Swanville,Maine,(207) 338-4586,,h.seekins@mooressepticinc.com,ADD,,https://mooressepticinc.com/,ADD,https://www.facebook.com/mooressepticinc,,http://www.linkedin.com/company/moore's-septic-inc,
UPDATE,75bfe3a2-2661-46a8-b4b6-24ccb5d8bced,Holdens Septic Services LLC,Pawhuska,Oklahoma,(918) 401-0752,,Holdensseptic@gmail.com,ADD,,https://www.facebook.com/Holdensseptic/,ADD,https://www.facebook.com/Holdensseptic,,,
UPDATE,76339b99-ba7b-4cf7-bbc9-a6cdca0c4b62,Containers By Reaves LLC,Phenix City,Alabama,(334) 297-2140,,travis.hitchcock@wasteindustries.com,ADD,,https://gflenv.com/welcome-reaves-and-pine/,ADD,http://www.facebook.com/gflenvironmental,,http://www.linkedin.com/company/gflenvironmental,http://www.twitter.com/gflenv
UPDATE,764fe886-1fc1-40a5-8100-ba6ce328bae5,A&A Porta Potty's,Argillite,Kentucky,(606) 473-5314,,a.zabrieszack@aaportapottys.com,ADD,,http://www.aaportapottys.com/,ADD,,,,
UPDATE,7658e38b-4586-4924-a463-ab5ed037d3cb,Wise Environmental Solutions,Oxford,Alabama,(256) 832-7867,,tammy@wiseenviro.com,ADD,https://www.wiseenviro.com/,,KEEP,,,https://www.linkedin.com/company/wise-environmental-solutions,
SKIP,76caaced-3809-48b9-993f-cdab4afeed61,Outhouse Luxury Restrooms,Cornville,Arizona,(928) 451-7070,rent@outhouseaz.com,,KEEP,https://outhouseaz.com/,,KEEP,,,,
SKIP,7770ede8-79d6-42c4-b92b-40253cc1ca13,Apple SoHo,New York,New York,(212) 226-3126,,,NONE,https://www.apple.com/retail/soho%3Fcid%3Daos-us-seo-maps/,,KEEP,http://www.facebook.com/sap,https://www.instagram.com/amazon,http://www.linkedin.com/company/sap,http://www.x.com/sap
UPDATE,77721b3b-ca70-4880-8315-0c1ea404156a,Porta Potty Rentals of Philadelphia,Philadelphia,Pennsylvania,(602) 737-3969,,info@proportapottyrental.com,ADD,,https://proportapottyrental.com/locations/philadelphia-pa,ADD,,,,
UPDATE,7783aecd-ffe7-4e3b-bf67-a44b442c0e6a,Elegant Restrooms,Westport,Massachusetts,(508) 995-8084,,dbass@elegantrestrooms.net,ADD,,http://www.elegantrestrooms.net/,ADD,http://www.facebook.com/ElegantRestrooms,http://instagram.com/elegant_restrooms,,
UPDATE,778bfe9c-0733-44b4-9902-f7dad9669080,Luxury Restroom Trailers by Privy Chambers,Portland,Oregon,(503) 939-5872,,pepper@privychambers.com,ADD,,http://privychambers.com/,ADD,,,,
UPDATE,78273241-0276-4083-a22f-14d46cf2bbe1,Bonds Septic and Portable Toilets,Clinton,Arkansas,(501) 745-6151,,info@bondssepticandportabletoilets.com,ADD,,https://www.bondssepticandportabletoilets.com/,ADD,https://facebook.com/BondsSepticServices,,,
UPDATE,788ca4b0-8485-4ae7-a3e6-a24ae6b6a338,Knight Environmental Services,Caledonia,Mississippi,(662) 356-0270,,info@knightenvironmental.com,ADD,,http://www.knightenvironmental.com/,ADD,https://www.facebook.com/knightenvironmental/,,,
UPDATE,78b7128b-b14f-4060-9f75-a3910c30c1e4,Kansas Mobile Throne,El Dorado,Kansas,(316) 452-4069,,kansasmobilethrone@gmail.com,ADD,,https://www.mobilethronekansas.com/,ADD,,,,
UPDATE,78cf455f-c01b-4c13-b9a7-0ddef27e079b,Fyles Satellites,Pequot Lakes,Minnesota,(218) 821-4690,,fyles.satellites@outlook.com,ADD,,https://www.fylesportables.com/,ADD,https://www.facebook.com/FylesSatellites,,,
UPDATE,78ead68d-c782-442d-a9d6-295f57dd5c64,"Mitzi Autry's Portable Toilets, LLC.",Owensboro,Kentucky,(270) 685-3344,,mapt1@yahoo.com,ADD,,http://mitziautrysportabletoilets.com/,ADD,https://facebook.com/Mitzi-Autrys-Portable-Toilets-LLC-430909393597308,,,
UPDATE,7978a176-1c79-45d4-9580-91ed53a630c3,Showbiz Restrooms,Burbank,California,(818) 925-5544,,showbizrestrooms@gmail.com,ADD,,https://showbizrestrooms.com/%3Futm_source%3DOrganic%26utm_medium%3DGMB%26utm_campaign%3DGMB,ADD,,,,
UPDATE,79a7cd49-b116-48e3-817f-2ae1ec002a2b,On Site Companies,St Paul,Minnesota,(651) 429-3781,,scotts@onsiteco.com,ADD,,https://onsiteco.com/,ADD,http://www.facebook.com/onsitecompanies,https://instagram.com/onsitecompanies,http://www.linkedin.com/company/onsite-companies,http://www.twitter.com/onsitecompanies
SKIP,79da8943-b25a-45cf-9d5e-41ad985ab64f,Bob's Premium Privies,Des Moines,Iowa,(515) 262-9174,605a7baede844d278b89dc95ae0a9123@sentry-next.wixpress.com,,KEEP,https://www.bobsseptic.com/portable-restrooms,,KEEP,,,https://www.linkedin.com/company/bobsseptic,
UPDATE,79e36239-561b-43b8-b1fb-88073fb6909e,Orlando Portable Potties,Orlando,Florida,(833) 677-6889,,info@orlandoportablepotty.com,ADD,,http://orlandoportablepotty.com/,ADD,https://www.facebook.com/orlandoportapotty,https://instagram.com/orlando_portable_potties_,,
SKIP,7a847aa4-0aab-4153-9349-ed7076e3935c,Blue Moon Rental,Wellington,Colorado,(970) 460-6075,reservations@bluemoonrental.com,,KEEP,https://www.bluemoonrental.com/,,KEEP,https://www.facebook.com/bluemoonrental/,https://www.instagram.com/bluemoonrental,,
UPDATE,7b5b014e-866e-44dc-8b03-c4bc0754a8a7,"Cozy Cove Restroom Trailer, LLC",Silverdale,Washington,(360) 633-9535,,ryan@cozycoverestroomtrailer.com,ADD,,https://cozycoverestroomtrailer.com/,ADD,https://www.facebook.com/CozyCoveRestroomTrailer,https://www.instagram.com/cozycoverestroomtrailer,,
UPDATE,7b5e470c-f755-494b-8e99-4d6a96df97b4,Port-A-Jon,Shreveport,Louisiana,(318) 797-0170,,john@port-a-jon.com,ADD,https://port-a-jon.com/,,KEEP,http://www.facebook.com/portajoninc/,,,
UPDATE,7b7d07ca-a739-4f0a-9ea9-431e046b6246,Johnny Blue Inc.,Winchester,Virginia,(540) 665-0968,,info@johnnyblueinc.com,ADD,,http://www.johnnyblueinc.com/,ADD,http://www.facebook.com/johnnyblueinc,https://www.instagram.com/johnnybluewinchester,http://www.linkedin.com/company/johnny-blue-inc-,https://twitter.com/intent/
UPDATE,7b911ba8-cef7-4a6f-a00e-a0bcc5854b68,Portable Porcelain Ohio,Bowling Green,Ohio,(419) 283-8200,,portableporcelainohio@gmail.com,ADD,,http://www.portableporcelainohio.com/,ADD,,,,
UPDATE,7b91e43b-a188-4630-9202-d4e4a9bed3dd,Party Poopers Inc,Georgetown,Delaware,(443) 528-3397,,info@partypoopersdelmarva.com,ADD,,http://partypoopersdelmarva.com/,ADD,https://www.facebook.com/Party-Poopers-Delmarva-108983741909110,,,
UPDATE,7babcceb-a8f9-46a0-82c3-d4b21ed94c7d,redbox+ Dumpsters of North Boston,Lowell,Massachusetts,(617) 340-5694,,info@redboxplus.com,ADD,,https://www.redboxplus.com/north-boston/,ADD,https://www.facebook.com/redboxplusDumpsters,https://www.instagram.com/redboxplusdumpsterscorp,https://www.linkedin.com/company/redboxplus-of-lehigh-valley/,https://twitter.com/redboxplusCorp
UPDATE,7ce7ba97-b027-47a5-a36e-630ebfc1fb53,St. Petersburg Portable Toilets RapidRelief,St. Petersburg,Florida,(727) 380-4365,,contact@stpetersburgportabletoiletsrapidrelief.top,ADD,,https://stpetersburgportabletoiletsrapidrelief.top/,ADD,https://www.facebook.com/stpetersburgportablerapidrelief/,https://www.instagram.com/stpetersburgportabletoilets,https://www.linkedin.com/company/st-petersburg-portable-toilets-rapidrelief/,https://twitter.com/toiletsrapidrel
UPDATE,7da848fb-a6c0-4e97-b29e-93c207edb98e,Schlomka's Portable Restrooms & Mobile Pressure Washing LLC,Inver Grove Heights,Minnesota,(651) 332-4200,,office@twincitytoilets.com,ADD,,http://www.twincitytoilets.com/,ADD,,,https://www.linkedin.com/company/twincitytoilets,
UPDATE,7dc94940-5e77-4c59-a228-73c47ae3760a,Next Day Potty,Baltimore,Maryland,(877) 385-1230,,service@nextdaypotty.com,ADD,,http://www.nextdaypotty.com/,ADD,https://www.facebook.com/Nextdaypotty,https://www.instagram.com/shopify,https://www.linkedin.com/company/next-day-potty,https://twitter.com/intent/
UPDATE,7de4cce3-1f02-4e06-b2b9-9dde1f35f53a,Yankee Restrooms,Ashley Falls,Massachusetts,(413) 637-1166,,fguilfoyle@spirusmed.com,ADD,,https://yankeerestrooms.com/welcome,ADD,https://www.facebook.com/Yankee-Restrooms-110534658964421/,,,
UPDATE,7e6438f1-57bc-4d02-b471-78be76e5dff9,Prime Sanitation Services LLC,Porterville,California,(559) 542-4835,,primesanitation17@gmail.com,ADD,,https://primesanitation.com/,ADD,https://www.facebook.com/PRIMESANITATIONSERVICES/,https://www.instagram.com/primesanitation1,,
SKIP,7e7068c6-ffc0-4ba4-aadf-8ce53510c913,Walmart Supercenter,Secaucus,New Jersey,(201) 325-9280,sofia.royo@walmart.com,,KEEP,https://www.walmart.com/blocked?url=L3N0b3JlLzM1MjAtc2VjYXVjdXMtbmovP3ZlaD1zZW9fbG9j&uuid=e48efe46-dbb8-11f0-84b8-3609439dd86e&vid=&g=b,,KEEP,http://www.facebook.com/walmart,https://www.instagram.com/walmart,https://www.linkedin.com/company/walmart-distribution-center-6011-brookhaven-ms,http://www.twitter.com/Walmart
UPDATE,7eacde2f-89c1-4cb4-b9f4-915b78f0877d,American On-Site Services,Spokane Valley,Washington,(509) 244-8404,,abloem@spokaneindustries.com,ADD,,https://americanonsite.net/,ADD,,,http://www.linkedin.com/company/8800918,
UPDATE,7f139647-0344-43e6-9fa6-b310f067b04a,Christopher Equipment Inc,Manchester,Tennessee,(931) 728-5484,,,NONE,,http://christopher.equipment/,ADD,,,,
UPDATE,7f3ad82f-2ae1-4559-a6f9-7b8e89598d71,Patriot Portable Restrooms PNW LLC,Spokane Valley,Washington,(509) 816-6444,,jorge@wepumpit.com,ADD,,https://www.wepumpit.com/,ADD,https://www.facebook.com/Mission-Valley-Sanitation-298413611387,,http://www.linkedin.com/company/6855801,https://twitter.com/MissionValley
SKIP,7f48e860-f808-498f-8db8-101f5d40949d,Greensboro Porta Potty Rental | LooHub,Greensboro,North Carolina,(743) 256-9427,contact@greensboroportapotties.com,,KEEP,https://greensboroportapotties.com/,,KEEP,https://www.facebook.com/greensboroportapottyrentalloohub/,https://www.instagram.com/greensboroportapotty,https://www.linkedin.com/company/greensboro-porta-potty-rental-loohub/,https://twitter.com/rentalloohub
UPDATE,7fb0eef4-8e9c-4272-8eb4-9aaae129a285,"YML Portable Restrooms, LLC",Miami,Florida,(305) 207-2881,,info@ymlportablerestrooms.com,ADD,,http://www.ymlportablerestrooms.com/,ADD,https://www.facebook.com/ymlportablerestrooms/,https://www.instagram.com/ymlportablerestrooms,https://www.linkedin.com/company/yml-portable-restrooms,https://twitter.com/ymlservices
UPDATE,7ffd2e61-0c23-4a43-9b1e-13a7e9dd9614,Pitstop Potties,Ogallala,Nebraska,(308) 352-8525,,pitstoppots@gmail.com,ADD,,https://www.pitstoppotties.com/,ADD,,,,
UPDATE,803ebe99-18e1-4c84-83cc-e719b6199241,"Bolduc Sanitation & Excavation, Inc.",Plymouth,Massachusetts,(508) 830-6740,,micah@micahrich.com,ADD,,https://bolducsanitationexcavation.com/,ADD,https://www.facebook.com/bolducsanitation,https://www.instagram.com/bolduc.sanitation.excavation,,
SKIP,805211c0-0f1a-421c-afff-2bda8611a177,TNT Luxury Restroom Rentals,Agawam,Massachusetts,(413) 896-8297,,,NONE,https://www.tntrestroomrentals.net/,,KEEP,,,,
UPDATE,80711fca-b518-4195-bbc0-f57214a25c4d,A & C Septic Services LLC,Cape May Court House,New Jersey,(609) 463-4600,,j.errico@acseptic.com,ADD,,http://acseptic.com/,ADD,http://www.facebook.com/acsepticservice,https://www.instagram.com/ac_septicservice,https://www.linkedin.com/company/a%26c-septic-service-llc,http://www.twitter.com/acsepticsrvice
UPDATE,80822114-1625-4ddd-ab1c-873f0235a0aa,Macy's,New York,New York,(212) 695-4400,,ALLISON.KOLDEN@MACYS.COM,ADD,https://www.macys.com/stores/ny/newyork/herald-square_3.html,,KEEP,http://www.facebook.com/macys,,http://www.linkedin.com/company/6746534,http://twitter.com/macys
UPDATE,80c53403-f863-436a-aa83-790efe45ca46,Porta Palace Portable Restrooms,Indianapolis,Indiana,(317) 779-4016,,office@theportapalace.com,ADD,,https://www.theportapalace.com/%3Futm_source%3Dgoogle%26utm_medium%3Dorganic%26utm_campaign%3Dgmb,ADD,,,,
UPDATE,81591dac-9373-47c6-a808-f8af47783a70,"Bone Septic Services, LLC",Stuttgart,Arkansas,(870) 673-2184,,info@boneseptic.com,ADD,,http://www.boneseptic.com/,ADD,,,,
UPDATE,817cbe72-b607-4369-bef5-759c9c6a4793,Finkeldey BMJ - Dumpster & Portable Toilet,Old Saybrook,Connecticut,(860) 399-5266,,finkeldeyct@gmail.com,ADD,,https://finkeldeys.com/%3Futm_source%3Dgoogle%26utm_medium%3Dorganic%26utm_campaign%3Dgbp%26utm_content%3Dwebsite,ADD,,,,
SKIP,81f56882-979e-4b90-baa9-bfd4c9113163,Ivory Porta Potty Rental Los Angeles,Los Angeles,California,(213) 734-2618,,,NONE,https://ivoryportapottyrental.com/,,KEEP,,,,
UPDATE,81f680c4-770a-4a0b-980a-160080ae456f,Tidy Services,Salem,Virginia,(540) 345-0168,,a.phillips@tidyinc.com,ADD,https://www.tidyinc.com/,,KEEP,https://www.facebook.com/Tidy-Services-119861649107/,,,https://twitter.com/TidyServicesVA
UPDATE,82fe8b7b-aedb-4250-954b-328405ef5830,Platinum Potty Rentals,Austin,Texas,(512) 534-9663,,kiran@platinumpotty.com,ADD,https://platinumpotty.com/,,KEEP,,https://www.instagram.com/platinumpottyrentals,,
UPDATE,83115617-5e53-4595-bb3c-d4d362bcef9a,Zoonen Services,Fresno,California,(559) 484-0080,,info@zoonenservices.com,ADD,,http://zoonenservices.com/,ADD,,,,
UPDATE,844ed19e-e234-4b3d-9674-85eeccef9a61,First State Waste,Middletown,Delaware,(302) 376-1000,,workwith@firststaterolloff.com,ADD,,https://firststatewaste.com/,ADD,https://www.facebook.com/firststaterolloff,https://www.instagram.com/firststaterolloff,,
UPDATE,844fdbd0-b6e4-469f-b53e-49e9cba86f45,Regency Recycling Corporation,Rosedale,New York,(718) 525-7100,,info@regencyrecyclingcorp.com,ADD,https://regencyrecyclingcorp.com/,,KEEP,https://www.facebook.com/regencyrecyclingcorp/,https://www.instagram.com/nydumpsterrentals,https://www.linkedin.com/company/regency-recycling-corporation,https://twitter.com/regencyrecyclin
UPDATE,84a892ff-2148-48c8-ad73-196ef36718d4,SoFlo Backcountry Rentals,Miami,Florida,(305) 871-9232,,info@soflobcrentals.com,ADD,,http://soflobcrentals.com/,ADD,,https://www.instagram.com/soflobackcountryrentals,,
UPDATE,84c502a1-94c3-4e15-9a7c-8ae01540eb3d,Easy-Haul Inc.,Fairhope,Alabama,(251) 929-2133,,btucker@easy-haul.com,ADD,,http://www.easy-haul.com/,ADD,,,http://www.linkedin.com/company/4708320,
UPDATE,85080cec-2b7d-46de-b939-7d18711f5539,Precious Portable Toilets,Mckinney,Texas,(214) 506-0478,,info@preciousportabletoilets.com,ADD,,https://www.preciousportabletoilets.com/locations/mckinney-tx,ADD,,,,
UPDATE,8551f71e-6232-4e78-beea-0f385aebde9a,The Home Depot,New York,New York,(212) 929-9571,,saber32@excite.com,ADD,https://www.homedepot.com/l/Manhattan-West-23rd-St/NY/New-York/10010/6175%3Femt%3DMSGMBGoogleMaps,,KEEP,https://www.facebook.com/homedepot,,https://www.linkedin.com/company/home-depot-at-home-services,https://twitter.com/HomeDepot
UPDATE,8558053d-dc9b-481c-9df5-927313767286,Cal-State Site Services,Simi Valley,California,(805) 527-6500,,rick@rentfenceandtoilets.com,ADD,https://www.rentfenceandtoilets.com/%3Futm_source%3Dgoogle%26utm_medium%3Dorganic%26utm_campaign%3Dgmbwebsite,,KEEP,http://www.facebook.com/Cal-State-Rent-A-Fence#!/pages/Cal-State-Rent-A-Fence/104068944818,https://www.instagram.com/calstatesiteservices,http://www.linkedin.com/company/462566,http://www.twitter.com/CalStateRAF
UPDATE,856d8a55-0197-40d7-80ab-8e8e3fce5279,Palmetto Portables,Myrtle Beach,South Carolina,(843) 602-4888,,palmettoportable@gmail.com,ADD,,https://palmettoportables.com/,ADD,https://www.facebook.com/palmettoportables/,,,
UPDATE,85735fbf-29cb-475a-a8a3-530eb7ada891,Callahead,Broad Channel,New York,(800) 634-2085,,info@callahead.com,ADD,,http://www.callahead.com/,ADD,https://www.facebook.com/339211969940477,,,
UPDATE,862aea16-6e75-468e-a915-ac2c22a0c846,Royal Restrooms Savannah/Hilton Head Island,Garden City,Georgia,(912) 234-6800,,sales@royalrestrooms.com,ADD,,http://georgiaportablerestrooms.com/,ADD,https://www.facebook.com/royalrestroomssavannah,https://www.instagram.com/royalrestroomssav,,
UPDATE,86bf774a-1322-4dd3-88d7-5a21ade4df8c,Bailey's Septic Service Inc,Reading,Pennsylvania,(610) 929-1500,,info@baileyssepticservices.com,ADD,https://www.baileyssepticservices.com/,,KEEP,,https://www.instagram.com/baileysseptic,,https://twitter.com/BaileysSepticSe
UPDATE,86cc30a0-ca78-4e0a-8b80-66ab22203fcc,A-1 Enterprises,Pleasanton,California,(925) 846-4062,,info@pleasantongarbageservice.com,ADD,,http://www.a-1enterprisesbayarea.com/,ADD,,,,http://twitter.com/intent/
UPDATE,8740f16c-9d62-4766-8c43-8fa8b51394f5,Mobile Mini - Portable Storage & Offices,Maricopa,Arizona,(480) 899-2800,,,NONE,,https://www.willscot.com/en%3Futm_source%3Dgoogle%26utm_medium%3Dorganic%26utm_campaign%3Dgbp-listing,ADD,https://www.facebook.com/willscot/about/,,https://www.linkedin.com/company/william-scottsman,http://twitter.com/willscot
UPDATE,8845c0ea-302e-4c83-b07a-68541159719c,Porta Potty Rental Miami,Miami,Florida,(786) 305-7479,,,NONE,,https://portapottyrentalmiami.net/,ADD,,,,
SKIP,88745eaa-7bb3-4bf2-8cfc-de558a9d0761,Pleasant View Potties,Clinton,Massachusetts,(978) 765-3001,office@pleasantviewwaste.com,,KEEP,https://www.pleasantviewpotties.com/,,KEEP,https://www.facebook.com/Pleasant-View-Potties-104583481623479,,,
UPDATE,892acde8-f0a2-4cab-8de4-d0245a7cbd7d,PRETTYMAN'S LLC,Clayton,Washington,(509) 276-5432,,r.prettyman@prettymansllc.com,ADD,,http://prettymansllc.com/,ADD,,,,
SKIP,89470a4c-89de-426c-88e6-d93645201db2,Kohl's,Secaucus,New Jersey,(201) 553-9143,,,NONE,https://www.kohls.com/stores/nj/secaucus-385.shtml%3Futm_source%3Dgoogle%26utm_medium%3Dorganic%26utm_campaign%3Dlocal,,KEEP,https://www.facebook.com/kohls,https://www.instagram.com/kohls,https://www.linkedin.com/company/kohl%E2%80%99s,https://twitter.com/kohls
UPDATE,89f86488-de25-49e1-b316-1059489bba28,Service Sanitation,Gary,Indiana,(800) 909-5646,,bhoppes@ksmconsulting.com,ADD,,http://www.servicesanitation.com/,ADD,http://www.facebook.com/servicesanitation,https://www.instagram.com/servicesanitation,http://www.linkedin.com/company/service-sanitation,http://www.twitter.com/servicesan
UPDATE,8a27c9c4-3a68-4949-a47e-724752280545,Portable John,Hibbing,Minnesota,(218) 262-4576,,j.carpenter@portablejohnmn.com,ADD,,http://portablejohnmn.com/,ADD,,,,
UPDATE,8a641bb9-f560-4700-9528-fb0225a9f2f6,Texan Restrooms,Stephenville,Texas,(254) 965-5646,,devan@texanrestrooms.com,ADD,http://www.texanrestrooms.com/,,KEEP,,,,
UPDATE,8a99ae89-1dbe-478b-a456-0a8a38fd5b18,Mr. Sanitation LLC,Mooresville,Indiana,(317) 987-9055,,micah@micahrich.com,ADD,,http://www.mrsanitation.com/,ADD,https://www.facebook.com/mrsanitation,https://www.instagram.com/mrsanitationllcindy,,
UPDATE,8b685565-3869-4fff-891b-f7d8cf302fc6,The Potty Company,Orlando,Florida,(407) 759-7787,,contact@thepottycompany.com,ADD,https://thepottycompany.com/,,KEEP,,,,
UPDATE,8c5b04f9-f997-4c2a-9270-d8a561a5bf30,"Carsons Cans, LLC",Deerfield,Massachusetts,(413) 475-3167,,info@carsonscans.com,ADD,,https://www.carsonscans.com/,ADD,,,,
UPDATE,8caae479-8d50-4b76-8185-bb4e33a31c0e,Mike's Portables,Clifton Park,New York,(518) 539-4732,,mike@mikesportables.com,ADD,,http://mikesportables.com/,ADD,,,,
UPDATE,8d7f162f-5896-4044-a133-97ce74e815ef,Porta Potty Rentals of Tampa,Tampa,Florida,(520) 552-8400,,info@proportapottyrental.com,ADD,,https://proportapottyrental.com/locations/tampa-fl,ADD,,,,
SKIP,8dc1e1ad-c19f-4ddf-8e01-a090ae1eca9f,Hank's Portables & Septic Service LLC,Sedalia,Missouri,(660) 826-8622,hanksportablesllc@yahoo.com,,KEEP,http://www.hanksportapotties.com/,,KEEP,https://www.facebook.com/people/,,,
UPDATE,8de47daa-a0da-4e65-9df0-3979b1055fed,"David & Son's Portable Toilets, LLC",Albuquerque,New Mexico,(505) 242-5770,,info@davidandsonsportabletoilets.com,ADD,,https://www.davidandsonsportabletoilets.com/,ADD,https://www.facebook.com/David-Sons-Portable-Toilet-Company-1712342678809403/,,,
UPDATE,8deecfcc-3a57-4545-8223-193ae3b99ab6,Banana Jons Portable Toilets,Clay Springs,Arizona,(928) 532-3146,,bananajon01@gmail.com,ADD,,https://www.bananajonsportabletoilets.com/,ADD,,,,
UPDATE,8df4e2d1-7ebd-4f4a-9669-468c7b85fd3a,Cortez Rental Services,San Antonio,Texas,(210) 626-2531,,kdarch@cortezservices.com,ADD,http://www.cortezservices.com/,,KEEP,https://www.facebook.com/Cortez-Liquid-Waste-Services-102398591938876/,https://www.instagram.com/cortezliquidwasteservices,,https://twitter.com/Cortezservice
SKIP,8e301db5-e27d-45f8-8b95-3403f0c6c7d9,Valley Sanitation and Rental LLC,Livingston,California,(888) 394-2946,info@indiantypefoundry.com,,KEEP,https://valleysanitationandrental.com/,,KEEP,https://www.facebook.com/valleysanitationrentals,https://www.instagram.com/valleysanitationandrental,,
UPDATE,8e8feb57-41f6-44e3-ad20-7b61879afd67,ATS Portable Toilets,Palmer,Alaska,(907) 746-6563,,atsportables@gmail.com,ADD,https://www.atstoilets.com/,,KEEP,https://www.facebook.com/squarespace/,https://www.instagram.com/squarespace,,
UPDATE,8f027782-5fd0-411d-99dd-b363aa9a07e5,Cool Ormond Beach Portable Toilet Renta,Ormond Beach,Florida,(386) 242-0340,,admin@coolormondbeachportabletoiletrentalguys.com,ADD,https://coolormondbeachportabletoiletrentalguys.com/,,KEEP,,,,
UPDATE,8f2b3818-4612-4f6d-89ec-595c358e2d2f,Linked Equipment,Phoenix,Arizona,(602) 314-6020,,info@linkedequipment.com,ADD,,https://linkedequipment.com/%3Futm_source%3Dgoogle%26utm_medium%3Dorganic%26utm_campaign%3Dgbp,ADD,https://www.facebook.com/linkedequip/,https://www.instagram.com/linkedequipment,https://www.linkedin.com/company/linkedequipment,https://twitter.com/EquipmentLinked
SKIP,8f4e1242-293f-4301-9f0f-55383d840975,United Rentals - Reliable Onsite Services,Colorado Springs,Colorado,(719) 581-3182,,,NONE,https://www.unitedrentals.com/locations/co/colorado-springs/sanitation-rentals/720%3Futm_source%3Dgoogle%26utm_medium%3Ddistrib%26utm_campaign%3Dyext,,KEEP,http://www.facebook.com/united-rentals-200631115132,,https://www.linkedin.com/company/trench-safety,http://www.x.com/unitedrentals
SKIP,8f973660-5b72-4ee8-ae9f-96ae0cd63d79,Apple Upper West Side,New York,New York,(212) 209-3400,,,NONE,https://www.apple.com/retail/upperwestside%3Fcid%3Daos-us-seo-maps/,,KEEP,http://www.facebook.com/sap,https://www.instagram.com/amazon,http://www.linkedin.com/company/sap,http://www.x.com/sap
UPDATE,8ffe5ecd-5afa-4a95-9cbf-db58fdb27c35,Big Daddy Portable Toilets,Riverdale,California,(559) 707-1413,,info@bdportabletoilets.com,ADD,,http://www.bdportabletoilets.com/,ADD,https://www.facebook.com/pages/,,,
UPDATE,909d869c-b6d7-4779-aa4b-386fee2d3de5,Texas Outhouse,Houston,Texas,(713) 785-8050,,jennifer@texasouthouse.com,ADD,https://www.texasouthouse.com/,,KEEP,https://www.facebook.com/txouthouse/,https://www.instagram.com/texas_outhouse,https://www.linkedin.com/company/texas-outhouse,
UPDATE,90a083bf-3a47-48ef-86d9-46da9e8062f1,Allied Sanitation Services LLC,Yerington,Nevada,(775) 463-5142,,dispatch@alliednv.com,ADD,,http://alliednv.com/,ADD,https://www.facebook.com/Alliednv/,,,
UPDATE,90a4c4ab-609c-4c55-8ab0-a3ce3d46adda,M & K Porta Potties,East Grand Forks,Minnesota,(701) 738-2346,,kody@mandkportapotties.com,ADD,,https://www.mkportapottie.com/,ADD,https://www.facebook.com/pages/,,,
SKIP,90da8788-68b5-46f2-8562-52d7faab74cd,Artesian Clean Septic & Pottys Inc,King Hill,Idaho,(208) 721-3192,artesianclean@outlook.com,,KEEP,http://www.artesianclean.com/,,KEEP,,,,
UPDATE,90fcfafb-afbb-4e2b-bff0-8dfcd94c74e2,The Home Depot,Brooklyn,New York,(718) 230-0833,,saber32@excite.com,ADD,,https://www.homedepot.com/l/Brooklyn/NY/Brooklyn/11232/1225%3Femt%3DMSGMBGoogleMaps,ADD,https://www.facebook.com/homedepot,,https://www.linkedin.com/company/home-depot-at-home-services,https://twitter.com/HomeDepot
UPDATE,92cdd1bc-b746-41c6-8c66-5ec6969f8d2c,All Ohio Portable Toilets,Mt Sterling,Ohio,(614) 286-0686,,,NONE,,http://allohiopt.com/about-us,ADD,https://www.facebook.com/All-Ohio-Portable-Toilets-368991403718671/,https://www.instagram.com/all_ohio_portable_toilet,,https://www.twitter.com/allohiopt
UPDATE,935bd498-4c3f-48ae-80a9-1ec27211c6d9,John's Jons,Lewiston,Idaho,(208) 790-5000,,jons.johns2020@gmail.com,ADD,,https://johnsjons.co/,ADD,,,,
SKIP,9370dff5-7160-4d17-b708-9875829c9ce2,Romerito Porta,Springfield,Missouri,(417) 218-2057,,,NONE,https://romeritoporta.com/,,KEEP,,,,
UPDATE,93ab7a9b-4b7b-4f6f-ab3f-1e0c12ad96bc,Gott's To Go,Springfield,Missouri,(417) 869-6531,,sebastian@aldusleaf.org,ADD,,https://gottstogo.com/,ADD,,,,
UPDATE,93c3651f-d01f-4a9f-b888-841440395afe,"Portable Services, Inc. - Columbia",Columbia,South Carolina,(803) 754-5768,,jbentley@portableservices.net,ADD,https://portableservices.net/%3Fy_source%3D1_MzI2NzU1MDEtNzE1LWxvY2F0aW9uLndlYnNpdGU%253D,,KEEP,https://www.facebook.com/PortableServicesInc1,https://www.instagram.com/portable_services_inc,https://www.linkedin.com/company/portable-services-inc.,
UPDATE,9419da3d-30b8-4e79-9d8a-2a8e43cdb64f,River Septic,Parker,Arizona,(928) 667-0021,,main@riverseptic.com,ADD,,https://riverseptic.com/,ADD,,,,
UPDATE,94715e71-50e8-491f-a164-19c0edbdf1d1,DFW Toilets,Dallas,Texas,(214) 869-6937,,accounting@dfwtoilets.com,ADD,http://dfwtoilets.com/,,KEEP,https://www.facebook.com/DFWpotties,,,
UPDATE,94d2bfbe-0562-4fdd-9644-750f7d4165fc,The Cann Mann,Casa Grande,Arizona,(520) 836-5209,,info@thecannmann.com,ADD,,https://www.thecannmann.com/,ADD,https://www.facebook.com/TheCannMann/,,,
UPDATE,95674d0e-37d8-4f3a-b8a7-9994519be66b,Preferred Portables LLC,Danville,Pennsylvania,(570) 293-4921,,preferredportables@gmail.com,ADD,,http://preferredportables.com/,ADD,,,,
UPDATE,957dab40-ca36-4c08-833c-c284bc5e0944,"Deluxe Porta Potty, Inc.",North Hollywood,California,(818) 213-1456,,contact@deluxeportapotty.com,ADD,https://deluxeportapotty.com/,,KEEP,,,,
UPDATE,959e7d6d-db53-48ee-830a-820718e23100,Genie Magic Flush,Chino Hills,California,(323) 447-0622,,geniemagicflush@gmail.com,ADD,,https://www.geniemagicflush.com/,ADD,https://www.facebook.com/102314125442534,,,
UPDATE,968ea46c-132b-42fb-a74f-ab047cdb8ed1,Saving Grace Septic & Rentals,Morgantown,West Virginia,(304) 282-7210,,morgantownptrentals@gmail.com,ADD,,https://savinggraceseptic.com/,ADD,,,,
UPDATE,96d0d8e9-27f2-495b-9940-a746002c4195,R M Ratta Corp,Ayer,Massachusetts,(978) 772-1600,,jane@rattacorp.com,ADD,,http://rattacorp.com/,ADD,https://facebook.com/127976007340099,,,https://twitter.com/intent/
SKIP,96dbd4be-a291-4940-b5fb-af6553bc2f74,Santa Ana Porta Potty Rental | LooMaster,Santa Ana,California,(714) 242-0671,contact@santaanaportapotties.com,,KEEP,https://santaanaportapotties.com/,,KEEP,,,,
UPDATE,96f64c67-7696-43ac-9315-3c2634c72944,"Lacey Rentals, Inc.",Brandon,South Dakota,(605) 330-2747,,laceyrentalsinc@gmail.com,ADD,,https://laceyrentalsinc.com/,ADD,,,,
UPDATE,9702efda-fc50-43fc-90a8-afe0ae462222,BWI Sanitation,Republic,Missouri,(877) 294-1000,,info@bwisanitation.com,ADD,,http://www.bwisanitation.com/,ADD,,,,http://www.twitter.com/BWISanitation
UPDATE,9719a9ef-2097-48c7-b901-02b75d9c171e,Best Enterprises,Cabot,Arkansas,(501) 988-1905,,pam@bestenterprises.net,ADD,,https://www.bestenterprises.net/,ADD,https://www.facebook.com/BestenterprisesAR/,https://www.instagram.com/stainless_tanks,https://www.linkedin.com/company/best-enterprise,https://twitter.com/BestEnterprise3
UPDATE,97b0c912-28f8-4bbf-b4c4-91885518f9fb,Richmond Restroom Trailers,Richmond,Virginia,,,,NONE,,https://www.richmondrestroomtrailers.com/,ADD,,,,
UPDATE,9821a214-ca8e-4bf1-8c1c-4b9ee53340fc,Abe's Portables,Omaha,Nebraska,(402) 571-7809,,info@abesportables.com,ADD,,https://abesportables.com/,ADD,,https://www.instagram.com/abesportables,https://www.linkedin.com/company/105890352/,
UPDATE,98486d02-1c16-45a1-ab35-32c86e59e330,Alaia Portable Toilet Rental,Salt Lake City,Utah,(385) 213-4779,,info@alaiaportabletoiletrental.com,ADD,,https://alaiaportabletoiletrental.com/serviceareas/salt-lake-city/,ADD,,,,
UPDATE,9876904c-9a44-4ef5-b7b8-c246e0f9933b,"Bullitt Septic Service, Inc",Louisville,Kentucky,(502) 305-4170,,info@bullittsepticservice.com,ADD,https://www.bullittsepticservice.com/%3Futm_source%3Dgoogle%26utm_medium%3Dorganic%26utm_campaign%3Dgbp-louisville,,KEEP,https://www.facebook.com/pages/,,,
UPDATE,989018ea-e0b8-4ab2-a160-70973ed718f7,American Portables,Cleveland,Tennessee,(423) 716-3330,,kdsearles@aol.com,ADD,,https://www.americanrooterseptic.com/,ADD,https://www.facebook.com/americanportable/,,,
UPDATE,98c5508e-8417-4e09-9f33-13a188334b17,Nashville Restroom Rentals - House of Thrones,Arrington,Tennessee,(630) 470-7339,,info@thehouseofthrones.com,ADD,https://www.thehouseofthrones.com/tennessee,,KEEP,https://www.facebook.com/thehouseofthrones,https://www.instagram.com/thehouseofthrones,,
SKIP,98df0bff-1c9a-4494-b9ef-976b7dc9dbab,Target,North Bergen,New Jersey,(201) 520-1701,,,NONE,https://www.target.com/sl/north-bergen-commons/1865,,KEEP,https://www.facebook.com/target,https://www.instagram.com/target,https://www.linkedin.com/company/target-com,https://x.com/target
SKIP,991ceae1-891c-48bb-a4ed-fa7d0ed1f16f,Rent A Can Site Services,Casa Grande,Arizona,(520) 466-7755,,,NONE,https://rentacanaz.com/,,KEEP,,,,
SKIP,991e1eed-baa9-494c-91d2-8bd7935e019b,BPR Site Services,Bakersfield,California,(661) 631-0672,eben@eyebytes.com,,KEEP,https://bprsiteservices.com/,,KEEP,,,,
SKIP,994833f4-05dc-4b0d-a871-77f25ac1aa3b,NexGen Portables,Englewood,Colorado,(720) 741-2627,info@nexgenportables.com,,KEEP,https://nexgenppod.com/,,KEEP,https://www.facebook.com/Nexgenppodofdenver,https://www.instagram.com/nexgenppodofdenver,https://www.linkedin.com/company/nexgensanitation,https://twitter.com/NexgenPpod
UPDATE,9989dfbd-0d0a-4932-bafe-9204c1afd02e,First Class Sanitation,Flagstaff,Arizona,(928) 774-6413,,firstclassnaz@gmail.com,ADD,,https://www.firstclassnaz.com/,ADD,,,,
UPDATE,9a336e7c-03ac-4ece-abac-9e5d59f2a466,Jim's Portable Toilets & Septic Tank Systems,Shawnee,Oklahoma,(405) 275-5161,,letspotty@yahoo.com,ADD,,http://jimportabletoilets.net/,ADD,https://www.facebook.com/jimsportapottyandsepticservice/,,,
UPDATE,9a95a8da-2e7a-45b3-aaec-a9432abac5a3,Portable Toilet Services,Dothan,Alabama,(334) 794-2144,,kpowell@dohwe.com,ADD,,https://www.portabletoiletservicesdothan.com/,ADD,,,,
UPDATE,9ad2f64c-4909-47e4-b41a-8e4982c8fe1c,Flying J Travel Center,Hope Hull,Alabama,(334) 613-0212,,social@pilotflyingj.com,ADD,,https://locations.pilotflyingj.com/us/al/hope-hull/900-tyson-rd,ADD,https://www.facebook.com/pilottravelcenters,https://www.instagram.com/pilotflyingj,,https://twitter.com/pilotflyingj
UPDATE,9b736d9b-7676-4d94-aecf-a7a1dc0f5a0c,Rockstar Rental,Richmond,Michigan,(586) 834-8765,,rockstarrentalco@gmail.com,ADD,,https://www.rockstarrentalco.com/restroom-trailer,ADD,https://www.facebook.com/rockstarrentalco/,,,
UPDATE,9b9b0cbf-9d7f-484c-87be-2969f9fc170d,The Home Depot,Secaucus,New Jersey,(201) 271-1200,,saber32@excite.com,ADD,https://www.homedepot.com/l/Secaucus/NJ/Secaucus/07094/910%3Femt%3DMSGMBGoogleMaps,,KEEP,https://www.facebook.com/homedepot,,https://www.linkedin.com/company/home-depot-at-home-services,https://twitter.com/HomeDepot
UPDATE,9bfc57b5-23f8-43ad-92a2-35d44068a63e,Davis Portable Toilets,Sarasota,Florida,(239) 456-3959,,kdavis@davisportabletoilets.com,ADD,https://davisportabletoilets.com/,,KEEP,,,,
UPDATE,9c31f56e-a670-4c6a-b289-92ac8a716a8f,Mr. Clean Portable Toilets,Springfield,Ohio,(937) 284-3382,,sherrystorts@yahoo.com,ADD,https://www.mrcleanportabletoilets.com/,,KEEP,,,,
UPDATE,9c705ca1-f6a3-4ac5-b9ee-d3cccebcf661,Central Lakes Luxury Restroom Rentals LLC,Staples,Minnesota,(218) 296-1698,,centrallakesrentals@hotmail.com,ADD,,http://centrallakesrentals.com/,ADD,https://www.facebook.com/CentralLakesRestrooms,,,
UPDATE,9d24fab9-b38a-4fbf-b5f0-9c27c10ed72d,Talquin Portable,Midway,Florida,(850) 574-2786,,bill@talquinportablerestrooms.com,ADD,https://talquinportablerestrooms.com/,,KEEP,https://www.facebook.com/61378043053,,http://www.linkedin.com/company/8913751,
SKIP,9d53eaf1-a579-4338-a284-5a2d18ec8fd4,Porta Potty Rental Tampa,Tampa,Florida,(813) 742-8833,,,NONE,https://myportapottyrentaltampa.com/,,KEEP,,,,
UPDATE,9d7b77d2-990e-4c2d-a46d-167bbebc6900,Bulldog Restroom Rentals,Middle Island,New York,(631) 615-0562,,sales@bulldogrestroomrentals.com,ADD,,http://bulldogrestroomrentals.com/,ADD,https://www.facebook.com/bulldogrestroomrentals/,,,
UPDATE,9d89f55f-3ba8-4e2d-af59-1cc0d334f0f2,Alpine Portable Toilets & Fencing Services,Oroville,California,(530) 712-9230,,thomas@alpinetoilets.com,ADD,,https://www.alpinetoilets.com/,ADD,,,,
UPDATE,9e0a869a-7671-44a6-98da-15574eda1ea9,Baker Septic & Precast,Sebring,Florida,(863) 385-0917,,bakersepticprecast@gmail.com,ADD,https://bakersepticprecast.com/,,KEEP,https://www.facebook.com/344154216363212,,,
UPDATE,9e0c49b9-770f-4968-8b49-c8fa67792acd,Potter's Potties LLC,Warrenton,Virginia,(703) 754-9682,,office@potterspotties.com,ADD,,http://potterspotties.com/,ADD,https://www.facebook.com/potterspotties/,https://www.instagram.com/potterspottiesllc,,
UPDATE,9e3008df-4a77-4567-9a24-484241fd0173,Tri-State Restroom Trailer,Spring City,Pennsylvania,(610) 996-3064,,tristaterestroomtrailer@yahoo.com,ADD,https://tri-staterestroomtrailer.com/,,KEEP,,,,
UPDATE,9e6f0f43-c06d-4053-b4ed-b54063f1dd77,Georgia Container and Portable Toilets of Georgia,Carrollton,Georgia,(770) 215-0170,,s.wright@georgiacontainer.com,ADD,,https://georgiacontainer.com/%3Futm_source%3Dgoogle%26utm_medium%3Dorganic%26utm_campaign%3Dgbp,ADD,https://facebook.com/georgiacontainerinc,,,
UPDATE,9eeb3a73-7efe-4fe8-94a3-5825b2a4ee27,Rocky Top Restrooms,Knoxville,Tennessee,(865) 630-2190,,jace@rockytoprestrooms.com,ADD,http://www.rockytoprestrooms.com/,,KEEP,,,,
UPDATE,9f5ad754-7da8-43f2-b28f-7ff2c5aafe1b,A-Relief Services Inc,Bellevue,Nebraska,(402) 291-0220,,info@a-relief.com,ADD,,https://a-relief.com/,ADD,,,,
UPDATE,9f5e21fa-6e0a-45f8-8394-584f139e47da,Porta Potty Dogs,Savannah,Georgia,(888) 526-1973,,info@portapottydogs.com,ADD,,https://www.portapottydogs.com/,ADD,https://www.facebook.com/PortaPottyDogs.US,https://www.instagram.com/portapottydogs,https://www.linkedin.com/company/porta-potty-dogs,https://twitter.com/PortaPottyDogs_
UPDATE,9fbdcb3f-6437-4f9b-bfbe-66932677bb47,Mr. Biffy LLC,South Range,Wisconsin,(715) 395-4000,,ccoroon@mrbiffy.com,ADD,,https://mrbiffy.com/,ADD,https://facebook.com/Mr-Biffy-LLC-1730382147243585,,,https://twitter.com/MrBiffyLLC
UPDATE,9fcecc7e-d5b6-47bf-8b19-ecf7d86b3a82,Ameri-Can Engineering,Argos,Indiana,(574) 892-5151,,keegan@ameri-can.com,ADD,,http://www.ameri-can.com/,ADD,http://www.facebook.com/Ameri-Can-Engineering-106419189396722/,,https://www.linkedin.com/company/ameri-can-engineering,https://platform.twitter.com/widgets
UPDATE,a018cabb-5259-475d-be53-ec07ee37a1c8,J W Enterprises,Ventura,California,(800) 350-3331,,ccahill@jwenterprises.com,ADD,https://jwenterprises.com/,,KEEP,https://www.facebook.com/pages/JW-Enterprises/496249780435115,https://www.instagram.com/jwenterprisesvta,https://www.linkedin.com/company/jw-enterprise,https://twitter.com/JW_Enterprises
SKIP,a030190f-5ff1-4c88-911f-84a119e87f4d,Pots on the Spot Portable Restrooms,LaFayette,Georgia,(706) 638-8914,filler@godaddy.com,,KEEP,https://mitchellsplumbingga.com/,,KEEP,https://www.facebook.com/112146105071403,,,https://twitter.com/intent/
UPDATE,a0b12832-6a8c-44b9-aa28-3b1bf2f032e1,"Platinum Pro Portables, Inc.",Sun Valley,California,(661) 977-1973,,info@platinumproportables.com,ADD,,https://platinumproportables.com/%3Futm_source%3Dgoogle%26utm_medium%3Dorganic%26utm_campaign%3Dgmb-listing,ADD,https://www.facebook.com/PlatinumProPortables,https://www.instagram.com/platinum_pro_portables,https://www.linkedin.com/company/platinum-pro-portables/,https://twitter.com/PortablesPro
UPDATE,a0c525d1-25aa-4690-a986-bd9e1fad4839,Porta Potty To Go,West Palm Beach,Florida,(561) 270-4223,,info@portapottytogo.com,ADD,,https://www.portapottytogo.com/,ADD,http://www.facebook.com/portapottytogo,,https://www.linkedin.com/company/porta-potty-togo,
SKIP,a0f38782-721d-4b26-8cfd-94fb8f3d20f5,A & J Portables,Santa Fe Springs,California,(562) 299-8582,info@ajportabletoilets.com,,KEEP,https://www.ajportabletoilets.com/,,KEEP,,,https://www.linkedin.com/company/a-%26-j-portable-restroom-rentals,
UPDATE,a10e424e-9cda-43ee-9411-50cc99d93e93,A-1 Sanitation LLC,Brazil,Indiana,(812) 466-2152,,james@a1sanitation.com,ADD,,https://www.a-1sanitationllc.com/,ADD,,,,
UPDATE,a1815910-807d-4afb-9a37-fd5c20cb9ee9,Teddy's Portable Toilet Solutions,Port St. Lucie,Florida,(772) 251-3790,,info@teddyspottysolutions.com,ADD,,https://www.teddyspottysolutions.com/,ADD,https://www.facebook.com/teddyspottysolutions,,,
UPDATE,a1aa778f-ee51-409b-8490-e87550ed9c0a,John Smith Septic & Grease Trap Services,Lake Havasu City,Arizona,(928) 855-8001,,contact@havasusepticandgrease.com,ADD,,http://havasusepticandgrease.com/,ADD,,,,
UPDATE,a1cea3fe-e5f4-4065-831d-18e191cbab3c,Classy Pottys,Isle La Motte,Vermont,(802) 928-3572,,classypotty@yahoo.com,ADD,,https://www.classypotty.com/,ADD,,,,
UPDATE,a2d5cef9-112b-4440-9a70-eae3b882d7c0,Royal Flush Toilets,Annapolis,Maryland,(410) 881-6848,,cparr@royalflushtoilets.com,ADD,,https://www.royalflushtoilets.com/,ADD,,,,
UPDATE,a347bf1e-1a54-4531-a596-7eb6406b6633,Mr Bob's Portable Toilets,Southampton Township,New Jersey,(609) 859-3629,,customerservice@mrbobs.com,ADD,,https://www.mrbobs.com/,ADD,https://www.facebook.com/Bob-Drayton-Inc-1956454044610257/,,https://www.linkedin.com/company/bob-drayton-inc,
UPDATE,a3f06cb8-c00e-482e-a800-17ba1cfdc977,Outback Portable Toilets,Brookhaven,New York,(631) 207-7689,,info@outbackpts.com,ADD,,http://www.outbackpts.com/,ADD,https://www.facebook.com/OutbackPTS,https://www.instagram.com/outbackpts,,
UPDATE,a4ea0a8a-2521-4370-bf1f-0e648d18a3f8,Paradise Pumpers & Potties,Scottsbluff,Nebraska,(308) 635-9274,,contact@sansoxygen.com,ADD,,https://paradisepumpers.com/,ADD,https://www.facebook.com/102504601859598,https://www.instagram.com/paradisepumpers,,
UPDATE,a51b4375-c875-4843-9941-d22e8c83ce29,Ace Hardware-Union City,Union City,New Jersey,(201) 348-8400,,stevee@denniscoinc.com,ADD,http://www.acehardware.com/store-details/17309%3Futm_source%3Dgoogle%26utm_medium%3Dlocal%26utm_campaign%3Dlocalmaps%26utm_content%3D17309,,KEEP,http://www.facebook.com/acehardware,http://instagram.com/billsace,https://www.linkedin.com/company/ace-home-repair,http://www.x.com/acehardware
UPDATE,a52cd5c3-6203-4ab5-ac30-309c1998c145,"Litman Enterprises, LLC",Sardis,Ohio,(740) 483-9049,,litmanenterprises@live.com,ADD,,https://www.litmanenterprises.com/,ADD,,,,
UPDATE,a56252f2-f2b5-4925-afbf-173c905b0a5b,Reliable Portable Bathrooms,Phoenix,Arizona,(602) 601-2222,,info@rpbaz.com,ADD,https://www.reliableportablebathrooms.com/%3Futm_source%3Dgbp%26utm_medium%3Dorganic%26utm_campaign%3Dlocal,,KEEP,https://www.facebook.com/reliableportablebathrooms,https://www.instagram.com/pinkbathroomrentals,https://www.linkedin.com/company/reliable-portable-bathrooms,https://twitter.com/PinkBathrooms
UPDATE,a5a017d5-49fa-494b-8182-c8eaafc4a26f,SOS Potty's,Sykesville,Maryland,(410) 795-7140,,info@sospottys.com,ADD,,https://www.sospottys.com/,ADD,,,,
UPDATE,a5f046e8-0509-4704-a402-57c62739161b,Pilgrim Luxury Restrooms,Plymouth,Massachusetts,(774) 608-7944,,info@pilgrimluxuryrestrooms.com,ADD,,https://pilgrimluxuryrestrooms.com/,ADD,,https://www.instagram.com/pilgrim_luxury_restrooms,https://www.linkedin.com/company/pilgrim-luxury-restrooms/,https://twitter.com/LuxuryPilgrim
UPDATE,a647faec-5e10-4740-bab3-f0b176d1f1ee,Clean Portable Toilet Rental Riverside,Riverside,California,(951) 228-7084,,admin@cleanportabletoiletriversideexperts.com,ADD,,https://cleanportabletoiletriversideexperts.com/,ADD,,,,
UPDATE,a6df8adf-361e-46df-8c68-6a30ccdd82a4,East Tennessee Portables,Knoxville,Tennessee,(865) 522-9958,,larry@etp-llc.com,ADD,https://www.etp-llc.com/%3Futm_campaign%3Dgbp%26utm_medium%3Dorganic%26utm_source%3Dgoogle,,KEEP,https://www.facebook.com/EastTNPortables/,,,
UPDATE,a6ea2d3a-3d41-41fb-95e0-56b206fb06de,EZ. Breezy Bins,Florence,Alabama,(256) 856-4759,,,NONE,,https://ezbreezybins.com/,ADD,,,,
UPDATE,a71f4161-6843-47f1-b8cc-018ccdd98cee,Eagle Site Services,Nashville,Tennessee,(615) 879-9640,,sales@eaglesiteservice.com,ADD,https://eaglesiteservice.com/,,KEEP,http://facebook.com/squarespace,http://instagram.com/squarespace,,
SKIP,a7207ed5-c3b5-4a59-af54-99718a5208b7,Mobile Thrones Restroom Trailers,Durham,North Carolina,(919) 886-6890,info@mobilethronesusa.com,,KEEP,https://mobilethronesusa.com/,,KEEP,https://www.facebook.com/mobilethronesnc/,https://www.instagram.com/mobilethronesnc,,
UPDATE,a7abd00b-7b81-47a7-961a-729ba92b1ce0,LittleJohn Portable Toilets,Greenville,South Carolina,(864) 900-0032,,qdexxqdexxmail@4sale4u.net,ADD,,https://littlejohntoilets.com/%3Futm_source%3Dgoogle%26utm_medium%3Dorganic%26utm_campaign%3Dgbp,ADD,,,,
UPDATE,a7defde8-e18b-404d-a76d-372c9fc50b2b,Go Smart Portables - Porta Potty Rental,Kinnelon,New Jersey,(973) 863-2363,,hector@gosmartportables.com,ADD,,https://gosmartportables.com/,ADD,,,,
UPDATE,a7f04a01-852c-4470-bdbb-50e57cd9b0f2,McMichael Waste Services,Glencoe,Alabama,(888) 438-6118,,mwsoffice@mwswaste.com,ADD,,http://www.mwswaste.com/%3Futm_source%3Dgoogle%26utm_medium%3Dorganic%26utm_campaign%3Dgbp_listing,ADD,,,,
SKIP,a7f08ec4-9757-47e1-8259-7e4ccad2815f,Fresh Flow Restrooms,Queen Creek,Arizona,(480) 547-7230,freshflowrestrooms@gmail.com,,KEEP,https://www.freshflowrestrooms.com/,,KEEP,https://www.facebook.com/freshflowllc,https://www.instagram.com/freshflowqc,,
UPDATE,a7f9aa63-deb3-4f29-b064-5ec875c841b7,Cen-Tex Outhouses,Goldthwaite,Texas,(325) 451-0720,,contact@centexouthouses.com,ADD,https://www.centexouthouses.com/,,KEEP,,,,
UPDATE,a8117d73-de7c-4cc6-ac90-e89736878bf6,A Sani-Can,Greensboro,North Carolina,(336) 375-5001,,chuffman@asanican.com,ADD,https://asanican.com/%3Futm_source%3Dgoogle%26utm_medium%3Dorganic%26utm_campaign%3Dgbp,,KEEP,https://www.facebook.com/529730837066935,,https://www.linkedin.com/company/a-sani-can-service-inc-,
SKIP,a818a928-f6b4-49d1-a8c9-2c5df7f838a2,"Ben Toilet Rentals, Inc.",Gridley,California,(800) 767-8276,bens@bentoiletrentals.com,,KEEP,https://www.bentoiletrentals.com/,,KEEP,,,,
UPDATE,a82fa860-9cbe-49a4-9967-20e84d50ae59,SOS TOILETS LLC,Pacoima,California,(661) 888-8801,,info@sostoilet.com,ADD,https://sostoilet.com/,,KEEP,https://www.facebook.com/sanitaryrentalsolutions,https://www.instagram.com/sostoilets,,https://twitter.com/sostoilet
SKIP,a872dba3-a478-4301-a22a-73d54e62384c,Halftime Rentals,Charlotte,North Carolina,(980) 410-8463,info@halftimerentals.com,,KEEP,https://www.halftimerentals.com/,,KEEP,,https://www.instagram.com/halftimerentals,https://www.linkedin.com/company/halftime-rentals/,
UPDATE,a8b29d37-2976-4f64-b22f-1bf1670a3b40,Pedro's Potties LLC,Fitchburg,Massachusetts,(978) 400-8525,,pedrospotties@outlook.com,ADD,,https://pedrospotties.com/contact-us/,ADD,,,,
UPDATE,a8c79625-ced0-4269-873c-b04b2ce3c85d,Blue Box Portable Sanitation,Plant City,Florida,(813) 258-3269,,support@blueboxplumbing.com,ADD,https://813bluebox.com/,,KEEP,,,,
UPDATE,a8f90d94-cf7c-48c9-a4d4-75649d620c97,Wasted* PBC,Abington,Massachusetts,(508) 978-2762,,info@wasted.earth,ADD,,https://wasted.earth/boston/%3Futm_campaign%3Dgmb,ADD,https://www.facebook.com/p/,https://www.instagram.com/wasted_pbc,https://www.linkedin.com/company/71296228/,
UPDATE,a91351f9-b098-4cca-a07f-f4c27db8cbfb,Scotties Potties,Quincy,Illinois,(217) 224-1932,,d.larson@scottiespotties.com,ADD,https://scottiespotties.com/,,KEEP,https://www.facebook.com/1scottiespotties/,,,
UPDATE,a958ad3b-97ec-4207-8104-1b85efbf6153,Western Colorado Waste,Whitewater,Colorado,(970) 255-1342,,,NONE,,https://usabiznova.top/details/western-colorado-waste-ChIJYf3,ADD,,,,
UPDATE,a9a45376-4de2-4b05-83b5-96466401a106,AdaptHealth - Missouri LLC,Springfield,Missouri,(417) 955-4544,,chamblissb@adapthealth.com,ADD,,https://adapthealth.com/locations/,ADD,http://www.facebook.com/rsirespiratory,https://www.instagram.com/adapthealthco,https://www.linkedin.com/company/adapthealth---missouri-llc,http://www.twitter.com/corerespiratory
UPDATE,a9b1fc4e-018d-46d7-9fb8-04ea1e67557b,Jax Portables,Jacksonville,Florida,(904) 536-8159,,david@jaxportables.com,ADD,,https://jaxportables.com/,ADD,,,,
UPDATE,a9b39bd9-5818-40fa-b547-70218f9dd843,Barnes & Noble,New York,New York,(212) 253-0810,,info@stores.barnesandnoble.com,ADD,https://stores.barnesandnoble.com/store/2675,,KEEP,https://www.facebook.com/BNCountryClubPlaza,https://www.instagram.com/bnplazakc,,https://twitter.com/BNPlazaKC
UPDATE,a9ef3ec4-ddd8-49b0-ac1a-c804418d22ef,Rent A Unit NY Inc.,Brooklyn,New York,(718) 643-1313,,ibiinc@thejnet.com,ADD,https://rentaunitny.com/,,KEEP,,,http://www.linkedin.com/company/4494166,
UPDATE,aa0fafe5-b86d-4ec9-9f38-61b82828305f,Holmes Services,Smithville,Tennessee,(615) 229-5483,,sales@holmesservicestn.com,ADD,http://www.holmesservicestn.com/,,KEEP,https://facebook.com/HolmesServicesTN,,,https://twitter.com/intent/
UPDATE,aa89da56-1101-4443-b7d7-0727bf4c37f2,Potty Man Portables,Thomasville,Georgia,(229) 224-0404,,r.hopkins@pottyman.net,ADD,https://www.pottyman.net/,,KEEP,,,,
UPDATE,ab616cd4-a958-430b-baa6-0b690f4c1f97,The Fancy Flush,Austin,Texas,(512) 566-9898,,cid@thefancyflush.com,ADD,http://www.thefancyflush.com/,,KEEP,https://www.facebook.com/thefancyflushtx/,,,
UPDATE,ab798b2e-f33e-4bb6-a213-56c8c2117b37,Good To Go Portables and Sanitation,Tabernash,Colorado,(970) 531-4357,,goodtogoportables@gmail.com,ADD,http://www.goodtogoportables.com/,,KEEP,,,,
UPDATE,ac10a4dd-08a7-4f65-ae30-649226ab5813,Cal Porta Potty Rentals,San Bernardino,California,(909) 487-2511,,patrickruhland3@gmail.com,ADD,https://portapottyrentalsca.com/,,KEEP,,,,
UPDATE,acfeeb7a-0275-4cd2-8c2b-eab51d309e97,Schoenfelder Portables,Mitchell,South Dakota,(605) 770-1756,,,NONE,,https://www.schoenfelderportables.com/,ADD,,,,
UPDATE,ad4fb772-0044-43a5-a841-6487dfda73f5,Port A Jon Inc,Texarkana,Texas,(903) 793-0076,,john@port-a-jon.com,ADD,,http://www.port-a-jon.com/,ADD,http://www.facebook.com/portajoninc/,,,
UPDATE,adcb41ab-a23b-4df2-9c45-606bc4e07666,Kohl's,Jersey City,New Jersey,(201) 656-5420,,,NONE,,https://www.kohls.com/stores/nj/jerseycity-1045.shtml%3Futm_source%3Dgoogle%26utm_medium%3Dorganic%26utm_campaign%3Dlocal,ADD,https://www.facebook.com/kohls,https://www.instagram.com/kohls,https://www.linkedin.com/company/kohl%E2%80%99s,https://twitter.com/kohls
UPDATE,adf25404-9d9f-49c8-9b32-2da811bbd155,Marshalls,Edgewater,New Jersey,(201) 945-5671,,t.davis@marshallsonline.com,ADD,https://www.marshalls.com/,,KEEP,https://www.facebook.com/216354935459597,,https://www.linkedin.com/company/marshalls-llc,
UPDATE,aecc049d-bb18-4206-aef9-81f4f3733cd9,Convenient Disposal & Sanitation,Fall River,Massachusetts,(774) 930-8039,,convenient.disposal.san@gmail.com,ADD,,http://convenientdisposalsanitation.com/,ADD,https://www.facebook.com/convenientdisposal/,https://www.instagram.com/convenientdisposal,,
UPDATE,aef69ac5-3ad1-420a-bde1-69342246e32c,EnviroFlush,Naugatuck,Connecticut,(860) 775-4100,,info@enviroflush.com,ADD,,https://enviroflush.com/,ADD,https://www.facebook.com/EnviroFlush,https://www.instagram.com/enviroflush,,
UPDATE,af97b656-1919-4f06-b804-5ddc23ba4145,Arizona Restroom Trailers,Prescott,Arizona,(928) 426-9599,,arizonarestroomtrailers@gmail.com,ADD,https://arizonarestroomtrailer.com/,,KEEP,,http://www.instagram.com/arizonarestroomtrailers,,
UPDATE,afeee7ea-05d8-42fa-acb9-0e4ad131ef25,FreshNest Rentals,Sparks,Nevada,(775) 243-7188,,,NONE,,https://freshnestrentals.online/,ADD,,,,
UPDATE,b038facd-325d-4bc9-bd9a-71377e284afb,"Brown's Septic Service, Inc. - Del Norte, CO",Del Norte,Colorado,(719) 657-3022,,browns.septic@outlook.com,ADD,http://www.browns-septic.com/,,KEEP,https://www.facebook.com/445030312179154,,,
UPDATE,b0732f96-6a65-4695-9983-71f52d6f1c7a,Pit Stop Portables,Chattanooga,Tennessee,(423) 894-9994,,charlie@pitstopportables.net,ADD,https://pitstopportables.net/,,KEEP,,,http://linkedin.com/company/pit-stop-portables,
SKIP,b08069ca-e1e2-4740-b13d-308d60534f5d,"JP""s Portable Restroom LLC",Colorado Springs,Colorado,(719) 494-4203,contact@sansoxygen.com,,KEEP,https://jpsportablerestroom.com/,,KEEP,https://www.facebook.com/jpsportablerestroom,,,
SKIP,b0cccc13-ea25-4576-a82e-9e14e2db494c,M & D Shapiro True Value Hardware,New York,New York,(212) 256-0050,,,NONE,http://shapirohardware.com/,,KEEP,,,,
UPDATE,b0ef7129-10a5-4255-9ba7-97936c1db7ae,Bishop Sanitation - Septic Service and Portable Toilet Rentals in the Gorge,The Dalles,Oregon,(509) 773-4707,,bruce@bishopholdings.biz,ADD,,http://bishopsanitation.com/,ADD,https://www.facebook.com/bishopsanitation,,https://www.linkedin.com/company/bishop-companies-inc,https://twitter.com/Bishop_Clean
UPDATE,b0fc2294-e0c3-4250-90f3-451c2ae592c9,Hicks Portable Toilets & Dumpster Rental,Rainsville,Alabama,(256) 717-5677,,hicksdumpsters@gmail.com,ADD,,https://hicksdumpsters.com/,ADD,,,,
UPDATE,b1167411-7683-40b8-9809-02226657339c,Canyon View Dumpsters,West Haven,Utah,(801) 516-3825,,info@canyonviewdumpsters.com,ADD,,https://www.canyonviewdumpsters.com/,ADD,https://www.facebook.com/CanyonViewDumpsters,,,https://twitter.com/@CanyonviewDump
SKIP,b239b382-8320-4dc7-b860-754e1c873044,Atteberry Portable Toilets & Septic LLC.,Show Low,Arizona,(928) 242-2802,atteberry@frontier.com,,KEEP,https://atteberryindustries.com/,,KEEP,https://www.facebook.com/AtteberryRentals,,,https://twitter.com/intent/
UPDATE,b24d2b7e-8d3d-4881-b37e-1fdc1a6e8a9b,Napa Valley Luxury Restrooms,St Helena,California,(707) 815-3608,,info@napavalleyluxuryrestrooms.com,ADD,https://napavalleyluxuryrestrooms.com/,,KEEP,https://www.facebook.com/NapaValleyLuxuryRestooms/,http://www.instagram.com/napavalleyluxuryrestrooms,,
SKIP,b2b61551-c46f-4fe0-9258-5f58062f34c2,Premier Porta Potty,Chester,Pennsylvania,(215) 857-6889,eben@eyebytes.com,,KEEP,https://thepremierportapotty.com/,,KEEP,,,,
UPDATE,b360b75d-6f3f-4962-adb2-c8d615753b01,"Waterless Toilets, Inc. - Dry-Flush",Branford,Connecticut,(203) 248-4440,,sales@dry-flush.com,ADD,,https://dry-flush.com/,ADD,https://www.facebook.com/Laveo-By-DryFlush-101743512396772,https://www.instagram.com/laveobydryflush1231,,
SKIP,b3f2b822-6550-4bb0-9841-5dcb26bb68ae,ENC Restroom Rentals,Wilmington,North Carolina,(910) 538-2051,sales@encrestroomrentals.com,,KEEP,https://encrestroomrentals.com/,,KEEP,,,,
UPDATE,b568a024-c18c-4df7-8807-b2deb48ff722,Gotta Go Site Service Rentals,Jackson,Mississippi,(601) 708-9599,,info@gottagorentals.com,ADD,,https://gottagorentals.com/%3Futm_source%3Dgoogle%26utm_medium%3Dorganic%26utm_campaign%3Dgbp,ADD,https://facebook.com/349693605055347,https://instagram.com/gottagorentals,,http://twitter.com/intent/
SKIP,b56ab0ee-d7e8-4f89-95a6-480f9853a507,Sammys Septic Service,Waycross,Georgia,(912) 288-3631,,,NONE,https://sammyssepticservice.com/,,KEEP,,,,
UPDATE,b5e23c51-9b9e-41e6-9f83-f3713c9e5fbb,East Alabama Portables,Anniston,Alabama,(256) 236-6830,,ealport1@aol.com,ADD,,http://www.eastalabamaportables.com/,ADD,,,http://linkedin.com/company/east-alabama-portables,
SKIP,b5ef0f02-1669-40ab-b346-17d83a255bc8,Alpine Roll-Off Services,Rifle,Colorado,(970) 640-7058,marketing@alpinerolloffs.com,,KEEP,https://www.alpinerolloffs.com/,,KEEP,,,,
UPDATE,b67769c1-6733-4d34-99ed-00a00ba337ed,Dumpster Guys Porta Potty and Dumpster Rental Tucson,Tucson,Arizona,(520) 534-1000,,dumpsterguystucsonaz@gmail.com,ADD,https://dumpsterguys.com/,,KEEP,,,,
UPDATE,b72f1a9a-e16c-4bed-bb5f-99c9c4056e4f,BJ's Wholesale Club,North Bergen,New Jersey,(201) 442-3471,,lcoffee@bjsrestaurants.com,ADD,https://www.bjs.com/cl/north-bergen/0190/%3Ftrc%3Dlocl%257Cggmb%257Cweb%257Cxlob%257Cxlob%257Clocdist%257C0190%257Cstore%257C20240816,,KEEP,http://www.facebook.com/bjswholesaleclub,,https://www.linkedin.com/company/bj-s-services,http://www.twitter.com/bjswholesale
UPDATE,b760aef0-b6b8-4802-bce4-5fd17b11d828,Got To Go Solutions,Chico,Texas,(940) 644-5500,,info@gtgsi.com,ADD,https://www.gtgsi.com/,,KEEP,http://www.facebook.com/gottogosolutions,,http://www.linkedin.com/company/got-to-go-inc,
UPDATE,b867b949-65a3-4c3d-87a1-2f3b152f8cff,Complete Comfort Portables,Canton,Georgia,(404) 720-1737,,wweeiihhuuaanngg@gmail.com,ADD,https://completecomfortportables.com/,,KEEP,,,,
UPDATE,b8d57c21-07c9-412b-90c1-ce684aa05ec3,PortaPros,Nampa,Idaho,(208) 467-0089,,info@portapros.com,ADD,https://www.portapros.com/,,KEEP,https://www.facebook.com/Portaprosidaho/,,http://www.linkedin.com/company/3035677,https://twitter.com/portaprosidaho
UPDATE,b8f0974e-e530-4574-ad30-30418fc1b9ee,P&P Portable Sanitation LLC,Athol,Idaho,(208) 999-3397,,roman@willowelectric.com,ADD,,http://www.pandpportable.com/,ADD,,,,
SKIP,b92f623e-1cda-46ed-8099-58991079b522,Action Sanitary,Lower Lake,California,(707) 994-5068,actionsanitary@gmail.com,,KEEP,https://www.actionsanitaryinc.com/,,KEEP,https://www.facebook.com/ActionSanitary/,,,
UPDATE,b94f5e1d-3341-4319-a81b-f593d14ffb72,Jobsite Johns LLC,Scottsburg,Indiana,(812) 820-6489,,dave@lab6.com,ADD,,http://jobsitejohnsllc.com/,ADD,,,,
SKIP,b981c17e-5056-4a19-ad0b-d415ed0ef88e,Country Johns,Greeley,Colorado,(970) 346-0479,605a7baede844d278b89dc95ae0a9123@sentry-next.wixpress.com,,KEEP,https://www.country-johns.com/,,KEEP,,,,
SKIP,b9e59bd6-4b9a-4033-85f8-903f8340ace8,Best Buy,New York,New York,(212) 808-0309,,,NONE,https://stores.bestbuy.com/ny/new-york/531-5th-ave-1028.html/%3Fref%3DNS%26loc%3Dns100,,KEEP,https://www.facebook.com/702093596557398,,,
UPDATE,badaa10d-4519-4902-8e73-e9d9846f66f0,"Tri-Star Portable Restrooms, LLC",Lenoir City,Tennessee,(423) 436-9219,,tylermcmahan41@yahoo.com,ADD,,https://tristarportapottyrentals.com/%3Futm_source%3DGoogle%2BBusiness%2BProfile%26utm_medium%3DGBP%26utm_campaign%3DGBP%2BWebsite%2BButton,ADD,,,,
SKIP,bb809fc8-3a7c-42e5-a31b-183e817009a5,Jeannine Rental Services,Worcester,Massachusetts,(774) 233-4759,,,NONE,https://jeanninerentalservices.com/,,KEEP,,,,
UPDATE,bc0931c9-c6b0-4174-a747-b93bd3050e5e,Portable Sink Depot,Winter Garden,Florida,(800) 531-5756,,info@portablesinkdepot.com,ADD,,http://www.portablesinkdepot.com/,ADD,,,,https://twitter.com/depotsink
UPDATE,bc336b67-91ca-4399-8f01-c147443db908,Five Below,New York,New York,(332) 208-6773,,andersonj24@yahoo.com,ADD,"https://locations.fivebelow.com/%3Fq%3D40.757673,-73.992449%26qp%3DNew%2520York%2520City,%2520New%2520York%252010036,%2520United%2520States%26l%3Den",,KEEP,https://www.facebook.com/102314682285684,https://www.instagram.com/fivebelow,https://www.linkedin.com/company/five-below,https://twitter.com/fivebelow/
UPDATE,bd051d55-a51d-430e-9f26-7590fab56eca,Bio-Clean Restrooms,Laurel,Maryland,(301) 483-9292,,info@biocleanrestrooms.com,ADD,,http://www.biocleanrestrooms.com/,ADD,,,,
UPDATE,bd95ddfb-302b-4ab0-819c-78136eb9d054,Mortell Industries,Washington,District Of Columbia,(202) 246-4248,,jmorton@mortell-industries.com,ADD,,https://www.mortellindustries.com/contact/,ADD,,,,
UPDATE,bdea0948-72a2-4297-8e63-a4e2f38f236c,Stone Brick Porta Potty,San Francisco,California,(415) 873-2477,,,NONE,,https://stonebrickportapotty.com/,ADD,,,,
UPDATE,be0b52f8-2074-41da-b16c-19089f245ca7,Clean Delaware,Lewes,Delaware,(302) 684-4221,,gerry@cleandelaware.com,ADD,,http://www.cleandelaware.com/,ADD,http://www.facebook.com/pages/,,https://www.linkedin.com/company/clean-delaware-inc,
UPDATE,beac7033-6009-4a24-b2f9-121eb5bcb89b,Porta Potty Rentals of Colorado Springs,Colorado Springs,Colorado,(719) 662-3406,,info@proportapottyrental.com,ADD,https://proportapottyrental.com/locations/coloradosprings-co,,KEEP,,,,
UPDATE,bebe38e2-b995-4141-988d-cf75bcb168d3,Clean Flush Porta Potty Rental,Houston,Texas,(832) 789-3484,,help@cleanflushportapotty.com,ADD,https://cleanflushportapotty.com/,,KEEP,,,,
SKIP,beed87ab-106c-4b31-8ad0-d1ab2b30a6a9,Clean Space Portable Restrooms,Forest Park,Georgia,(706) 566-8126,bookings@cleanspacepr.com,,KEEP,https://www.cleanspacepr.com/,,KEEP,https://www.facebook.com/Clean-Space-Portable-Restrooms-104011455384575,https://www.instagram.com/cleanspaceportablerestrooms,,
UPDATE,bf4329c5-7ef6-46fc-8c1c-6d07fd1ed8cc,PremierEnt. potties,Ansonia,Connecticut,(203) 751-5438,,,NONE,,https://premierentpotties.com/,ADD,,,,
UPDATE,bf7c1b1a-38d0-4c90-8ce2-07969a267b67,Rocky Mountain Portable Toilets,Boise,Idaho,(208) 789-0395,,rockymountainportables@gmail.com,ADD,,https://www.rmptoilets.com/,ADD,https://www.facebook.com/RMPBoise/,"https://www.instagram.com/&h=AT20jCAY4KeFsy14G6rKlwShou2zaBZrJe2gmyWsJkqb3Fg1Kf5RUqmWH5XNPsojj7D0_iozSkLBl2xGQIfzar7-gJGJ8tKAeBNRuQORY6c5pvDUeyZEvzRnxUpRZ8kdzxcTGJ69kqbU&__tn__=,P-R&c[0]=AT0YbyDRk6YSmEinFvzdFoNYFoKUXB1lzXT1JzMYjYklAZftVBHEiPKWJrG8MNIc71QTzZ10InnRPUFDQKhpJNK6Pa0ALm8i3cI60vlY2d0elb88c6NhJtCvKsJNDB6IQElhEDYIhtjLVlZ_zYvtcB1Bb9d64yqJPN2dUm26Mv9tXIAZmw5dkGa_ZbGoiV1vUvOa54uoabLXe64hDV7-9CRNxo-bzoCDTEo",,https://twitter.com/Rmptoilets
UPDATE,bf7d748a-51e8-40f2-acbf-6ade8181ad63,Foss Enterprises Portable Toilets & Septic Tank Service,Solon,Maine,(207) 643-2068,,fossenterprises@tds.net,ADD,,http://fossent.com/,ADD,https://www.facebook.com/Foss-Enterprises-499341640081351/,,,
UPDATE,bf9be24c-9c65-4025-aac1-6b4f541d4433,Turdbusters Septic and Plumbing,Waverly Hall,Georgia,(706) 577-4153,,turdbustersseptic@gmail.com,ADD,,https://www.turdbusting.com/,ADD,,,,
UPDATE,bfe9ae0a-e1db-4db2-865a-54f75609cab1,John's Sanitation Inc,South Lyon,Michigan,(248) 437-0841,,info@johns-sanitation.com,ADD,,https://johnssanitation.com/%3Futm_source%3Dgoogle%26utm_medium%3Dorganic%26utm_campaign%3Dgbp_website_link,ADD,https://www.facebook.com/johnssanitation/,,https://www.linkedin.com/company/john,
SKIP,c0674445-158f-4bfb-984a-61cf45279e1f,Save The Day Solutions,Columbia,Tennessee,(931) 688-0568,,,NONE,https://www.savethedaysolutions.com/,,KEEP,,,,
UPDATE,c0d66c3b-8339-4007-a55e-58f085a1b649,Suburban Sanitation Service & Portable Restrooms,Canton,Connecticut,(860) 673-3078,,nbishop@subsanserv.com,ADD,https://subsanserv.com/,,KEEP,https://www.facebook.com/SubSanServ,,,
UPDATE,c1cecb0e-d795-48c0-bc33-2f5938909d67,Ace Luxury Rentals,Modesto,California,(209) 577-1479,,a1septic@acecorpusa.com,ADD,,https://www.a1septic.org/portable-restroom-rentals.php,ADD,https://www.facebook.com/A-1-Septic-AAA-Backhoe-Services-61577836584849/,https://www.instagram.com/a1_septic_services,,
UPDATE,c2b0a18e-0305-4ad5-b9fe-07497732795b,Captain Commodes,Sturgeon Bay,Wisconsin,(920) 746-9651,,info@captaincommodes.com,ADD,,http://www.captaincommodes.com/,ADD,,,,https://twitter.com/captaincommode0
UPDATE,c2f96f41-3d91-4a82-9ba7-55540d214cb9,Portable Porcelain,Fergus Falls,Minnesota,(218) 282-1719,,portableporcelain@gmail.com,ADD,,http://www.portableporcelain.com/,ADD,https://www.facebook.com/pages/,https://www.instagram.com/portableporcelain,,
UPDATE,c367c218-2df5-413c-a7fc-a3d51eac2eb1,Waste Now Porta Potty & Dumpster Rental Louisville,Louisville,Kentucky,(502) 684-2252,,info@wastenow.com,ADD,,https://www.wastenow.com/%3Futm_campaign%3Dgmb%26utm_medium%3Dreferral%26utm_source%3Dgmb,ADD,https://www.facebook.com/wastenowteam,https://www.instagram.com/wastenow,https://www.linkedin.com/company/waste-pro-portable-restrooms-,https://twitter.com/wastenow
UPDATE,c4196e8a-5d47-4661-b169-4e67d73f2142,Twin Bros Party Rentals,Chelmsford,Massachusetts,(978) 337-9730,,twinbrospartyrentals@twinbrospartyrentals.com,ADD,,http://www.twinbrospartyrentals.com/,ADD,,,https://www.linkedin.com/company/twin-bros-party-rental,
UPDATE,c42af53b-11d7-48fc-ba90-3e05724d2564,BBB Septic Solution,Bentonville,Arkansas,(479) 271-0058,,jonj@bbbseptic.net,ADD,,https://bbbseptic.com/%3Futm_source%3Dgbp%26utm_medium%3Dreferral,ADD,https://www.facebook.com/BusyBeingBest/,https://www.instagram.com/bbbsepticandtoilet,https://www.linkedin.com/company/bbb-septic-svc,
UPDATE,c4998144-620d-41ef-a8c0-f5bd9925142e,Litt'l Johns Portables,Helena,Montana,(406) 442-3242,,ltjohns23@gmail.com,ADD,,http://littljohnssepticservice.com/,ADD,https://www.facebook.com/ltjohns23/,,,
UPDATE,c5ef26bf-67ea-4f3e-8467-e5c5ebf1d964,Goodwin Septic Tank Services,Grand Junction,Colorado,(970) 243-2783,,info@mydomain.com,ADD,https://www.goodwinseptic.com/,,KEEP,https://www.facebook.com/Goodwinseptic,,,
UPDATE,c5f7f01b-3986-4193-a8fc-f188dae529fb,Americart Services LLC,Bayport,New York,(631) 790-9977,,americartllc@gmail.com,ADD,,https://www.americartli.net/,ADD,https://www.facebook.com/Americart-LLC-107832725296534,,,
UPDATE,c63b1fb6-8f9b-4440-9ff1-a257ac608947,Caprioni Portable Toilets,Woodbine,New Jersey,(609) 301-0533,,genia.caprioni@caprioniportabletoilets.com,ADD,,https://www.caprioniportabletoilets.com/,ADD,,,,
UPDATE,c6d82311-0ee7-44ba-9321-b168cea0e412,Wruck Sewer and Portable Rental LLC,Becker,Minnesota,(320) 761-0413,,valery@wruckcompanymn.com,ADD,,http://www.wrucksewer.com/,ADD,https://www.facebook.com/profile.php?id=100063713762320&locale=hi_IN,,,
UPDATE,c6fa245d-baa3-410a-a86a-dbb45900cb15,Raveloo Portable Potty Rentals Detroit,Detroit,Michigan,(313) 572-6821,,,NONE,,https://ravelooportablepottyrentalsdetroit.com/,ADD,,,,
UPDATE,c7070ab9-fc6e-4fff-b3b0-9661b1b05b91,Arkansas Portable Toilets,Fayetteville,Arkansas,(479) 770-5577,,michael@arportabletoilets.com,ADD,,https://arportabletoilets.com/%3Futm_campaign%3Dgbp%26utm_medium%3Dorganic%26utm_source%3Dgoogle,ADD,http://facebook.com/arkportapotty,,https://www.linkedin.com/company/arkansas-portable-toilets,http://twitter.com/arportables
UPDATE,c72a19c6-0215-4b71-be02-0a66f7a306c6,Buckeye Portables LLC,Wilmington,Ohio,(937) 366-9694,,buckeyeportables@gmail.com,ADD,,https://www.buckeyeportables.com/,ADD,,,,
SKIP,c74a8ad7-a7a4-4ca2-944e-784a57b70383,Denniss Portables LLC,Ida,Michigan,(734) 269-6828,dennissportabletoilets@gmail.com,,KEEP,https://www.dennissportabletoilets.com/,,KEEP,https://www.facebook.com/109037804588161,,,
UPDATE,c773b76d-af77-48fb-a7ec-b0cf9007bc35,Spotlight Luxury Restroom Rentals,Ronkonkoma,New York,(631) 714-7914,,spotlightlxrestrooms@gmail.com,ADD,,https://www.spotlightluxuryrestrooms.com/,ADD,,,,
UPDATE,c79dd937-c95a-4079-9f66-6441f905053a,Swiftly Porta Potty Rental LLC,Fresno,California,(559) 418-4223,,team@swiftlyportapottyrental-llc.com,ADD,https://swiftlyportapottyrental-llc.com/,,KEEP,,,,
UPDATE,c7bf2b72-1792-44aa-ab33-f8be9acab02b,Royalty Restroom Rentals LLC,Troy,Ohio,(937) 570-2118,,royaltyrestroomrentals@gmail.com,ADD,,https://www.royaltyrestroomrentals.com/contact,ADD,,,,
SKIP,c80901d5-6c64-4e42-95f3-ed697c5fd050,Walmart Supercenter,North Bergen,New Jersey,(201) 758-2810,sofia.royo@walmart.com,,KEEP,https://www.walmart.com/blocked?url=L3N0b3JlLzM3OTUtbm9ydGgtYmVyZ2VuLW5qLz92ZWg9c2VvX2xvYw==&uuid=efa13810-db4b-11f0-ae27-96b7075acecf&vid=&g=b,,KEEP,http://www.facebook.com/walmart,https://www.instagram.com/walmart,https://www.linkedin.com/company/walmart-distribution-center-6011-brookhaven-ms,http://www.twitter.com/Walmart
UPDATE,c837718e-1772-4f14-ba1b-6f0155caa366,Dependable Waste Solutions LLC,Cabot,Arkansas,(501) 241-1690,,info@dependablewastesolutions.com,ADD,,https://www.dependablewastesolutions.com/,ADD,https://www.facebook.com/dependablewastesolutions/,,https://www.linkedin.com/company/dependable-waste-services,
UPDATE,c847a7d0-f306-4bf3-b8c4-0f39e7082f63,Cat Cans Portable Services of Manhattan,Manhattan,Kansas,(785) 539-9700,,catcansofmanhattan@gmail.com,ADD,,https://catcansofmanhattan.com/,ADD,https://www.facebook.com/pages/,,,
UPDATE,c9491c43-c2c1-4a73-9320-9a96627ba7f6,Spivey Services,Chesapeake,Virginia,(757) 485-8888,,info@spivey-services.com,ADD,,http://www.spivey-services.com/,ADD,https://www.facebook.com/SpiveyRentals/,,https://www.linkedin.com/company/spivey-rentals-inc-llc/,
UPDATE,c9fb7464-66b2-4c49-82c4-ff49fa046182,Lincoln Porta Potties FreshLoo,Lincoln,Nebraska,(402) 207-6546,,contact@lincolnportapotties.com,ADD,,https://lincolnportapotties.com/,ADD,https://www.facebook.com/lincolnportapottiesfreshloo/,https://www.instagram.com/lincolnportapottiesfreshloo,https://www.linkedin.com/company/lincoln-porta-potties-freshloo/,https://twitter.com/pottiesfreshloo
UPDATE,ca34cccf-6b50-413b-8615-a046c0c6b2bc,Whatapotty Services LLC,Alvarado,Texas,(817) 999-9581,,abbyo@whatapotty.com,ADD,https://www.whatapotty.com/,,KEEP,https://www.facebook.com/213150995757511,,,
UPDATE,cbc954b3-87b8-4a81-8d09-c6e6516a834b,Stamback Services,Tucson,Arizona,(520) 384-4803,,stambackseptic@gmail.com,ADD,https://stambackservices.com/%3Futm_campaign%3Dgmb,,KEEP,https://www.facebook.com/Porta-Potty-Rental-Tucson-238174423181445/,,,https://twitter.com/StambackSeptic
UPDATE,cc9f425a-0b09-4378-b80c-1637d5ecdd7a,Pelican Events,Kenner,Louisiana,(504) 464-4436,,jobs@pelicanusa.com,ADD,,http://www.pelicanusa.com/,ADD,https://www.facebook.com/pelicanevents,https://www.instagram.com/explore,,https://twitter.com/pelicangraphics
UPDATE,cce6b162-4446-4bd9-a809-f022dad48d59,Four J's Portable Toilets,Pocatello,Idaho,(208) 232-3883,,hailey.rotopoky@gmail.com,ADD,,https://www.fourjsportabletoilets.com/,ADD,,,,
SKIP,cd40c8c4-c884-4872-a953-f9c28fbfb142,Stop and Stor Prospect Park / Crown Heights,Brooklyn,New York,(718) 898-8000,info@stopandstor.com,,KEEP,https://www.stopandstor.com/locations/brooklyn/prospect-park-crown-heights%3Futm_source%3Dgoogle%26utm_medium%3Dorganic%26utm_campaign%3Dgbp%2Bprospect%2Bpark%2Bcrown%2Bheights%2Blocation,,KEEP,https://www.facebook.com/stopandstore/,,http://www.linkedin.com/company/10425653,https://twitter.com/STOPandSTOR
UPDATE,cd474570-d4ab-4a9a-afe6-c9b5b488055f,"Paragon Luxury Services, LLC",Stamford,Connecticut,(203) 703-1921,,,NONE,,https://www.paragonluxuryservices.com/,ADD,,,,
UPDATE,cd480bcd-01c5-4888-9609-5db4bbd04c09,Portabowl Restrooms/Ace Disposal,Malvern,Pennsylvania,(610) 904-9362,,gdaniello@acedisposal.net,ADD,,https://acedisposal.net/%3Futm_source%3Dgoogle%26utm_medium%3Dorganic%26utm_campaign%3Dgbp,ADD,,,http://linkedin.com/company/ace-portables-inc,
UPDATE,cd74d24b-e0fe-4e6a-b4b1-f6dcd4591f7d,Hemley's Handy-Kan,Gig Harbor,Washington,(253) 858-7727,,hemleyshandykans@ymail.com,ADD,,https://hemleyshandykan.com/,ADD,,,,
UPDATE,cdaeab67-4f21-4839-8d42-0535fb2be111,Ativia Services,Columbus,Georgia,(706) 967-4564,,info@ativiaservices.com,ADD,,https://ativiaservices.com/serviceareas/columbus/,ADD,,,,
UPDATE,ce960ed4-b800-4b13-bc27-a4b6a4c83d83,Lucky Loo Portable Restrooms,Clay Center,Kansas,(785) 632-0803,,luckylooportables@gmail.com,ADD,,https://luckylooportables.com/,ADD,https://www.facebook.com/people/,,,
UPDATE,cecfc456-b3f2-4f97-9a33-f2aee136afc5,B&R Portable Restroom & Services,Brownsburg,Indiana,(317) 858-8066,,customerservice@bandr.services,ADD,,https://www.bandr.services/,ADD,https://www.facebook.com/bandr_services-107315997465317/,https://www.instagram.com/bandrservices,https://www.linkedin.com/company/bandrservices,
UPDATE,cf365c70-7363-42ad-a94d-0b4100143e61,"Luxury Location Services, LLC",Sun Valley,California,(626) 731-0655,,luxurylocationservices@gmail.com,ADD,,https://luxurylocationservice.com/,ADD,https://www.facebook.com/LuxuryLocationService/,https://www.instagram.com/luxurylocationservices,,
UPDATE,cf44dd3c-6698-4a74-8bb6-24ac67801907,Porta Potty Rentals of Atlanta,Atlanta,Georgia,(470) 828-5335,,info@proportapottyrental.com,ADD,,https://proportapottyrental.com/locations/atlanta-ga,ADD,,,,
UPDATE,cf765668-adaa-4697-bb7a-ab6319b0d04a,PrimeTime Portables & Waste Services Inc.,Loveland,Colorado,(970) 663-4353,,sales@primetimeportables.net,ADD,http://primetimeportables.net/,,KEEP,https://www.facebook.com/primetimeportables,,,
UPDATE,cf8d362c-e5e8-4053-bcb0-5169b925632d,Hawaii Express Portables,Puunene,Hawaii,(808) 727-2245,,,NONE,,http://www.mauiportabletoilets.com/,ADD,,,,
UPDATE,cfc36a9c-f8fc-482c-ad71-4c368beb0b0d,Jay's Portables,Lapeer,Michigan,(810) 214-4570,,contact@jaysseptic.com,ADD,,https://www.jaysportables.com/,ADD,,,,
UPDATE,cfc6f73a-e903-489d-b027-b6ff449714e5,Rock & Roll Offs,Semmes,Alabama,(251) 645-2826,,service@rockandrolloffs.com,ADD,,http://www.rockandrolloffs.com/,ADD,https://www.facebook.com/rockandrolloffs,,,
UPDATE,d0236764-a0d4-47c5-86be-ced27cacb47f,Golden Porta Potty Rental,Austin,Texas,(737) 637-4697,,support@goldenportapotty.com,ADD,https://goldenportapotty.com/,,KEEP,,,,
UPDATE,d095bfa4-63cd-4fc6-aee7-3304f47e4289,Port-A-Jon of Mt. Pleasant,Mt Pleasant,Texas,(903) 572-9397,,john@port-a-jon.com,ADD,,https://port-a-jon.com/,ADD,http://www.facebook.com/portajoninc/,,,
SKIP,d0e60e6a-bbb7-431f-a4b3-cea987898274,Lowe's Home Improvement,North Bergen,New Jersey,(201) 662-0932,recommend@ions.durl,,KEEP,https://www.lowes.com/404,,KEEP,http://www.facebook.com/lowes,https://instagram.com/loweshomeimprovement,http://www.linkedin.com/company/lowe's-home-improvement,http://www.twitter.com/lowes
UPDATE,d179f201-60f2-466a-9262-683ee06a4fd3,Porta Pros,Mazeppa,Minnesota,(507) 316-2341,,,NONE,,http://www.portaprosmn.com/,ADD,,,,
UPDATE,d1ec8c07-558d-4bc8-9f9e-5a1d293f49d5,Lavish Restroom Rentals,Auburn,Washington,(530) 632-8101,,lavishrestroomrentals@gmail.com,ADD,https://www.lavishrestroom.com,,KEEP,,,,
UPDATE,d24d4d71-a8db-44c0-9244-a1d68a0a1b46,Patriot Service Company,Caney,Kansas,(833) 387-3772,,jacob@patriotserviceco.net,ADD,,http://www.patriotserviceco.com/,ADD,,,,
UPDATE,d255bfe1-c94e-49ec-9264-8aac7ceff5ad,Pearson Services,Louisville,Mississippi,(662) 773-3282,,john@pearsonservicesinc.com,ADD,,https://pearsonservicesinc.com/,ADD,,,,
UPDATE,d319c453-5c9c-4762-87c2-860327f96571,"Ragan Grading & Septic Tanks, Inc.",LaGrange,Georgia,(706) 882-3691,,ragangrading@charter.net,ADD,https://www.troupcountyseptictanks.com/,,KEEP,https://facebook.com/Ragan-Grading-Septic-Tanks-Inc-123451664384787,,,https://twitter.com/raganclearinggr
UPDATE,d31ebe41-55b6-49db-aa5b-1b095323c596,Porta Potty Rentals of Fresno,Fresno,California,(559) 354-4108,,info@proportapottyrental.com,ADD,,https://proportapottyrental.com/locations/fresno-ca,ADD,,,,
UPDATE,d356dc24-eff7-444c-9e23-b18320ea7cf2,Willy Make It? Temporary Site Services,Portland,Oregon,(503) 261-1234,,info@willymakeit.com,ADD,,http://www.willymakeit.com/,ADD,https://www.facebook.com/people/,,http://linkedin.com/company/willy-make-it-,https://twitter.com/WillyMakeIt_TP
UPDATE,d3a6caaa-2505-4a86-a155-d146ec1802b3,Flow Pro Portable Toilet Rentals Palmdale,Palmdale,California,(661) 249-6320,,info@barbaraportaservices.store,ADD,https://barbaraportaservices.store/,,KEEP,,,,
UPDATE,d3fb835f-644c-4441-aa18-8155911a9c01,802 Restrooms,Bennington,Vermont,(802) 242-2222,,sales@802restrooms.com,ADD,,http://802restrooms.com/,ADD,https://www.facebook.com/802Restrooms/,,,
UPDATE,d45fa412-4fdf-4e3d-a219-33c8e3bd4ba0,Star Sanitation LLC,Salinas,California,(800) 750-4585,,jesus@starsanitation.com,ADD,https://starsanitation.com/,,KEEP,https://www.facebook.com/starsanitation,https://www.instagram.com/starsanitation,https://www.linkedin.com/company/star-sanitation,https://www.twitter.com/starsanitation
UPDATE,d4692981-1ab3-481e-a723-60d2b2b5a95b,"Nelson Sanitation & Rental, Inc.",Rice,Minnesota,(320) 393-2787,,sales@nelsonsanitation.com,ADD,,http://nelsonsanitation.com/,ADD,https://www.facebook.com/pages/,,,
UPDATE,d53c9119-0204-4408-9a21-cb98347ab8c2,Alexis Portable Toilet Rental Elk Grove,Elk Grove,California,(916) 222-3531,,,NONE,,https://alexisportabletoiletrental.com/,ADD,,,,
UPDATE,d591c94b-47f2-48ea-ae9c-31041dfeaf20,Potty Now Please of Bradenton,Ellenton,Florida,(941) 748-6811,,pnp33511@gmail.com,ADD,,https://pottynowplease.com/bradenton-fl/,ADD,https://www.facebook.com/pottynowpleaseofbrandon/,,,
UPDATE,d6105101-cc4f-40ab-a851-b54f67776e89,Moran's Portable Restrooms,Poulsbo,Washington,(360) 994-9544,,moransportablerestrooms@gmail.com,ADD,,https://moransportablerestrooms.net/%3Futm_source%3DGBP%26utm_medium%3Dorganic%26utm_campaign%3DGBP-Visit,ADD,https://www.facebook.com/moranspoulsbo/,,,
SKIP,d6965cec-0c66-43db-8d1b-873c5ba94c66,Aryh Industries LLC,Chino,California,(626) 494-9458,MIKE@ARYHSERVICES.COM,,KEEP,https://www.fenceandpottyrentals.com/,,KEEP,,,,
UPDATE,d6a2079a-8747-45e1-b036-bf8ee50d3f9c,A Sani-Can,Denver,North Carolina,(704) 249-2625,,chuffman@asanican.com,ADD,,https://asanican.com/%3Futm_source%3Dgoogle%26utm_medium%3Dorganic%26utm_campaign%3Dgbp,ADD,https://www.facebook.com/529730837066935,,https://www.linkedin.com/company/a-sani-can-service-inc-,
UPDATE,d6f176b2-517e-4bb9-a3dd-793ecc523409,Simpson luxury restroom trailer rental,Monroe,Michigan,(734) 819-0521,,btsimpson@simpsonluxuryrestrooms.com,ADD,,http://www.simpsonluxuryrestrooms.com/,ADD,,,,
UPDATE,d7f6203f-e993-48b7-82d0-b17ad6bfeeb9,Portable Restroom Solutions LLC,Middle River,Maryland,(410) 800-8823,,info@restroomsonthego.com,ADD,,https://restroomsonthego.com/,ADD,https://www.facebook.com/portablerestroomsolutions/,,,
UPDATE,d841cec7-b9f6-44a9-8b62-d2c6aff212fc,Rapid Deployment Portable Restrooms,Almont,Michigan,(586) 588-2403,,support@rdprr.com,ADD,,https://www.rdprr.com/%3Futm_source%3Dgoogle%26utm_medium%3Dwix_google_business_profile%26utm_campaign%3D13293597892699806602,ADD,https://facebook.com/rdprr/,,,
UPDATE,d8520a64-ea13-4e27-9542-7214f1764e19,VRT Enterprise Inc.,Constantine,Michigan,(269) 435-4611,,tyson@vrtent.com,ADD,,http://www.vrtent.com/,ADD,https://www.facebook.com/vrtenterprisesinc/,https://www.instagram.com/vrtenterprises,,
SKIP,d8d2fdc7-2f89-4b5f-b0dd-d6a889b5f3aa,Iron Vac Trucks,Searcy,Arkansas,(501) 279-0001,info@septictrucks.com,,KEEP,https://www.septictrucks.com/,,KEEP,https://www.facebook.com/IronVac,https://www.instagram.com/ironvactrucks2,,https://twitter.com/intent/
UPDATE,db32baf1-4286-4376-9d31-0c94f142b212,Parker Disposal,Starkville,Mississippi,(662) 418-8646,,ericparker25@gmail.com,ADD,,https://parkerdisposalms.com/,ADD,,,,
UPDATE,db83d3d6-a8ab-40c4-868f-08b2648aaf4a,"Portable Services, Inc. - Columbia",Columbia,South Carolina,(803) 590-3956,,jbentley@portableservices.net,ADD,,https://portableservices.net/%3Futm_source%3Dgoogle%26utm_medium%3Dorganic%26utm_campaign%3Dgbp,ADD,https://www.facebook.com/PortableServicesInc1,https://www.instagram.com/portable_services_inc,https://www.linkedin.com/company/portable-services-inc.,
UPDATE,dc242013-5e80-413d-8b26-a36a93a60583,Doodie Calls,St. Petersburg,Florida,(813) 800-7667,,jeff@doodie-calls.com,ADD,https://doodie-calls.com/,,KEEP,http://www.facebook.com/doodie-calls-109241477416744,,http://www.linkedin.com/company/doodie-calls-rentals,
UPDATE,dc5bdb5d-13d7-4cfc-9294-d38d1d6963ea,High Throne Rentals,Fresno,California,(559) 999-9556,,rentals@highthronerentals.com,ADD,,https://highthronerentals.com/contact-us/,ADD,,,,
UPDATE,dcfffc84-f2f6-4fa7-b9eb-8e429cdd4cfa,gotgo,Glen Burnie,Maryland,(410) 360-1215,,rgarrison@gotugo.com,ADD,,https://www.gotugo.com/,ADD,http://www.facebook.com/gotugo,,http://www.linkedin.com/company/5055871,http://twitter.com/gotugo
UPDATE,dd1ba7ed-6563-4787-9d5d-a77800dc7b5c,5 Star Portable Toilets,Denison,Texas,(903) 361-8025,,fivestarportapotty@outlook.com,ADD,,https://www.5starportapotty.com/,ADD,,,,
UPDATE,ddb29e13-7a7d-4af8-a3eb-dd50d4520d11,Ptownpottys,Saginaw,Michigan,(989) 213-1247,,shaunthurston@ptownpottys.com,ADD,,http://ptownpottys.com/,ADD,,,,
UPDATE,ddee7aa0-8578-4d14-ad5c-28ad40e4406b,Saginaw Bay Restroom Trailers,Midland,Michigan,(231) 499-0612,,sbrestroomtrailers@gmail.com,ADD,,https://www.saginawbayrestroomtrailers.com/,ADD,,,,
UPDATE,ddff7995-d775-43f8-84c5-c1660fcb133c,Nature Calls Portable Restrooms,Melville,New York,(800) 255-8664,,,NONE,,http://www.naturecallsportapotties.com/,ADD,,,,
UPDATE,de4fb904-2a68-42cc-beb6-618cf8030afd,Moon Portable Restrooms,Louisville,Kentucky,(502) 273-5851,,info@mooncompanies.net,ADD,,https://moonportablerestrooms.com/%3Futm_source%3Dgoogle%26utm_medium%3Dorganic%26utm_campaign%3Dgbp,ADD,https://www.facebook.com/mooncompanies/,https://www.instagram.com/moonportablerestrooms&h=AT2bllr--HGImqxcNCo9CqStIWwfXkVzpqeTT-zp--v2_rQh2dMNnumiQpHPEkQcnCOBbARZUIUJ1J3zM6M1JlIkkXmLaw0H_0E6uDHQ2LUce-vYfzlHrq0d25vWcUQrTVZeoG-AoG1uFA,https://www.linkedin.com/company/moon-companies,
UPDATE,de7385b4-c1b6-4753-bffc-86a85b39a954,R&H Equipment Rentals,Surprise,Arizona,(623) 522-7680,,chris@randhequipmentrentals.com,ADD,,https://randhequipmentrentals.com/,ADD,,https://www.instagram.com/randh_equipment_rentals,,
UPDATE,de95ca84-1490-4fea-87da-e85e3eb59b1b,Potters Porta Potties,Farmersville,California,(559) 594-4322,,marian@aaaqsinc.com,ADD,,http://www.aaaqsinc.com/,ADD,http://www.facebook.com/1potters,,,
SKIP,dea608d8-e9d0-4c93-bbca-5b078c551941,Crapper King,Parker,Colorado,(720) 764-3303,info@crapperking.com,,KEEP,https://crapperking.com/,,KEEP,https://www.facebook.com/CrapperKing,https://www.instagram.com/crapperkingco,https://www.linkedin.com/company/crapper-king/,https://twitter.com/crapper_king
SKIP,df0fb332-a53b-4845-8d3a-9e6f6bb4769a,True Loo Waste Services,Cumming,Georgia,(678) 771-8645,brett@true-loo.com,,KEEP,https://true-loo.com/,,KEEP,,,,
UPDATE,e0190fdf-4bb2-4d6f-aca9-710142160444,Lane's Mobile John,Benton,Kentucky,(270) 527-9945,,tanya@lanesmobilejohn.com,ADD,https://www.lanesmobilejohn.com/,,KEEP,https://www.facebook.com/Lanes-Mobile-John-112374623618197/,,,
UPDATE,e02ae8da-2a14-4e04-86dd-0ff196c78963,Maryland Restroom Rentals,Centreville,Maryland,(410) 490-0162,,restroomrentalsmd@gmail.com,ADD,,https://marylandrestroomrentals.com/%3Futm_source%3Dgmb%26utm_medium%3Dorganic%26utm_campaign%3Dcentreville,ADD,https://www.facebook.com/marylandrestroomrentals,,,
UPDATE,e030201e-71a8-49ef-bc08-6788aeba45a9,Portable Toilets Champ,San Francisco,California,(231) 452-0319,,info@portabletoiletschamp.com,ADD,,https://portabletoiletschamp.com/location/top-rated-portable-toilet-services-in-san-francisco,ADD,,,,
UPDATE,e052248a-1e6a-44bc-80e8-cab1a5b965c1,Pride the Portable Toilet Company LLC,Benton Harbor,Michigan,(269) 208-1484,,r.colvin@prideportabletoilets.com,ADD,,http://www.prideportabletoilets.com/,ADD,,,,
SKIP,e05820ec-96d4-4abb-997c-f80553cbf76c,Toilets and Co.,Springfield,Ohio,(937) 504-9331,chad@theportabletoiletco.com,,KEEP,https://toiletsandco.com/,,KEEP,,,,
UPDATE,e05f5d92-e339-443f-9b43-e47e33b685c9,Mayes Septic & Port-A-Pots LLC,Hagerstown,Maryland,(301) 791-7977,,mayesseptic@gmail.com,ADD,,http://mayessepticandportapot.com/,ADD,https://www.facebook.com/MayesSeptic/,,,
UPDATE,e10f1abf-e9ab-4c58-9cbd-668a211c4d50,Northern Exposure Mobile Shower,Brainerd,Minnesota,(218) 849-7462,,neenterprisesmn@gmail.com,ADD,,https://mobileshowersmn.com/,ADD,https://www.facebook.com/people/Northern-Exposure/100057612722449/,,,
UPDATE,e132ad61-26ff-42bc-a75b-13884ca87bb7,"Xtreme Septic & Portable Toilet Rentals of Panama City, FL",Panama City,Florida,(850) 999-7800,,schedule@xtremefl.com,ADD,,https://www.xtremefl.com/,ADD,https://www.facebook.com/XtremePlumbingandSeptic/,https://www.instagram.com/xtremeplumbingandseptic/,,
UPDATE,e156aa36-6fa8-4589-bf49-a19f907078b6,Colorado Outhouse LLC,Englewood,Colorado,(720) 279-4900,,info@coloradoouthouse.com,ADD,https://www.coloradoouthouse.com/,,KEEP,,,,
SKIP,e1d14783-c3a1-4552-afda-95d9adff5ec1,VIP Luxury Restrooms,Nipomo,California,(888) 458-8847,tinfo@viplr.com,,KEEP,https://vipluxuryrestrooms.com/,,KEEP,,,,
UPDATE,e1f8098e-5927-42f7-aea4-3a49167cc134,Pit Stop Sanitation,Hiram,Georgia,(770) 439-2888,,info@pitstopsanitation.com,ADD,https://pitstopsanitation.com/,,KEEP,,,,
UPDATE,e23f98a0-4094-49b6-98b0-7fee7bbbe479,Atlas Cube,Paducah,Kentucky,(270) 442-3821,,hello@rfuenzalida.com,ADD,,http://www.atlasrmc.com/,ADD,,,,
UPDATE,e300c979-0786-4f8b-b510-a409929518b7,Central Septic Service LLC,Woodstown,New Jersey,(856) 769-4487,,info@centralsepticllc.com,ADD,,https://www.centralsepticllc.com/,ADD,https://facebook.com/centralseptic,,,
SKIP,e3322092-20e1-438a-a845-ec923b7ebfac,Peachy Portable Potties,Gainesville,Georgia,(470) 524-0398,605a7baede844d278b89dc95ae0a9123@sentry-next.wixpress.com,,KEEP,https://www.peachyportablepotties.com/%3Futm_source%3Dgoogle%26utm_medium%3Dwix_google_business_profile%26utm_campaign%3D13850561036690801598,,KEEP,,,,
UPDATE,e3a20443-cd55-4408-8d7f-b8b19c602cdf,SOS Portable Toilets,Hastings,Nebraska,(402) 463-8073,,sostoilets@outlook.com,ADD,,http://sostoiletsne.com/,ADD,https://www.facebook.com/SOS-Portable-Toilets-2018886808350525/,https://instagram.com/sos_portable_toilets,,
UPDATE,e3ac80a2-91b4-4af9-8b67-b188dd8e2342,Royal Throne Potties,Rexburg,Idaho,(208) 228-0855,,royalthronepotties@gmail.com,ADD,,http://royalthronepotties.com/,ADD,,,,
UPDATE,e3c4583d-138a-426f-9865-9811596a9008,Bright Star Portable Sanitation LLC,Sulphur Springs,Texas,(903) 440-3437,,info@bssanitation.com,ADD,https://www.bssanitation.com/,,KEEP,https://www.facebook.com/BSSanitation,,,
UPDATE,e46816bf-0fc6-463a-b283-058157af3b9b,PumpTech Waste Water Management,Randolph,Vermont,(802) 728-9170,,office@pumptechllc.com,ADD,,http://www.pumptechllc.com/,ADD,,,,
UPDATE,e47a9ab7-0651-48aa-a912-dd663c4a948c,Ray's Sanitation LLC,Oshkosh,Wisconsin,(920) 203-2485,,info@rayssanitation.com,ADD,,http://www.rayssanitation.com/,ADD,https://www.facebook.com/Rays-Sanitation-186343068224808/,,,
UPDATE,e4bb9c3a-dff9-4fc8-9721-c7929e0aeaaf,Amarillo Porta Potties Rentals | SpotPot,Amarillo,Texas,(806) 203-2253,,victor@amarilloportapotties.com,ADD,,https://amarilloportapotties.com/,ADD,,,,
UPDATE,e50324e7-2afc-44fb-86c5-b23378c238ec,Barnhill's Services Inc.,Lexington,South Carolina,(803) 618-3600,,hamp@barnhillsservices.com,ADD,https://www.barnhillsservices.com,,KEEP,https://www.facebook.com/Barnhills-Services-111263472222037/,,,
UPDATE,e50f12e3-77dc-4a52-99c8-4a8ee3ba2194,Archer Porta Potty LLC,Auburn,Alabama,(334) 707-8461,,maclori418@gmail.com,ADD,,http://archerportabletoilets.com/,ADD,,,,
UPDATE,e528a13c-fa30-40a3-b123-942134f30cd0,United Carting Co,Fairfield,Connecticut,(203) 368-6274,,fairfieldgarbage@gmail.com,ADD,https://fairfieldgarbage.com/services/,,KEEP,http://www.facebook.com/unitedhomesanitation,,http://www.linkedin.com/company/united-home-sanitation-inc,
UPDATE,e542d42e-ebfc-4107-b9ee-8951f5316fd4,Boyce Inc,Logandale,Nevada,(702) 378-7732,,office@boyce-inc.com,ADD,,http://boyce-inc.com/,ADD,,,,
UPDATE,e59030e1-dcbf-4bfa-b803-e8cc8f7b76f2,A Plus Portable Services,Los Angeles,California,(310) 679-1747,,john@aplusportableservices.com,ADD,,https://aplusportableservices.com/,ADD,http://www.facebook.com/aplusportableservices,,http://www.linkedin.com/company/a-plus-portable-service,
UPDATE,e628444a-df3d-4d61-b9bb-999799f145e4,Richard's Portable Toilets and Septic Service,Middleburg,Pennsylvania,(570) 837-0294,,hello@rfuenzalida.com,ADD,,https://richardstoiletsandseptics.com/,ADD,https://www.facebook.com/125599467302473,,,
SKIP,e64453d4-45e7-4ac2-a121-780eda210d11,Costco Wholesale,Bayonne,New Jersey,(201) 354-2335,,,NONE,https://www.costco.com/w/-/NJ/bayonne/1334,,KEEP,http://www.facebook.com/costco,,https://www.linkedin.com/company/cosco-air-conditioning,http://www.twitter.com/costco
UPDATE,e669d7d8-e43b-498b-8de6-e3d5dacb1f82,"Freedom Septic Service, Inc.",Sykesville,Maryland,(410) 795-2947,,fischer@poophappens.com,ADD,,https://www.poophappens.com/,ADD,https://www.facebook.com/FreedomSeptic,,,https://twitter.com/FreedomSeptic
SKIP,e6c45090-ede6-4e79-9d58-c49c92cb864a,Love's Travel Stop,Hope Hull,Alabama,(334) 280-0009,lori.lee@loves.com,,KEEP,https://www.loves.com/locations/al/hope-hull/loves-travel-stop-hope-hull-718,,KEEP,http://www.facebook.com/lovestravelstops,https://www.instagram.com/lovestravelstops,http://www.linkedin.com/company/love's-travel-stops,http://www.twitter.com/lovestravelstop
UPDATE,e6fd09df-ce24-4c32-bdab-5cc8f674b936,Jack's Johns,Brownstown,Indiana,(812) 569-6239,,astigma@astigmatic.com,ADD,,https://jacksjohns.godaddysites.com/,ADD,,,,
UPDATE,e7274d9f-ea87-49ef-9834-15b4db800147,Prime Porta Potty Rental Houston LLC,Houston,Texas,(713) 527-2072,,admin@primeportapottyrentalhouston-llc.com,ADD,https://primeportapottyrentalhouston-llc.com/,,KEEP,https://www.facebook.com/people/,https://www.instagram.com/prime_porta_potty_rental,https://www.linkedin.com/company/prime-porta-potty-rental-houston-llc/,
UPDATE,e776495b-63cb-40fb-9a22-f01c9a4666ce,Sam's Club,Secaucus,New Jersey,(201) 974-0702,,GARCISTEPHANI@SAMSCLUB.COM,ADD,,https://www.samsclub.com/club/4774-secaucus-nj,ADD,https://www.facebook.com/198726200160791,https://www.instagram.com/samsclub,https://www.linkedin.com/company/sam's-club,https://twitter.com/samsclub
UPDATE,e7f0b490-42de-41f0-864c-cf70cb93b3ca,A&J Rentals,Stockton,California,(209) 663-7071,,,NONE,,http://ajrentals.com/,ADD,,,,
SKIP,e8e6472a-b332-44a3-a787-f3651c1cbe11,Macy's,Jersey City,New Jersey,(201) 255-5200,seomet@agging.enabled,,KEEP,https://www.macys.com/stores/nj/jerseycity/newport-centre_174.html,,KEEP,http://www.facebook.com/macys,,http://www.linkedin.com/company/6746534,http://twitter.com/macys
UPDATE,e98ebbf3-ba91-486b-91b2-42ed68066e98,Ct potty rentals,Waterbury,Connecticut,(203) 528-8603,,quotes@ctpottyrentals.com,ADD,,http://www.ctpottyrentals.com/,ADD,,,,
UPDATE,e9bf5815-bb5d-49a6-babe-38b9151b5291,Aaa Northside Portable Toilets,Milledgeville,Georgia,(478) 452-6936,,info@northsideportables.com,ADD,,http://northsideportables.com/,ADD,https://www.facebook.com/233245753747243,,,
UPDATE,eaa05663-a0fc-47b4-96ac-a07cf1bf1f5b,Premier Portables FL,Fort Myers,Florida,(239) 448-3316,,robin@premierportablesfl.com,ADD,,https://premierportablesfl.com/%3Futm_source%3Dgoogle%26utm_medium%3Dorganic%26utm_campaign%3Dgbp,ADD,,,,
UPDATE,eb1b08f5-73be-4966-8a93-b54a5f19397c,P Bar O Disposal,Westcliffe,Colorado,(719) 783-0202,,pbarodisposal@gmail.com,ADD,https://pbaro.com/,,KEEP,https://www.facebook.com/pbaro2018,,,
UPDATE,eb73239d-5d2e-4cba-8b78-e93c481d5a2e,Got to Go Portable Restrooms,Cortlandt Manor,New York,(838) 384-3001,,nick@gottogoinc.com,ADD,,https://www.gottogoinc.com/,ADD,https://www.facebook.com/gottogoinc/,,,
SKIP,ebe0c6bd-b95e-4c85-b12f-61d857f50803,"Barrios Site Services, Inc.",Caruthers,California,(559) 864-9540,barriossiteservices@gmail.com,,KEEP,https://barriossiteservices.com/,,KEEP,https://www.facebook.com/117385011351223,https://www.instagram.com/barriossiteservices,,
SKIP,ec619541-23d5-4c7a-8965-18ef4b4160d6,On The Throne Trailers,Clovis,California,(559) 797-1010,team@latofonts.com,,KEEP,https://onthethronetrailers.com/,,KEEP,https://www.facebook.com/233997343132303,https://www.instagram.com/onthethronetrailers,,
UPDATE,ecd28ca5-fbc2-4b3e-9527-ca2e19773209,Oliver Springs Portable Toilets,Harriman,Tennessee,(865) 590-0047,,OSPDalton@gmail.com,ADD,,https://www.facebook.com/profile.php%3Fid%3D61553391427509%26mibextid%3DLQQJ4d,ADD,https://www.facebook.com/people/Oliver-Springs-Portable-Toilets/61553391427509/,,,
UPDATE,ecdb0f0e-c745-463f-ba4f-3370cd497e5a,Drainworks Plumbing & Septic LLC,Colchester,Connecticut,(860) 337-3109,,support@drainworksct.com,ADD,https://calldrainworks.com/,,KEEP,https://www.facebook.com/drainworksct,,,https://twitter.com/drainworksct
UPDATE,ed0ef519-2ea2-4670-a59c-a5993a7f1e6c,Adirondack Outhouses by Tyler,Ticonderoga,New York,(518) 585-2224,,r.condit@adirondackouthouses.com,ADD,,http://www.adirondackouthouses.com/,ADD,,,,
UPDATE,ee7d90ea-a09d-4fd0-8f89-460b7fedc50b,P.C. Richard & Son,New York,New York,(212) 579-5200,,roy.walters@pcrichard.com,ADD,https://www.pcrichard.com/stores/new-york/manhattan/upper-west-side.html%3Futm_source%3DGoogle-My-Business%26utm_medium%3Dorganic%26utm_campaign%3DGoogle-My-Business,,KEEP,http://www.facebook.com/352406061566,,http://www.linkedin.com/company/pc-richard-&-son,http://www.twitter.com/pcrichardandson
UPDATE,ef46acf1-4b23-4cd0-913a-efdbe52e47cd,Ludwin Rental Services,Murfreesboro,Tennessee,(615) 413-6644,,info@ludwinrentalservices.com,ADD,https://ludwinrentalservices.com/,,KEEP,,,,
UPDATE,ef8ab223-2fd5-46fe-9995-b1983bfab76d,Waste Rentals,Mesa,Arizona,(480) 904-3727,,info@wasterentals.com,ADD,,https://wasterentals.com/,ADD,https://www.facebook.com/wasterentals/,,https://www.linkedin.com/company/waste-rentals,
SKIP,efe42b95-f11d-47e7-a64c-f1e79dc3b17f,Urban Chic Portable Toilets,Paterson,New Jersey,(862) 407-6875,,,NONE,https://urbanchicportabletoilets.blogspot.com/,,KEEP,,,,
UPDATE,f0b43f43-124c-48ec-8df1-3de6fdba672f,Michigan Luxury Restroom Rentals,Oakland Township,Michigan,(248) 266-1057,,miluxuryrestrooms@gmail.com,ADD,,https://miluxuryrestrooms.com/,ADD,,,,
UPDATE,f13ff143-8e40-4d7c-a327-b475a0377c1c,Best Portables,Phenix City,Alabama,(334) 560-3330,,info@laneenvironmental.com,ADD,,http://bestportables.com/,ADD,https://www.facebook.com/bestportables,,,
UPDATE,f1436f2d-3a2c-47ac-b7cd-77f24b14e1c2,Bigfoot Portables,Colorado Springs,Colorado,(719) 985-9976,,info@bigfootportables.com,ADD,https://www.bigfootportables.com/,,KEEP,,,,
UPDATE,f1e025ac-e29b-42c4-97c9-484151b0a94c,TriState Dump It,Stevenson,Alabama,(256) 548-6021,,darrenblizard@gmail.com,ADD,,http://www.tristatedumpit.com/,ADD,,,,
UPDATE,f21aac18-e8b5-42ec-84c0-e3cac1417a2c,GI Johns,Monroe,Connecticut,(877) 445-6467,,info@gijohns.com,ADD,,http://www.gijohns.com/,ADD,,https://instagram.com/gijohns_portas,,
UPDATE,f278f8dc-3b1a-43ce-a33f-10697b7e6c5e,Bobs Johns Inc.,Bayfield,Colorado,(970) 247-4131,,c.manning@bobsjohns.com,ADD,https://bobsjohns.com/,,KEEP,https://www.facebook.com/1706946302920959,,,
SKIP,f29592aa-84ed-46ff-864f-457f63f7c474,Boston Porta Potties Rental PotSwift,Boston,Massachusetts,(617) 344-4353,contact@bostonspotswift.top,,KEEP,https://bostonspotswift.top/,,KEEP,https://www.facebook.com/bostonportapottiesrentalpotswift/,https://www.instagram.com/bostonportapottiesrentalpotswi,https://www.linkedin.com/company/boston-porta-potties-rental-potswift/,https://twitter.com/rentalpotswift
UPDATE,f2dbbf41-ae81-4baa-98c2-f122c24d4e6f,PNM Rentals,Lincoln University,Pennsylvania,(484) 756-8013,,contact@pnmrentals.com,ADD,,https://pnmrentals.com/,ADD,,,,
UPDATE,f33a214c-4017-4984-8fa1-a909a9537c1b,Scotty's Potties,Templeton,Massachusetts,(978) 939-5922,,admin@scottyspottiesinc.com,ADD,,https://scottyspottiesinc.com/,ADD,https://www.facebook.com/114123690369696,,,
UPDATE,f3574922-bb5f-4da3-9981-d243cca209b5,CRP Sanitation Inc.,Cortlandt Manor,New York,(914) 592-4129,,rcarbone@crpsanitation.com,ADD,https://www.crpsanitation.com/,,KEEP,https://www.facebook.com/crpsanitation/,https://www.instagram.com/crpsanitation,http://linkedin.com/company/c.r.p.-sanitation-inc.,
UPDATE,f37a5607-c3c4-459e-9ab3-faa48a0490e0,Mike's Sanitation Inc.,New Bremen,Ohio,(419) 629-3695,,n.evers@mikessanitation.com,ADD,http://www.mikessanitation.com/,,KEEP,,,,
UPDATE,f3b99167-d86b-4aa3-88f5-9bef6dda13dd,"Versatile Industries V, LLC",Midland,Texas,(432) 561-8466,,javier@versatilev.com,ADD,http://versatilev.com/,,KEEP,http://www.facebook.com/versatileindustriesv,,https://www.linkedin.com/company/versatile-industries-v-llc,
SKIP,f3ef73a0-c967-4760-aafb-d8f8d86c52af,Guitar Center,New York,New York,(212) 463-7500,john.buffey@googlemail.com,,KEEP,https://stores.guitarcenter.com/ny/manhattan/810,,KEEP,https://www.facebook.com/GuitarCenterPlymouthMeeting/,,,
UPDATE,f42b7867-27cd-4ab8-a874-65d2e8c8c3a6,Porta Spot,Ogden,Utah,(801) 675-9584,,portaspotllc@gmail.com,ADD,,https://www.portaspotutah.com/,ADD,,,,
UPDATE,f4c36840-9574-4269-8e30-ab3d9fb85333,#1BEST TOILETS,Miami,Florida,(833) 661-2378,,heythere@numberonebest.com,ADD,,https://www.numberonebest.com/,ADD,,,,
SKIP,f5196ac3-8642-474d-bd50-d736294e7831,Regal Restrooms LLC,North East,Maryland,(410) 287-5277,605a7baede844d278b89dc95ae0a9123@sentry-next.wixpress.com,,KEEP,https://www.regalrestroomsllc.com/,,KEEP,https://www.facebook.com/regalrestroomsllc/,,https://www.linkedin.com/company/regal-restrooms-llc,
UPDATE,f5a56676-86c2-4274-960a-84e862562f23,"VandenPlas Portable Solutions, LLC",Denmark,Wisconsin,(920) 863-6505,,apinson@vpsenterprises.com,ADD,,https://www.vpsenterprises.com/,ADD,http://www.facebook.com/vpsportables,,http://www.linkedin.com/company/oil-wizard,
UPDATE,f62e47a8-36a8-48b9-b4c6-83d3862225e5,"Jason Mazzer Plumbing & HVAC, LLC",Saddle Brook,New Jersey,(201) 615-6672,,workorders@mazzerplumbing.com,ADD,,http://mazzerplumbing.com/,ADD,,,,
UPDATE,f68f226d-3c34-4b7d-99b7-23952d589853,South Florida Luxury Rental Restroom LLC,Miami,Florida,(305) 305-4899,,contact@southfloridaluxuryrentalrestroom.vip,ADD,,http://southfloridaluxuryrentalrestroom.vip/%3Futm_medium%3Dreferral%26utm_source%3Dgmb%26utm_campaign%3Dlnk-gmb,ADD,,https://www.instagram.com/southfloridaluxuryrestrooms,,
UPDATE,f6b78b05-4cfb-485a-9f65-eaf7d57bbd4b,Portable Toilet Rentals Of Austin,Austin,Texas,(512) 737-2969,,admin@astoriaportapottyrental.com,ADD,https://astoriaportapottyrental.com/,,KEEP,,,,
UPDATE,f72ed0c2-99d0-432b-b5d6-94fd1134c20f,GPS Excavating Portables and Septic,Buena Vista,Colorado,(719) 239-0469,,gpsexc@gmail.com,ADD,,https://www.gpsexc.com/,ADD,,,,
UPDATE,f77edd8c-8ccb-4918-8f37-5e62cf813870,Cherokee Restroom Trailers,Calhoun,Georgia,(770) 608-2297,,cherokeerestroomtrailers@gmail.com,ADD,https://cherokeerestroomtrailers.com/,,KEEP,,,,
UPDATE,f84cec12-b879-4368-bdad-a699cda4a49b,Luxe Loo: Luxury Portable Restrooms,Kent,Washington,(425) 524-5743,,info@luxe-loo.com,ADD,,https://luxe-loo.com/,ADD,,,,
SKIP,f8b4f518-196b-465b-8abf-cb9197c9861f,Palmetto Portables,Myrtle Beach,South Carolina,(843) 602-4888,palmettoportable@gmail.com,,KEEP,https://palmettoportables.com,,KEEP,https://www.facebook.com/palmettoportables/,,,
UPDATE,f95132e4-a1c7-4927-8951-392f7e8fa0e6,Pasadena Porta Potty Rental | LavPro,Pasadena,Texas,(346) 226-8959,,contact@pasadenaportapotties.com,ADD,https://pasadenaportapotties.com/,,KEEP,https://www.facebook.com/pasadenaportapottyrentallavpro/,https://www.instagram.com/pasadenaportapottyrentallavpro,https://www.linkedin.com/company/pasadena-porta-potty-rental-lavpro,https://twitter.com/pasadenapotties
UPDATE,f974c56f-f848-4803-953d-f597e39e3f25,Impact Portable Restrooms,Ada,Oklahoma,(580) 798-8168,,impactportablerestrooms@gmail.com,ADD,,http://impactrestrooms.com/,ADD,,,,
UPDATE,f98e9ec5-af5b-4c27-8faa-f4acaa89bdef,"Black River Portables, L.L.C.",Black River Falls,Wisconsin,(715) 284-5979,,,NONE,,https://blackriverportablesllc.com/,ADD,,,,
UPDATE,f9e5bd0c-c7bd-45f6-8eac-baae30ce7034,Flow Masters LLC,Saucier,Mississippi,(228) 697-5900,,flowmasters911@yahoo.com,ADD,,https://flowmasters911.com/,ADD,,,,
UPDATE,fa1e6cae-3be9-4aee-8ddc-4ea65fc7d78a,WTP Restrooms,Brockton,Massachusetts,(617) 869-9400,,info@wtprestrooms.com,ADD,,https://www.wtprestrooms.com/%3Futm_source%3Dgmb%26utm_medium%3Dorganic%26utm_campaign%3Dlisting,ADD,,,,
UPDATE,fa2aa934-2a33-4019-a72a-a7bd83df27ea,Pristine Portable Rentals,Lakewood,Colorado,(720) 239-2869,,blaine@lionspridecompany.com,ADD,https://www.pristineportablerentals.com/,,KEEP,,http://instagram.com/shopify,,
UPDATE,fa8d351d-5e7c-4103-b844-9003767005f8,Buffalo River Johns,Mondovi,Wisconsin,(715) 495-2123,,brjohnsllc@gmail.com,ADD,,https://www.buffaloriverjohns.com/,ADD,,,,
UPDATE,fae6da24-67ba-4115-abce-2f62d9dd220f,A-1 Sanitation Service,Paris,Texas,(903) 784-6821,,info@a1sanitation.net,ADD,https://www.a1sanitation.net/,,KEEP,https://www.facebook.com/A1Sanitationparistx,,,
UPDATE,faf1de38-c806-443c-bb45-ae2beb8a4129,Nationwide Waste Service,Gilbert,Arizona,(855) 301-2530,,info@nationwidewasteservice.com,ADD,https://www.nationwidewasteservice.com/,,KEEP,http://www.facebook.com/nationwidewasteservice,https://www.instagram.com/nationwidewaste,http://www.linkedin.com/company/nationwide-waste-service,http://www.twitter.com/nw_wasteservice
UPDATE,fb8d4d69-6e3d-4bb6-aaf0-bab9b05a3088,Porta Potty Rentals of Tucson,Tucson,Arizona,(918) 558-4986,,info@proportapottyrental.com,ADD,,https://proportapottyrental.com/locations/tucson-az,ADD,,,,
UPDATE,fc57e306-c9a2-417f-a57b-9bbdc01a853c,All Seasons Sanitation Portable Restroom Rentals & RV Pumping,Florence,Oregon,(541) 999-7189,,eben@eyebytes.com,ADD,,https://allseasonssanitation.com/,ADD,https://www.facebook.com/137543959431557,,,
UPDATE,fcd10c6c-9e83-43ae-9d78-066e4cf8cfc2,Piviy Portable Restroom Trailers,Rockville,Maryland,(240) 512-6633,,jackie@piviy.com,ADD,,http://www.piviy.com/,ADD,https://facebook.com/piviy2023,https://instagram.com/piviy2023,https://linkedin.com/company/piviy-go-primo,https://twitter.com/piviy2023
UPDATE,fd5483e9-0e44-458a-9944-c24e3e4d649b,Schommer Porta Potties,Omaha,Nebraska,(402) 227-1580,,info@schommerportapotties.com,ADD,,https://schommerportapotties.com/,ADD,,,,
UPDATE,fdd4a766-e3b0-474e-a7c2-659185d5f188,Smith's Sanitary Septic Service,Hanover,Pennsylvania,(717) 637-5630,,smithseptic@embarqmail.com,ADD,,https://www.smithsseptichanoverpa.com/,ADD,https://www.facebook.com/SmithsSanitarySepticService,,https://www.linkedin.com/company/septicserviceyorkpa/,https://twitter.com/smithssanitary
SKIP,ff1538b5-d67c-4e04-92de-8b966dc12b7e,Long Beach Porta Potties,Long Beach,California,(562) 312-2447,contact@longbeachportapotties.com,,KEEP,https://longbeachportapotties.com/,,KEEP,https://www.facebook.com/longbeachportapotties/,https://www.instagram.com/longbeachportapotties,https://www.linkedin.com/company/long-beach-porta-potties/,https://twitter.com/longbeachpotty
UPDATE,ff85f6a9-247b-4a83-8edb-a4f1bcc2e3d0,Western Sanitation,Gunnison,Colorado,(970) 710-0363,,rentals@westernsanitation.com,ADD,,https://westernsanitation.com/,ADD,http://www.facebook.com/westernsanitation,http://instagram.com/westernsanitation,,